[
	{
		"company": "Brickwords Landscape and Design",
		"link": "/member_directory/36990",
		"street": "98 Blessington Rd",
		"city": "Corbyville, ON",
		"postCode": "K0K 1V0",
		"contact": "Andrew Letersky",
		"phone": "613-922-6562",
		"website": "http://brickworkslandscape.com"
	},
	{
		"company": "Bridge Contracting Ltd.",
		"link": "/member_directory/33576",
		"street": "71 Cavehill Cres.",
		"city": "Toronto, ON",
		"postCode": "M1R 4P8",
		"contact": "George Tchamitchian",
		"phone": "(647) 987-2919",
		"website": "http://bridgecontracting.ca"
	},
	{
		"company": "Bridlewood Homes",
		"link": "/member_directory/35669",
		"street": "3334 Wonderland Rd. S.",
		"city": "London, ON",
		"postCode": "N6L 1A6",
		"contact": "Carmine Gargarella",
		"phone": "(519) 652-1455",
		"website": "http://bridlewoodhomes.ca"
	},
	{
		"company": "Bright Interiors Inc.",
		"link": "/member_directory/37091",
		"street": "2700 Dufferin St Unit 83",
		"city": "Toronto, ON",
		"postCode": "M6B 4J3",
		"contact": "Julio Valle",
		"phone": "416-538-9705",
		"website": null
	},
	{
		"company": "Brigil Homes",
		"link": "/member_directory/34657",
		"street": "98 rue Lois",
		"city": "Gatineau, Quebec",
		"postCode": "J8Y 3R7",
		"contact": "Martin Chenier",
		"phone": "(819) 243-7392",
		"website": "http://brigil.com"
	},
	{
		"company": "Brimage Tyrrell Van Severen & Homeniuk",
		"link": "/member_directory/35191",
		"street": "21 Norfolk St. N.",
		"city": "Simcoe, ON",
		"postCode": "N3Y 4L1",
		"contact": "James Boll",
		"phone": "(519) 426-5840",
		"website": null
	},
	{
		"company": "Britech Corporation",
		"link": "/member_directory/33318",
		"street": "17 Pullman Crt.",
		"city": "Toronto, ON",
		"postCode": "M1X 1E4",
		"contact": "Gerry Lemieux",
		"phone": "(416) 335-7790",
		"website": "http://britech.ca"
	},
	{
		"company": "Broadway Flooring Centre Ltd.",
		"link": "/member_directory/33319",
		"street": "401 Magnetic Dr. Ste. 29",
		"city": "Toronto, ON",
		"postCode": "M3J 3H9",
		"contact": "Marzena Nedza",
		"phone": "(416) 730-1830",
		"website": "http://broadwayfloors.com"
	},
	{
		"company": "Broadway Homes",
		"link": "/member_directory/32903",
		"street": "7501 Keele St. Ste. 100",
		"city": "Vaughan, ON",
		"postCode": "L4K 1Y2",
		"contact": "Matthew Bratty",
		"phone": "(905) 761-8200",
		"website": "http://broadwayhomes.com"
	},
	{
		"company": "BROCCOLINI",
		"link": "/member_directory/32904",
		"street": "2680 Matheson Blvd. E. Ste. 104",
		"city": "Mississauga, ON",
		"postCode": "L4W 0A5",
		"contact": "Phil Brennen",
		"phone": "(416) 242-7772",
		"website": "http://broccolini.com"
	},
	{
		"company": "Brock Doors & Windows Inc.",
		"link": "/member_directory/33577",
		"street": "278 Orenda Rd.",
		"city": "Brampton, ON",
		"postCode": "L6T 4X6",
		"contact": "John Nolet",
		"phone": "(905) 791-2850",
		"website": "http://brockwindows.com"
	},
	{
		"company": "Brodco Construction Ltd.",
		"link": "/member_directory/35743",
		"street": "1665 Phillbrook Cres",
		"city": "London, ON",
		"postCode": "N5X 3H4",
		"contact": "Brodie Watson",
		"phone": "(519) 433-5301",
		"website": "http://brodco.com"
	},
	{
		"company": "Brodrecht's Flooring Centre",
		"link": "/member_directory/36886",
		"street": "45 N.land Rd.",
		"city": "Waterloo, ON",
		"postCode": "N2V 1Y8",
		"contact": "Matt McKenna",
		"phone": "(519) 885-3200",
		"website": "http://brodrechts.com"
	},
	{
		"company": "Brody's Mechanical",
		"link": "/member_directory/35234",
		"street": "1750 County Rd. 10, R.R. #1",
		"city": "Simcoe, ON",
		"postCode": "N3Y 4J9",
		"contact": "Brody Thompson",
		"phone": "(519) 428-4102",
		"website": null
	},
	{
		"company": "Bromberg Homes, Werner Bromberg Ltd.",
		"link": "/member_directory/36733",
		"street": "44 Saltsman Dr. Unit #5",
		"city": "Cambridge, ON",
		"postCode": "N3H 4R7",
		"contact": "Shanna Frazer",
		"phone": "(519) 650-1161",
		"website": "http://bromberghomes.com"
	},
	{
		"company": "Bromont Group",
		"link": "/member_directory/32905",
		"street": "457 Jevlan Dr. Ste. 8",
		"city": "Woodbridge, ON",
		"postCode": "L4L 7Z9",
		"contact": "Saverio Montemarano",
		"phone": "(905) 850-3333",
		"website": "http://bromonthomes.com"
	},
	{
		"company": "Brook-Lite Homes Ltd.",
		"link": "/member_directory/35913",
		"street": "128 Lake St.",
		"city": "St. Catharines, ON",
		"postCode": "L2R 5Y1",
		"contact": "Ken Martens",
		"phone": "(905) 682-7001",
		"website": "http://brook-lite.com"
	},
	{
		"company": "Brookfield Residential",
		"link": "/member_directory/35914",
		"street": "100-7303 Warden Ave.",
		"city": "Markham, ON",
		"postCode": "L3R 5Y6",
		"contact": "Brian Couperthwaite",
		"phone": "1-800-387-8545",
		"website": "http://brookfieldhomes.ca"
	},
	{
		"company": "Brookfield Residential",
		"link": "/member_directory/32906",
		"street": "7303 Warden Ave. Ste. 100",
		"city": "Markham, ON",
		"postCode": "L3R 5Y6",
		"contact": "Sid Kerrigan",
		"phone": "(905) 477-5111",
		"website": "http://brookfieldhomes.ca"
	},
	{
		"company": "Brookfield Residential",
		"link": "/member_directory/34443",
		"street": "7303 Warden Ave., Suite 100",
		"city": "Markham, ON",
		"postCode": "L3R 5Y6",
		"contact": "Brian Couperthwaite",
		"phone": "(905) 948-5011",
		"website": "http://brookfieldhomes.ca"
	},
	{
		"company": "Brooktree Homes Inc.",
		"link": "/member_directory/36323",
		"street": "P.O. Box 60, 3259 Stonebrook",
		"city": "Brights Grove, ON",
		"postCode": "N0N 1C0",
		"contact": "Frank Durco, Jr.",
		"phone": "(519) 869-4558",
		"website": "http://brooktreehomes.com"
	},
	{
		"company": "Brouwer Homes",
		"link": "/member_directory/35168",
		"street": "71 Old Highway 3",
		"city": "Jarvis, ON",
		"postCode": "N0A 1J0",
		"contact": "Pete Brouwer",
		"phone": "(519) 587-5174",
		"website": null
	},
	{
		"company": "Brouwer Plumbing & Heating",
		"link": "/member_directory/35886",
		"street": "833 Central Ave.",
		"city": "London, ON",
		"postCode": "N5W 3R1",
		"contact": "Paul Zubot",
		"phone": "(519) 672-1631",
		"website": "http://brouwerplumbing.com"
	},
	{
		"company": "Brouwer Sod Farms Ltd.",
		"link": "/member_directory/33320",
		"street": "23965 Warden Ave.",
		"city": "Keswick, ON",
		"postCode": "L4P 3E9",
		"contact": "Gerry Brouwer",
		"phone": "(416) 291-2323",
		"website": "http://brouwersod.com"
	},
	{
		"company": "Brown Group of Companies Inc. (The)",
		"link": "/member_directory/32907",
		"street": "38 Berwick Ave.",
		"city": "Toronto, ON",
		"postCode": "M5P 1H1",
		"contact": "Jay Brown",
		"phone": "(416) 487-5122",
		"website": "http://thebrowngroup.net"
	},
	{
		"company": "Brown Window Corporation",
		"link": "/member_directory/33321",
		"street": "185 Snow Blvd.",
		"city": "Concord, ON",
		"postCode": "L4K 4N9",
		"contact": "Angelo Cutone",
		"phone": "(905) 738-6045",
		"website": "http://brownwindow.com"
	},
	{
		"company": "Browns Concrete Products Ltd.",
		"link": "/member_directory/36666",
		"street": "3075 Herold Dr.",
		"city": "Sudbury, ON",
		"postCode": "P3E 6K9",
		"contact": "Manfred Herold",
		"phone": "(705) 522-8220",
		"website": "http://brownsconcrete.com"
	},
	{
		"company": "Bruce McMillan & Company Properties Inc.",
		"link": "/member_directory/35670",
		"street": "613 Eagletrace Dr.",
		"city": "London, ON",
		"postCode": "N6G 0E8",
		"contact": "Bruce McMillan",
		"phone": "(519) 667-9725",
		"website": "http://brucemcmillan.ca"
	},
	{
		"company": "Bruinsma Excavating Ltd.",
		"link": "/member_directory/34320",
		"street": "P.O. Box 292",
		"city": "Goderich, ON",
		"postCode": "N7A 3Z2",
		"contact": "Paul Bruinsma",
		"phone": "(519) 524-8668",
		"website": null
	},
	{
		"company": "Bruno's Contracting Inc.",
		"link": "/member_directory/36714",
		"street": "665 Hewitson St.",
		"city": "Thunder Bay, ON",
		"postCode": "P7B 5V5",
		"contact": "John Simperl",
		"phone": "(807) 623-1855",
		"website": null
	},
	{
		"company": "Bryan, Jason & Associates",
		"link": "/member_directory/33767",
		"street": "25 Adelaide St. E. Ste. 1500",
		"city": "Toronto, ON",
		"postCode": "M5C 3A1",
		"contact": "Kate Sheridan",
		"phone": "(416) 867-9295",
		"website": "http://bryan-jason.ca"
	},
	{
		"company": "Bryant Renovations",
		"link": "/member_directory/33578",
		"street": "680 Queens Quay W. Ste. 703",
		"city": "Toronto, ON",
		"postCode": "M5V 2Y9",
		"contact": "Dennis Bryant",
		"phone": "(416) 260-0818",
		"website": "http://bryantrenovations.com"
	},
	{
		"company": "BSH Home Appliance Ltd.",
		"link": "/member_directory/33322",
		"street": "6696 Financial Dr. Ste. 3",
		"city": "Mississauga, ON",
		"postCode": "L5N 7J6",
		"contact": "Marla Easser",
		"phone": "(905) 812-6007",
		"website": "http://bosch-appliances.ca"
	},
	{
		"company": "BTY Consultancy Group Inc.",
		"link": "/member_directory/33768",
		"street": "119 Spadina Ave. Ste. 305",
		"city": "Toronto, ON",
		"postCode": "M5V 2L1",
		"contact": "Darren Cash",
		"phone": "(416) 596-9339",
		"website": "http://bty.com"
	},
	{
		"company": "Buchanan & Hall",
		"link": "/member_directory/36607",
		"street": "615 Huron St.",
		"city": "Stratford, ON",
		"postCode": "N5A 6S6",
		"contact": "Joel Anderson",
		"phone": "(519) 271-4793",
		"website": null
	},
	{
		"company": "Buchanan Kitchen & Bath",
		"link": "/member_directory/36153",
		"street": "1837 Lansdowne St. W.",
		"city": "Peterborough, ON",
		"postCode": "K9K 1R4",
		"contact": "Steve Buchanan",
		"phone": "(705) 743-8945",
		"website": "http://buchanankitchen.com"
	},
	{
		"company": "Bucholtz Home Comfort",
		"link": "/member_directory/36053",
		"street": "79 Bayswater St.",
		"city": "Woodstock, ON",
		"postCode": "N4S 5K4",
		"contact": "Jamie Bucholtz",
		"phone": "(519) 608-2825",
		"website": null
	},
	{
		"company": "Budget Propane Corporation",
		"link": "/member_directory/36435",
		"street": "1011 Beiers Rd. R.R.#1",
		"city": "Gravenhurst, ON",
		"postCode": "P1P 1R1",
		"contact": "Mark Leigh",
		"phone": "(705) 687-5608",
		"website": null
	},
	{
		"company": "Build All Contractors",
		"link": "/member_directory/36278",
		"street": "5427 Hwy #2",
		"city": "Shannonville, ON",
		"postCode": "K0K 3A0",
		"contact": "Tom Maracle",
		"phone": "(613) 969-1315",
		"website": null
	},
	{
		"company": "Build Toronto Inc.",
		"link": "/member_directory/32908",
		"street": "200 King St. W. Ste. 200",
		"city": "Toronto, ON",
		"postCode": "M5H 3T4",
		"contact": "Helen Finch",
		"phone": "(416) 981-3889",
		"website": "http://buildtoronto.ca"
	},
	{
		"company": "buildABILITY Corporation",
		"link": "/member_directory/33769",
		"street": "170 Sheppard Ave. E. Ste. 202",
		"city": "Toronto, ON",
		"postCode": "M2N 3A4",
		"contact": "Michael Lio",
		"phone": "(416) 961-3487",
		"website": "http://buildability.ca"
	},
	{
		"company": "Buildcrest Ltd.",
		"link": "/member_directory/32909",
		"street": "242 Applewood Cres. Ste. 5",
		"city": "Concord, ON",
		"postCode": "L4K 4E5",
		"contact": "Hani Killu",
		"phone": "(905) 669-0222",
		"website": null
	},
	{
		"company": "Builder Insight Group Inc.",
		"link": "/member_directory/33770",
		"street": "80 Grantham Ave. S. Ste. 100",
		"city": "St. Catharines, ON",
		"postCode": "L2P 3H1",
		"contact": "Maggie Camp",
		"phone": "1-866-281-9626",
		"website": "http://builderinsightgroup.com"
	},
	{
		"company": "Builder Lynx",
		"link": "/member_directory/33771",
		"street": "64 Donlea Dr.",
		"city": "Toronto, ON",
		"postCode": "M4G 2M4",
		"contact": "Alex Moots",
		"phone": "(416) 425-2925",
		"website": "http://builderlynx.com"
	},
	{
		"company": "Builders Choice Air Systems Ltd.",
		"link": "/member_directory/35887",
		"street": "492 Hill St.",
		"city": "London, ON",
		"postCode": "N6B 1E7",
		"contact": "Dave Crackel",
		"phone": "(519) 642-7000",
		"website": "http://builderschoiceair.com"
	},
	{
		"company": "Builders' Warehouse / BMR",
		"link": "/member_directory/34886",
		"street": "3636 Innes Rd.",
		"city": "Orleans, ON",
		"postCode": "K1C 1T1",
		"contact": "Marc Choquette",
		"phone": "(613) 824-2702",
		"website": "http://builderswarehouse.ca"
	},
	{
		"company": "Building Knowledge Canada Inc.",
		"link": "/member_directory/35112",
		"street": "240 Holiday Inn Dr., Unit 0",
		"city": "Cambridge, ON",
		"postCode": "N3C 3X4",
		"contact": "Rob Johnston",
		"phone": "(519) 658-6232",
		"website": null
	},
	{
		"company": "Building Knowledge Canada Inc.",
		"link": "/member_directory/36826",
		"street": "240 Holiday Inn Dr.",
		"city": "Cambridge, ON",
		"postCode": "N3C 3X4",
		"contact": "Andy Oding",
		"phone": "(519) 658-6232",
		"website": "http://buildingknowledge.ca"
	},
	{
		"company": "Building Products of Canada",
		"link": "/member_directory/33323",
		"street": "65D Huxley Rd.",
		"city": "Toronto, ON",
		"postCode": "M9M 1H5",
		"contact": "Steven Heusser",
		"phone": "(416) 747-1100",
		"website": "http://bpcan.com"
	},
	{
		"company": "Building Products of Canada",
		"link": "/member_directory/36667",
		"street": "379 Wembley Dr.",
		"city": "Sudbury, ON",
		"postCode": "P3E 1N8",
		"contact": "Tom Kellar",
		"phone": "1-800-268-5927",
		"website": "http://bpcan.com"
	},
	{
		"company": "Building Water Solutions Inc.",
		"link": "/member_directory/33324",
		"street": "22 St. Clair Ave. E. Ste. 1500",
		"city": "Toronto, ON",
		"postCode": "M4T 2S5",
		"contact": "Christopher Serrie",
		"phone": "(416) 928-3773",
		"website": "http://buildingwatersolutions.com"
	},
	{
		"company": "Buildtec Building Systems Corp",
		"link": "/member_directory/37090",
		"street": "345 Horner Ave Unit 100",
		"city": "Etobicoke, ON",
		"postCode": "M8W 1Z6",
		"contact": "Hussein Mussani",
		"phone": "416-252-6165",
		"website": null
	},
	{
		"company": "Built-In Technology Inc.",
		"link": "/member_directory/34159",
		"street": "9000 Keele St. Unit 12",
		"city": "Vaughan, ON",
		"postCode": "L4K 0B3",
		"contact": "Stefan Tuzi",
		"phone": "(416) 499-4699",
		"website": "http://builtintechnology.com"
	},
	{
		"company": "Bungalow Homes",
		"link": "/member_directory/37183",
		"street": "3409 McKay Ave",
		"city": "Windsor, ON",
		"postCode": "N9E 2R8",
		"contact": "Nicole Ciarrocchi",
		"phone": "519-734-6400",
		"website": null
	},
	{
		"company": "Burdett Electric",
		"link": "/member_directory/36354",
		"street": "116 1/2 Michigan Ave.",
		"city": "Point Edward, ON",
		"postCode": "N7V 1E6",
		"contact": "Gary Burdett",
		"phone": "(519) 336-6415",
		"website": null
	},
	{
		"company": "BURDIFILEK",
		"link": "/member_directory/33772",
		"street": "183 Bathurst St. Ste. 300",
		"city": "Toronto, ON",
		"postCode": "M6J 1L5",
		"contact": "Paul Filek",
		"phone": "(416) 703-4334",
		"website": "http://burdifilek.com"
	},
	{
		"company": "Burke-Robertson LLP",
		"link": "/member_directory/34794",
		"street": "441 MacLaren St. Suite 200",
		"city": "Ottawa, ON",
		"postCode": "K2P 2H3",
		"contact": "Nancy Johnson",
		"phone": "(613) 236-9665",
		"website": "http://burkerobertson.com"
	},
	{
		"company": "Burling & Griffith Flooring Limited",
		"link": "/member_directory/37155",
		"street": "1806 Wharncliffe Rd S",
		"city": "London, ON",
		"postCode": "N6L 1K1",
		"contact": "Barry Griffith",
		"phone": "519 652 8695",
		"website": null
	},
	{
		"company": "Burling & Griffith Flooring Ltd.",
		"link": "/member_directory/36507",
		"street": "1806 Wharncliffe Rd. S.",
		"city": "London, ON",
		"postCode": "N6L 1K1",
		"contact": "Barry Griffith",
		"phone": "(519) 652-8695",
		"website": null
	},
	{
		"company": "Burlington Post",
		"link": "/member_directory/35473",
		"street": "5040 Mainway Unit #1",
		"city": "Burlington, ON",
		"postCode": "L7L 7G5",
		"contact": "Allan Roshko",
		"phone": "(905) 632-4444",
		"website": "http://haltonsearch.com"
	},
	{
		"company": "Burnac Corporation",
		"link": "/member_directory/32910",
		"street": "44 St. Clair Ave. W.",
		"city": "Toronto, ON",
		"postCode": "M4V 3C9",
		"contact": "Tony Barry",
		"phone": "(416) 964-3600",
		"website": "http://burnac.com"
	},
	{
		"company": "Burnstein Brick",
		"link": "/member_directory/35985",
		"street": "176 Bunting Rd.",
		"city": "St. Catharines, ON",
		"postCode": "L2M 3Y1",
		"contact": "Chuck McShane",
		"phone": "(905) 685-9797",
		"website": "http://burnsteinbrick.com"
	},
	{
		"company": "Burton Exteriors Inc.",
		"link": "/member_directory/34160",
		"street": "14 Truman Rd.",
		"city": "Barrie, ON",
		"postCode": "L4N 8Y8",
		"contact": "Shawn Burton",
		"phone": "(905) 793-1300",
		"website": "http://burtonexteriors.com"
	},
	{
		"company": "Business Solutions ",
		"link": "/member_directory/37135",
		"street": "963 Westport Cres Unit 6",
		"city": "Mississauga, ON",
		"postCode": "L5T 1S3",
		"contact": "Matt Lis",
		"phone": "905 696 6932",
		"website": null
	},
	{
		"company": "BVM Contracting",
		"link": "/member_directory/37022",
		"street": "21 Scarborough Heights Blvd",
		"city": "Toronto, ON",
		"postCode": "M1M 2V3",
		"contact": "Vince Meagher",
		"phone": "416-265-9602",
		"website": null
	},
	{
		"company": "Byers Truss",
		"link": "/member_directory/36338",
		"street": "121 Kendall St.",
		"city": "Sarnia, ON",
		"postCode": "N7V 4G6",
		"contact": "Gordon Byers",
		"phone": "(519) 332-8800",
		"website": "http://byerstruss.com"
	},
	{
		"company": "Byron Building Supplies Ltd.",
		"link": "/member_directory/36027",
		"street": "327 Oak St. E.",
		"city": "North Bay, ON",
		"postCode": "P1B 1A3",
		"contact": "Barry &amp; David Hallett",
		"phone": "(705) 474-8980",
		"website": null
	},
	{
		"company": "C&M Drywall & Interior Systems",
		"link": "/member_directory/36340",
		"street": "80 UBE Dr.",
		"city": "Sarnia, ON",
		"postCode": "N7W 1B6",
		"contact": "Mike Deleersnyde",
		"phone": "(519) 542-4900",
		"website": null
	},
	{
		"company": "C. F. Crozier & Associoates",
		"link": "/member_directory/35113",
		"street": "15 Martin St. Ste. 202",
		"city": "Milton, ON",
		"postCode": "L9T 2R1",
		"contact": "Jim Firth",
		"phone": "(905) 875-0026",
		"website": null
	},
	{
		"company": "C.A. Reiche & Sons Ltd.",
		"link": "/member_directory/36317",
		"street": "R.R. #4, 40901 Highway #41",
		"city": "Pembroke, ON",
		"postCode": "K8A 6W5",
		"contact": "Ron Reiche",
		"phone": "(613) 735-4104",
		"website": null
	},
	{
		"company": "C.F. Crozier & Associates",
		"link": "/member_directory/33773",
		"street": "The HarbourEdge Building 40 Huron St.",
		"city": "Collingwood, ON",
		"postCode": "L9Y 4R3",
		"contact": "Jim Koutroubis",
		"phone": "(705) 446-3510",
		"website": "http://cfcrozier.ca"
	},
	{
		"company": "C3 Construction",
		"link": "/member_directory/35744",
		"street": "1421 Byron Baseline Rd.",
		"city": "London, ON",
		"postCode": "N6K 2G1",
		"contact": "Jeff Clark",
		"phone": "(519) 671-1321",
		"website": null
	},
	{
		"company": "Cable Bridge Enterprises Ltd.",
		"link": "/member_directory/36389",
		"street": "1110 Hwy. #89",
		"city": "Alliston, ON",
		"postCode": "L9R 1R3",
		"contact": "Peter Biffis",
		"phone": "(705) 435-5501",
		"website": null
	},
	{
		"company": "Cachet Estate Homes Inc.",
		"link": "/member_directory/32911",
		"street": "361 Connie Cres. Ste. 200",
		"city": "Concord, ON",
		"postCode": "L4K 5R2",
		"contact": "Desi Auciello",
		"phone": "(905) 764-1983",
		"website": "http://cachethomes.com"
	},
	{
		"company": "Cada Construction Inc.",
		"link": "/member_directory/34736",
		"street": "854C Boyd Ave.",
		"city": "Ottawa, ON",
		"postCode": "K2A 2E1",
		"contact": "Clark Cada",
		"phone": "(613) 729-1073",
		"website": "http://cadacon.ca"
	},
	{
		"company": "Caesarstone Canada",
		"link": "/member_directory/33325",
		"street": "8899 Jane St.",
		"city": "Concord, ON",
		"postCode": "L4K 2M6",
		"contact": "Les Graham",
		"phone": "(416) 479-8400",
		"website": "http://caesarstone.ca"
	},
	{
		"company": "Caesarstone Canada",
		"link": "/member_directory/35474",
		"street": "8899 Jane St.",
		"city": "Concord, ON",
		"postCode": "L4K 2M6",
		"contact": "Les Graham",
		"phone": "(416) 479-8400",
		"website": "http://caesarstone.ca"
	},
	{
		"company": "Caesarstone Canada",
		"link": "/member_directory/35809",
		"street": "8899 Jane St.",
		"city": "Concord, ON",
		"postCode": "L4K 2M6",
		"contact": "Jackie Phillips",
		"phone": "(519) 694-4530",
		"website": "http://caesarstone.ca"
	},
	{
		"company": "Caesarstone Canada",
		"link": "/member_directory/34543",
		"street": "8899 Jane St.",
		"city": "Concord, ON",
		"postCode": "L4K 2M6",
		"contact": "Les Graham Dave Ardito",
		"phone": "(416) 479-8400",
		"website": "http://caesarstone.com"
	},
	{
		"company": "Caiden-Keller Homes Inc.",
		"link": "/member_directory/36734",
		"street": "568 Springwater Dr.",
		"city": "Waterloo, ON",
		"postCode": "N2V 2K6",
		"contact": "Tyler Keller",
		"phone": "(519) 212-8979",
		"website": "http://caiden-kellerhomes.com"
	},
	{
		"company": "Calado & Lima Home Improvement Inc.",
		"link": "/member_directory/33579",
		"street": "324 Caledonia Rd.",
		"city": "York, ON",
		"postCode": "M6E 4T6",
		"contact": "Carlos Calado",
		"phone": "(416) 782-0110",
		"website": "http://caladolima.ca"
	},
	{
		"company": "Caliber Communications",
		"link": "/member_directory/37041",
		"street": "100-3 Lancing Drive",
		"city": "Hamilton, ON",
		"postCode": "L8W 3L6",
		"contact": "Frances Alongi",
		"phone": "1 855 755 7233",
		"website": null
	},
	{
		"company": "Caliber Homes",
		"link": "/member_directory/32912",
		"street": "51 Roysun Rd. Unit 8",
		"city": "Vaughan, ON",
		"postCode": "L4L 8P9",
		"contact": "Danny DiMeo",
		"phone": "(905) 264-0100",
		"website": "http://caliberhomes.ca"
	},
	{
		"company": "California Closets",
		"link": "/member_directory/33326",
		"street": "220 Creditview Rd. Unit A",
		"city": "Vaughan, ON",
		"postCode": "L4L 9N4",
		"contact": "Adam Shearer",
		"phone": "(905) 669-1599",
		"website": "http://calclosets.com"
	},
	{
		"company": "California Spa & Fitness",
		"link": "/member_directory/37192",
		"street": "169 Exeter Road",
		"city": "London, ON",
		"postCode": "N6L 1A4",
		"contact": "Ted Fennell",
		"phone": "519-652-3535",
		"website": null
	},
	{
		"company": "Callery Group (The)",
		"link": "/member_directory/34513",
		"street": "200 - 1032 Brock St. S.",
		"city": "Whitby, ON",
		"postCode": "L1N 4L8",
		"contact": "Brian Callery",
		"phone": "(905) 430-7444",
		"website": "http://callerygroup.com"
	},
	{
		"company": "Cam's Heating & Air Conditioning Inc.",
		"link": "/member_directory/36521",
		"street": "24 Spackman Blvd.",
		"city": "St. Thomas, ON",
		"postCode": "N5P 4A3",
		"contact": "Steve Thompson",
		"phone": "(519) 631-9878",
		"website": null
	},
	{
		"company": "Cambria Canada",
		"link": "/member_directory/36887",
		"street": "91 Parliament St.",
		"city": "Toronto, ON",
		"postCode": "M5A 3Y7",
		"contact": "Tanya Rentzos",
		"phone": "(416) 320-1813",
		"website": "http://cambriacanada.com"
	},
	{
		"company": "Cambria Canada",
		"link": "/member_directory/36124",
		"street": "91 Parliament St.",
		"city": "Toronto, ON",
		"postCode": "M5A 3Y7",
		"contact": "Sandie MacGhee",
		"phone": "(905) 951-1011",
		"website": "http://cambriacanada.com"
	},
	{
		"company": "Cambria Canada",
		"link": "/member_directory/33327",
		"street": "91 Parliment St.",
		"city": "Toronto, ON",
		"postCode": "M5A 3Y7",
		"contact": "Sara Rooney",
		"phone": "(416) 363-8801",
		"website": "http://cambriacanada.com"
	},
	{
		"company": "Cambria Canada",
		"link": "/member_directory/36970",
		"street": "91 Parliament St.",
		"city": "Toronto, ON",
		"postCode": "M5A 3Y7",
		"contact": "Kristen McCaw",
		"phone": "(952) 944-1676",
		"website": "http://cambriacanada.com"
	},
	{
		"company": "Cambria Canada",
		"link": "/member_directory/35958",
		"street": "91 Parliament St.",
		"city": "Toronto, ON",
		"postCode": "M5A 3Y7",
		"contact": "Sara Rooney",
		"phone": "(416) 363-8801",
		"website": "http://cambriacanada.com"
	},
	{
		"company": "Cambria Canada",
		"link": "/member_directory/35810",
		"street": "91 Parliament St.",
		"city": "Toronto, ON",
		"postCode": "M5A 3Y7",
		"contact": "Kristen McCaw",
		"phone": "(647) 888-4496",
		"website": "http://cambriacanada.com"
	},
	{
		"company": "Cambria Canada",
		"link": "/member_directory/34544",
		"street": "91 Parliament St.",
		"city": "Toronto, ON",
		"postCode": "M5A 3Y7",
		"contact": "Kirstin Kucy",
		"phone": "(416) 320-1831",
		"website": "http://cambriacanada.com"
	},
	{
		"company": "Cambridge Elevating Inc.",
		"link": "/member_directory/34887",
		"street": "1261 Industrial Rd.",
		"city": "Cambridge, ON",
		"postCode": "N3H  4W3",
		"contact": "Pierre Cochrane",
		"phone": "(905) 377-5558",
		"website": "http://cambridgeelevating.com"
	},
	{
		"company": "Cambridge Elevating Inc.",
		"link": "/member_directory/35475",
		"street": "1261 Industrial Rd.",
		"city": "Cambridge, ON",
		"postCode": "N3H 4W3",
		"contact": "Jamie Hamilton",
		"phone": "(519) 653-4222",
		"website": "http://cambridgeelevating.com"
	},
	{
		"company": "Cambridge Homes Inc.",
		"link": "/member_directory/35293",
		"street": "1247 E. Hwy #8",
		"city": "Winona, ON",
		"postCode": "L8E 5G8",
		"contact": "Vince Antonucci",
		"phone": "(905) 961-2833",
		"website": "http://homesbycambridge.ca"
	},
	{
		"company": "Cameron Stephens Mortgage Capital Ltd.",
		"link": "/member_directory/33257",
		"street": "25 Adelaide St. E. Ste. 600",
		"city": "Toronto, ON",
		"postCode": "M5C 3A1",
		"contact": "Scott Cameron",
		"phone": "(416) 591-8787",
		"website": "http://cameronstephens.com"
	},
	{
		"company": "Cameron Window & Door Inc.",
		"link": "/member_directory/36578",
		"street": "1195 Gainsborough Rd.",
		"city": "London, ON",
		"postCode": "N6H 5L5",
		"contact": "Jason White",
		"phone": "(519) 473-0002",
		"website": null
	},
	{
		"company": "Cameron Window & Door Inc.",
		"link": "/member_directory/35811",
		"street": "1195 Gainsborough Rd",
		"city": "London, ON",
		"postCode": "N6H 5L5",
		"contact": "Steve Watson",
		"phone": "(519) 473-0002",
		"website": "http://cameronwindow.ca"
	},
	{
		"company": "Campanale Construction Ltd.",
		"link": "/member_directory/34658",
		"street": "1187 Bank St., Suite 200",
		"city": "Ottawa, ON",
		"postCode": "K1S 3X7",
		"contact": "Tony Campanale",
		"phone": "(613) 730-7000",
		"website": "http://campanale.com"
	},
	{
		"company": "Campeau Heating",
		"link": "/member_directory/36705",
		"street": "2288 Lasalle Blvd.",
		"city": "Sudbury, ON",
		"postCode": "P3A 2B1",
		"contact": "Jacques Campeau",
		"phone": "(705) 560-2441",
		"website": "http://campeauheating.com"
	},
	{
		"company": "Camrost Felcorp Inc.",
		"link": "/member_directory/32913",
		"street": "95 St. Clair Ave. W. Ste. 1600",
		"city": "Toronto, ON",
		"postCode": "M4V 1N6",
		"contact": "David Feldman",
		"phone": "(416) 486-1961",
		"website": "http://camrost-felcorp.com"
	},
	{
		"company": "Can-tario Brick & Stone",
		"link": "/member_directory/36579",
		"street": "P.O. Box 1551",
		"city": "Woodstock, ON",
		"postCode": "N4S 0A7",
		"contact": "John Byl",
		"phone": "(519) 537-6645",
		"website": null
	},
	{
		"company": "Can-tario Brick and Stone",
		"link": "/member_directory/36047",
		"street": "P.O. Box 1551",
		"city": "Woodstock, ON",
		"postCode": "N4S 0A7",
		"contact": "John Byl",
		"phone": "(519) 537-6645",
		"website": null
	},
	{
		"company": "Canada Building Materials",
		"link": "/member_directory/36125",
		"street": "2443 Whittington Dr.",
		"city": "Peterborough, ON",
		"postCode": "K9J 6X4",
		"contact": "Rob Lowes",
		"phone": "(705) 748-9442",
		"website": null
	},
	{
		"company": "Canada Glass & Mirror Co.",
		"link": "/member_directory/33328",
		"street": "155 Bentworth Ave.",
		"city": "Toronto, ON",
		"postCode": "M6A 1P6",
		"contact": "Lina Carvalho",
		"phone": "(416) 245-7032",
		"website": "http://canadaglass.ca"
	},
	{
		"company": "Canada Lands Company (CLC) Ltd.",
		"link": "/member_directory/34795",
		"street": "601-30 Metcalfe St.",
		"city": "Ottawa, ON",
		"postCode": "K1P 5L4",
		"contact": "Krista Durie",
		"phone": "(613) 998-7970",
		"website": "http://clc.ca"
	},
	{
		"company": "Canada Lands Company Ltd.",
		"link": "/member_directory/32914",
		"street": "1 University Ave. Ste. 1200",
		"city": "Toronto, ON",
		"postCode": "M5J 2P1",
		"contact": "Norm Jarus",
		"phone": "(416) 952-6100",
		"website": "http://clc.ca"
	},
	{
		"company": "Canada Mortgage & Housing Corp",
		"link": "/member_directory/36416",
		"street": "100 Sheppard Ave. E.",
		"city": "Toronto, ON",
		"postCode": "M2N 6Z1",
		"contact": "Abdellah Massaoudii",
		"phone": "(416) 218-3329",
		"website": null
	},
	{
		"company": "Canada Mortgage & Housing Corp.",
		"link": "/member_directory/36649",
		"street": "2037 Long Lake Rd., #A15",
		"city": "Sudbury, ON",
		"postCode": "P3E 6J9",
		"contact": "Jeffrey Kolibash",
		"phone": "(705) 562-6743",
		"website": "http://cmhc-schl.gc.ca"
	},
	{
		"company": "Canada Mortgage & Housing Corp.",
		"link": "/member_directory/35114",
		"street": "100 Sheppard Ave. E.",
		"city": "Toronto, ON",
		"postCode": "M2N 6Z1",
		"contact": "Anthony Passarelli",
		"phone": "(416) 250-3234",
		"website": null
	},
	{
		"company": "Canada Mortgage & Housing Corp.",
		"link": "/member_directory/35396",
		"street": "25 Main St. W. Ste 1000, PO Box 205",
		"city": "Hamilton, ON",
		"postCode": "L8P 1H1",
		"contact": "Linda Neave",
		"phone": "(905) 536-3542",
		"website": "http://cmhc-schl.gc.ca"
	},
	{
		"company": "Canada Mortgage & Housing Corp.",
		"link": "/member_directory/36964",
		"street": "383 Richmond, Suite 1010",
		"city": "London, ON",
		"postCode": "N6A 3C4",
		"contact": "Margot Stevens",
		"phone": "(519) 873-2407",
		"website": "http://cmhc-schl.gc.ca"
	},
	{
		"company": "Canada Mortgage & Housing Corp.",
		"link": "/member_directory/36720",
		"street": "28 N. Cumberland St., Suite 200",
		"city": "Thunder Bay, ON",
		"postCode": "P7A 4K9",
		"contact": "Patrick Larogue",
		"phone": "(807) 343-2010",
		"website": null
	},
	{
		"company": "Canada Mortgage & Housing Corp.",
		"link": "/member_directory/35962",
		"street": "100 Sheppard Ave. E., Suite 300",
		"city": "Toronto, ON",
		"postCode": "M2N 6N5",
		"contact": "Edgard Navarrete",
		"phone": "(416) 218-3329",
		"website": "http://chmc.ca"
	},
	{
		"company": "Canada Mortgage & Housing Corp.",
		"link": "/member_directory/35730",
		"street": "100 Sheppard Ave. E.",
		"city": "Toronto, ON",
		"postCode": "M2N 6Z1",
		"contact": "Anthony Passarelli",
		"phone": "(416) 250-2710",
		"website": "http://cmhc.ca"
	},
	{
		"company": "Canada Mortgage & Housing Corp.",
		"link": "/member_directory/36792",
		"street": "100 Sheppard Ave., Suite 300",
		"city": "Toronto, ON",
		"postCode": "M2N 6Z1",
		"contact": "Erica McLerie",
		"phone": "(416) 218-3318",
		"website": "http://cmhc-schl.gc.ca"
	},
	{
		"company": "Canada Mortgage & Housing Corp.",
		"link": "/member_directory/34514",
		"street": "100 Sheppard Ave. E., Suite 300",
		"city": "Toronto, ON",
		"postCode": "M2N 6Z1",
		"contact": "Andrew L. Scott",
		"phone": "(416) 218-3460",
		"website": "http://cmhc.ca"
	},
	{
		"company": "Canada Mortgage & Housing Corp.",
		"link": "/member_directory/33258",
		"street": "100 Sheppard Ave. E. Ste. 300",
		"city": "North York, ON",
		"postCode": "M2N 6Z1",
		"contact": "Nadia Frantellizzi",
		"phone": "(416) 221-2642",
		"website": "http://cmhc.ca"
	},
	{
		"company": "Canada Mortgage & Housing Corp.",
		"link": "/member_directory/34796",
		"street": "700 Montreal Rd., Suite BO-107",
		"city": "Ottawa, ON",
		"postCode": "K1A 0P7",
		"contact": "Vivian Chih",
		"phone": "(613) 748-4632",
		"website": "http://cmhc-schl.gc.ca"
	},
	{
		"company": "Canada Mortgage and Housing Corp.",
		"link": "/member_directory/36100",
		"street": "100 Sheppard Ave. E. Ste. 300",
		"city": "North York, ON",
		"postCode": "M2N 6Z1",
		"contact": "Olga Golozub",
		"phone": "(416) 250-314",
		"website": "http://cmhc.ca"
	},
	{
		"company": "Canada Trust - Builders Marketing and Dvlpt.",
		"link": "/member_directory/34494",
		"street": "77 King St. W 16th Flr., TD North Tower",
		"city": "Toronto, ON",
		"postCode": "M5K 1A2",
		"contact": "Natasha Rubin-Coupland",
		"phone": "(416) 301-3169",
		"website": "http://td.com"
	},
	{
		"company": "Canada Windows and Doors",
		"link": "/member_directory/34545",
		"street": "119 Consumers Dr.",
		"city": "Whitby, ON",
		"postCode": "L1N 1C4",
		"contact": "Andy VanHoof",
		"phone": "(905) 665-1506",
		"website": "http://canadawindowsanddoors.com"
	},
	{
		"company": "Canadian Automatic Sprinkler Association",
		"link": "/member_directory/33774",
		"street": "335 Renfrew Dr. Ste. 302",
		"city": "Markham, ON",
		"postCode": "L3R 9S9",
		"contact": "Jason Ryckman",
		"phone": "(905) 477-2270",
		"website": "http://casa-firesprinkler.org"
	},
	{
		"company": "Canadian Concrete Forming Ltd.",
		"link": "/member_directory/34161",
		"street": "100 Creditstone Rd.",
		"city": "Concord, ON",
		"postCode": "L4K 1P2",
		"contact": "Pat Lamanna",
		"phone": "(905) 738-5151",
		"website": null
	},
	{
		"company": "Canadian Manufactured Housing Institute",
		"link": "/member_directory/34797",
		"street": "150 Laurier Ave. W. Ste. 500",
		"city": "Ottawa, ON",
		"postCode": "K1P 5J4",
		"contact": "Kathleen Maynard",
		"phone": "(613) 563-3520",
		"website": "http://cmhi.ca"
	},
	{
		"company": "Canadian Printing Resources Inc.",
		"link": "/member_directory/37123",
		"street": "230 Eddystone Avenue",
		"city": "Toronto, ON",
		"postCode": "M3N 1H7",
		"contact": "Joe Fiorillo",
		"phone": "416-740-3388",
		"website": null
	},
	{
		"company": "Canadian Railings/Canadian Steel",
		"link": "/member_directory/34162",
		"street": "596 Oster Lane",
		"city": "Concord, ON",
		"postCode": "L4K 2C1",
		"contact": "Tony Taurasi",
		"phone": "(905) 669-9221",
		"website": "http://canadianrailings.com"
	},
	{
		"company": "Canadian Shield Consultants Agency Inc.",
		"link": "/member_directory/36650",
		"street": "21 King St. W.",
		"city": "St. Charles, ON",
		"postCode": "P0M 2W0",
		"contact": "Gerry Dignard",
		"phone": "(705) 867-5242",
		"website": "http://canadianshieldconsultants.com"
	},
	{
		"company": "Canadian Tire Assoc. Store",
		"link": "/member_directory/36198",
		"street": "101 Bell Blvd.",
		"city": "Belleville, ON",
		"postCode": "K8P 4V2",
		"contact": "Dennis McCullough",
		"phone": "(613) 968-6701",
		"website": null
	},
	{
		"company": "CanAlfa Group (2000) Inc.",
		"link": "/member_directory/32915",
		"street": "80 Lynn Williams St.",
		"city": "Toronto, ON",
		"postCode": "M6K 3R6",
		"contact": "Eric Jensen",
		"phone": "(416) 537-2321",
		"website": "http://liveinliberty.com"
	},
	{
		"company": "Canamould Extrusions Inc.",
		"link": "/member_directory/33330",
		"street": "101A Roytec Rd.",
		"city": "Woodbridge, ON",
		"postCode": "L4L 8A9",
		"contact": "Ned Santarossa",
		"phone": "(905) 264-4436",
		"website": "http://canamould.com"
	},
	{
		"company": "Canaroma International",
		"link": "/member_directory/33331",
		"street": "7979 W.on Rd.",
		"city": "Woodbridge, ON",
		"postCode": "L4L 1A6",
		"contact": "Frank Piacentini",
		"phone": "(905) 856-7979",
		"website": "http://canaroma.com"
	},
	{
		"company": "Canderel Residential Inc.",
		"link": "/member_directory/32916",
		"street": "1075 Bay St. Ste. 400",
		"city": "Toronto, ON",
		"postCode": "M5S 2B1",
		"contact": "Julie Robinson",
		"phone": "(416) 593-6366",
		"website": "http://canderel.com"
	},
	{
		"company": "Candevcon Limited",
		"link": "/member_directory/37124",
		"street": "9358 Goreway Drive",
		"city": "Brampton, ON",
		"postCode": "L6P 0M7",
		"contact": "Diarmuid Horgan",
		"phone": "905 794 0600",
		"website": null
	},
	{
		"company": "Cando Pro Roofing",
		"link": "/member_directory/34163",
		"street": "14 McCrackin Crt.",
		"city": "Thornhill, ON",
		"postCode": "L4J 2T3",
		"contact": "Larry Cohen",
		"phone": "(416) 629-2446",
		"website": "http://candoproroofing.com"
	},
	{
		"company": "CANDUE HOMES",
		"link": "/member_directory/36366",
		"street": "BOX 656",
		"city": "DURHAM, ON",
		"postCode": "N0G 1R0",
		"contact": "DON TREMBLE",
		"phone": "(519) 369-5051",
		"website": null
	},
	{
		"company": "Canduit Contracting Inc. (Electrical Specialists)",
		"link": "/member_directory/34164",
		"street": "3337 Pintail Circle",
		"city": "Mississauga, ON",
		"postCode": "L5N 6C9",
		"contact": "Peter Connolly",
		"phone": "(647) 236-3050",
		"website": null
	},
	{
		"company": "Caneast Shows Inc.",
		"link": "/member_directory/34798",
		"street": "200-200 Metcalfe St.",
		"city": "Ottawa, ON",
		"postCode": "K2P 1P7",
		"contact": "Ian Forsyth",
		"phone": "(613) 241-7775",
		"website": "http://caneastshows.com"
	},
	{
		"company": "Canlik Kitchens",
		"link": "/member_directory/33580",
		"street": "120 Milner Ave. Unit 6",
		"city": "Scarborough, ON",
		"postCode": "M1S 3R2",
		"contact": "Victor Chan",
		"phone": "(416) 412-7828",
		"website": "http://refaceyourkitchen.com"
	},
	{
		"company": "Cannon Homes",
		"link": "/member_directory/35671",
		"street": "785 Wonderland Rd. S.",
		"city": "London, ON",
		"postCode": "N6K 1M0",
		"contact": "Sherri Cannon",
		"phone": "(519) 851-9654",
		"website": "http://cannonhomesltd.ca"
	},
	{
		"company": "Canplas Industries",
		"link": "/member_directory/36436",
		"street": "31 Patterson Rd. P.O. Box 1800",
		"city": "Barrie, ON",
		"postCode": "L4M 4V3",
		"contact": "Carl Robb",
		"phone": "(705) 726-3361",
		"website": null
	},
	{
		"company": "Canterra Design & Consulting Inc.",
		"link": "/member_directory/34799",
		"street": "29 Tierney Dr.",
		"city": "Nepean, ON",
		"postCode": "K2J 4T3",
		"contact": "Cosimo Zacconi",
		"phone": "(613) 825-5675",
		"website": "http://canterradesign.ca"
	},
	{
		"company": "Canvas Developments Inc.",
		"link": "/member_directory/32917",
		"street": "100 Strada Dr. Ste. 1",
		"city": "Vaughan, ON",
		"postCode": "L4L 5V7",
		"contact": "Albert Vitullo",
		"phone": "(905) 264-8001",
		"website": "http://canvasdevelopments.ca"
	},
	{
		"company": "Capannelli Law Professional Corporation",
		"link": "/member_directory/37021",
		"street": "393 University Ave Suite 2000",
		"city": "Toronto, ON",
		"postCode": "M5G 1E6",
		"contact": "Dante Capannelli",
		"phone": "416-593-1541",
		"website": null
	},
	{
		"company": "Capcrete",
		"link": "/member_directory/34165",
		"street": "7500 Highway 27 Unit 26",
		"city": "Vaughan, ON",
		"postCode": "L4H 0J2",
		"contact": "Ken Hamid",
		"phone": "(905) 605-6105",
		"website": "http://capcrete.ca"
	},
	{
		"company": "Capital Cellars",
		"link": "/member_directory/34737",
		"street": "1160 Beaverwood Rd.",
		"city": "Manotick, ON",
		"postCode": "K4M 1A6",
		"contact": "Eric Schuller",
		"phone": "(613) 447-6030",
		"website": "http://capitalcellars.ca"
	},
	{
		"company": "Capital Developments",
		"link": "/member_directory/37118",
		"street": "45 Saint Clair Ave W Suite 1202",
		"city": "Toronto, ON",
		"postCode": "M4V 1K9",
		"contact": "Matt Young",
		"phone": "416 665 9310",
		"website": null
	},
	{
		"company": "Capital Fence & Wire (83) Ltd.",
		"link": "/member_directory/34975",
		"street": "5350 Canotek Rd., Unit 20",
		"city": "Gloucester, ON",
		"postCode": "K1J 9E2",
		"contact": "Pauline Joanisse",
		"phone": "(613) 745-6252",
		"website": null
	},
	{
		"company": "Capital Floors Inc.",
		"link": "/member_directory/37136",
		"street": "1015 Dupont St Unit 1",
		"city": "Toronto, ON",
		"postCode": "M6H 1Z7",
		"contact": "Thang Dinh",
		"phone": "416 536 2200",
		"website": null
	},
	{
		"company": "Capital Homes Inc.",
		"link": "/member_directory/36735",
		"street": "310 Fairway Rd. South P.O. Box",
		"city": "Kitchener, ON",
		"postCode": "N2C 2R6",
		"contact": "Adam Belsky",
		"phone": "(519) 570-2137",
		"website": "http://capitalhomes.on.ca"
	},
	{
		"company": "Capital View Development Inc.",
		"link": "/member_directory/34659",
		"street": "132 Putman Ave.",
		"city": "Ottawa, ON",
		"postCode": "K1M 1Z7",
		"contact": "Mark Larose",
		"phone": "(613) 796-5652",
		"website": "http://capitalviewdevelopment.com"
	},
	{
		"company": "Caplan's Appliances",
		"link": "/member_directory/33332",
		"street": "1111 W.on Rd.",
		"city": "Toronto, ON",
		"postCode": "M6N 3S3",
		"contact": "Marla Baker",
		"phone": "(416) 873-5114",
		"website": "http://caplans.ca"
	},
	{
		"company": "Car-Wal Door Systems Ltd.",
		"link": "/member_directory/35888",
		"street": "801 Progress Dr.",
		"city": "London, ON",
		"postCode": "N6N 1B7",
		"contact": "Bob Healey",
		"phone": "(519) 652-2611",
		"website": "http://carwal.ca"
	},
	{
		"company": "Car-Wal Door Systems Ltd.",
		"link": "/member_directory/35476",
		"street": "680 Tradewind Dr. Unit 10",
		"city": "Ancaster, ON",
		"postCode": "L9G 4V5",
		"contact": "Peter Fleming",
		"phone": "(905) 304-9700",
		"website": "http://carwal.on.ca"
	},
	{
		"company": "Cara Custom Homes Inc.",
		"link": "/member_directory/35294",
		"street": "115 Tollgate Dr.",
		"city": "Ancaster, ON",
		"postCode": "L9G 5C9",
		"contact": "Enzo Carobelli",
		"phone": "(905) 981-4778",
		"website": "http://caracustomhomes.com"
	},
	{
		"company": "CaraCo Development Corporation",
		"link": "/member_directory/35599",
		"street": "234 Concession St., Suite 101",
		"city": "Kingston, ON",
		"postCode": "K7K 6W6",
		"contact": "Rob Blommestyn",
		"phone": "(613) 542-8400",
		"website": "http://caraco.net"
	},
	{
		"company": "Cardel Homes Inc.",
		"link": "/member_directory/34660",
		"street": "301 Moodie Dr. Ste. 100",
		"city": "Nepean, ON",
		"postCode": "K2H 9C4",
		"contact": "Greg Graham",
		"phone": "(613) 820-1959",
		"website": "http://cardelhomes.com"
	},
	{
		"company": "Cardi Construction Ltd.",
		"link": "/member_directory/35566",
		"street": "600 Nebo Rd. R. R. #2",
		"city": "Hannon, ON",
		"postCode": "L0R 1P0",
		"contact": "Vince Cardinali",
		"phone": "(905) 560-3122",
		"website": "http://cardiconstruction.com"
	},
	{
		"company": "Cardinal Fine Cabinetry Corporation",
		"link": "/member_directory/35812",
		"street": "165 Exeter Rd.",
		"city": "London, ON",
		"postCode": "N6L 1A4",
		"contact": "Paul Bilyea",
		"phone": "(519) 652-3295",
		"website": "http://cardinalfinecabinetry.com"
	},
	{
		"company": "Cardwell Sign Company",
		"link": "/member_directory/36466",
		"street": "28 Currie St., Unit 2F",
		"city": "Barrie, ON",
		"postCode": "L4M 5N4",
		"contact": "Dave Stewart",
		"phone": "(705) 721-4724",
		"website": null
	},
	{
		"company": "Cardy Winters & Simon LLP",
		"link": "/member_directory/36827",
		"street": "103-630 Riverbend Dr.",
		"city": "Kitchener, ON",
		"postCode": "N2K 3S2",
		"contact": "Chris Winters",
		"phone": "(519) 744-4030",
		"website": "http://cardyassociates.com"
	},
	{
		"company": "Carey Homes Inc.",
		"link": "/member_directory/36736",
		"street": "P.O. Box 33051",
		"city": "Waterloo, ON",
		"postCode": "N2T 2M9",
		"contact": "Ryan Carey",
		"phone": "(519) 746-1640",
		"website": "http://careyhomes.ca"
	},
	{
		"company": "Carick Home Improvements (Carick Building Products Ltd.)",
		"link": "/member_directory/33581",
		"street": "597 Glen Park Ave.",
		"city": "Toronto, ON",
		"postCode": "M6B 2G4",
		"contact": "Geno Scopelleti",
		"phone": "(416) 781-6671",
		"website": "http://carickhome.com"
	},
	{
		"company": "Carillion Canada Inc.",
		"link": "/member_directory/32918",
		"street": "7077 Keele St.",
		"city": "Concord, ON",
		"postCode": "L4K 0B6",
		"contact": "Bruno Ierullo",
		"phone": "(905) 532-5200",
		"website": "http://carillion.ca"
	},
	{
		"company": "Carl's Waste Services",
		"link": "/member_directory/34888",
		"street": "5001 Herbert Rd.",
		"city": "Navan, ON",
		"postCode": "K4B 1J1",
		"contact": "Dan Meagher",
		"phone": "(613) 835-3600",
		"website": "http://ottawawaste.com"
	},
	{
		"company": "Carleton Refrigeration, Heating & Air Conditioning Ltd.",
		"link": "/member_directory/35660",
		"street": "150 Industrial Ave.",
		"city": "Carleton Place, ON",
		"postCode": "K7C 3T2",
		"contact": "Roger Harris",
		"phone": "(613) 257-8282",
		"website": "http://carletonrefrigeration.com"
	},
	{
		"company": "Carlisle Drywall",
		"link": "/member_directory/35567",
		"street": "7-1550 Yorkton Crt.",
		"city": "Burlington, ON",
		"postCode": "L7P 5B7",
		"contact": "Rejean Pellerin",
		"phone": "(905) 333-0111",
		"website": null
	},
	{
		"company": "Carlyle Communities",
		"link": "/member_directory/32919",
		"street": "476 Richmond St. W.",
		"city": "Toronto, ON",
		"postCode": "M5V 1Y2",
		"contact": "Naram Mansour",
		"phone": "(416) 422-0880",
		"website": "http://carlylecommunities.com"
	},
	{
		"company": "Carma Billing Services",
		"link": "/member_directory/34166",
		"street": "132 Walsh Rd.",
		"city": "Lindsay, ON",
		"postCode": "K9V 4R3",
		"contact": "Shannon Williams",
		"phone": "(705) 878-0711",
		"website": "http://carmaindustries.com"
	},
	{
		"company": "Carmelin Design + Build",
		"link": "/member_directory/32920",
		"street": "21A Grove Ave.",
		"city": "Toronto, ON",
		"postCode": "M6J 3B5",
		"contact": "Stephanie Rota",
		"phone": "(647) 292-7682",
		"website": "http://carmelin.ca"
	},
	{
		"company": "Carniello Contracting",
		"link": "/member_directory/37009",
		"street": "1275 Kelly Lake Rd Unit 2",
		"city": "Sudbury, ON",
		"postCode": "P3E 5P5",
		"contact": "Stefano Carniello",
		"phone": "705 562 3133",
		"website": "http://carniellocontracting.com"
	},
	{
		"company": "Carolina Homes",
		"link": "/member_directory/35672",
		"street": "1397 Shore Rd.",
		"city": "London, ON",
		"postCode": "N6K 4Z8",
		"contact": "Ron Henry",
		"phone": "(519) 317-1045",
		"website": "http://carolinahomes.ca"
	},
	{
		"company": "Carolyn Munro Design",
		"link": "/member_directory/34661",
		"street": "122 Banning Rd.",
		"city": "Kanata, ON",
		"postCode": "K2L 1C4",
		"contact": "Carolyn Munro",
		"phone": "(613) 831-9984",
		"website": "http://cmdesignbuild.com"
	},
	{
		"company": "Carpenters' District Council of Ontario",
		"link": "/member_directory/33775",
		"street": "222 Rowntree Dairy Rd.",
		"city": "Woodbridge, ON",
		"postCode": "L4L 9T2",
		"contact": "Mike Yorke",
		"phone": "(905) 652-4140",
		"website": "http://thecarpentersunion.ca"
	},
	{
		"company": "Carpet Emporium",
		"link": "/member_directory/35986",
		"street": "494 E.chester Ave.",
		"city": "St. Catharines, ON",
		"postCode": "L2M 6S3",
		"contact": "Carlo DeSantis",
		"phone": "(905) 682-0107",
		"website": "http://carpetemporium.ca"
	},
	{
		"company": "Carpet One",
		"link": "/member_directory/36238",
		"street": "285 Coleman St.",
		"city": "Belleville, ON",
		"postCode": "K8P 3H9",
		"contact": "Lynn Burley",
		"phone": "(613) 966-9988",
		"website": null
	},
	{
		"company": "Carr & Company Insurance Brokers Ltd",
		"link": "/member_directory/34800",
		"street": "210 - 1980 Ogilvie Rd.",
		"city": "Ottawa, ON",
		"postCode": "K1J 9L3",
		"contact": "Matthew Carr",
		"phone": "(613) 747-4700",
		"website": "http://carrandcompany.ca"
	},
	{
		"company": "Carriage Gate Homes Ltd.",
		"link": "/member_directory/35295",
		"street": "421 Brant St. Suite 201",
		"city": "Burlington, ON",
		"postCode": "L7R 2G3",
		"contact": "Nick Carnicelli",
		"phone": "(905) 637-8888",
		"website": "http://carriagegatehomes.com"
	},
	{
		"company": "Carrillo Carpets Floor Visions Ltd.",
		"link": "/member_directory/35209",
		"street": "493 Elgin St., Unit #3",
		"city": "Brantford, ON",
		"postCode": "N3S 7X3",
		"contact": "Carlos Carrillo",
		"phone": "(519) 756-4242",
		"website": null
	},
	{
		"company": "Carrothers and Associates Inc. Architecture",
		"link": "/member_directory/35397",
		"street": "1036 King St. W. Unit 201 Wesdale Village",
		"city": "Hamilton, ON",
		"postCode": "L8S 1L5",
		"contact": "David Carrothers",
		"phone": "(905) 574-1504",
		"website": "http://carrothersandassociates.com"
	},
	{
		"company": "Carson Reid Homes Ltd.",
		"link": "/member_directory/35075",
		"street": "183 Dufferin St.",
		"city": "Guelph, ON",
		"postCode": "N1H 4B3",
		"contact": "Carson Reid",
		"phone": "(519) 822-3682",
		"website": null
	},
	{
		"company": "Carson, Dunlop & Associates Ltd",
		"link": "/member_directory/33776",
		"street": "120 Carlton St. Ste. 407",
		"city": "Toronto, ON",
		"postCode": "M5A 4K2",
		"contact": "Alan Carson",
		"phone": "(416) 964-9415",
		"website": "http://carsondunlop.com"
	},
	{
		"company": "Carter/Calmont Lease & Rentals",
		"link": "/member_directory/35477",
		"street": "1020 Upper Wellington St.",
		"city": "Hamilton, ON",
		"postCode": "L9A 3S3",
		"contact": "Bryan Smith",
		"phone": "(905) 575-3737",
		"website": "http://carterrentals.com"
	},
	{
		"company": "Cartier Kitchens ",
		"link": "/member_directory/34976",
		"street": "430 Hazeldean Rd. Unit Unit2",
		"city": "Kanata, ON",
		"postCode": "K2L 1T9",
		"contact": "Sandra McLaurin",
		"phone": "(613) 521-6966",
		"website": "http://cartierkitchensottawa.com"
	},
	{
		"company": "Cartier Kitchens",
		"link": "/member_directory/36801",
		"street": "4391 Unit 3 King St. E.",
		"city": "Kitchener, ON",
		"postCode": "N2P 2G1",
		"contact": "David Kipp",
		"phone": "(519) 653-4500",
		"website": "http://cartierkitchens.com"
	},
	{
		"company": "Caruk Group Inc. (The)",
		"link": "/member_directory/33582",
		"street": "5 Lambeth Cres.",
		"city": "Toronto, ON",
		"postCode": "M9A 3A6",
		"contact": "James Caruk",
		"phone": "(416) 688-1454",
		"website": "http://thecarukgroup.com"
	},
	{
		"company": "Carwal Door Systems",
		"link": "/member_directory/37207",
		"street": "801 Progress Drive",
		"city": "London, ON",
		"postCode": "N6N 1B7",
		"contact": "Peter Fleming",
		"phone": "519-685-9797",
		"website": null
	},
	{
		"company": "Carwal Door Systems",
		"link": "/member_directory/36343",
		"street": "4226 Raney Cres.",
		"city": "London, ON",
		"postCode": "N6L 1C3",
		"contact": "Mike Graham",
		"phone": "(519) 652-2611",
		"website": "http://carwal.ca"
	},
	{
		"company": "Casa Bella Windows Inc.",
		"link": "/member_directory/36411",
		"street": "7630 Airport Rd.",
		"city": "Mississauga, ON",
		"postCode": "L4T 4G6",
		"contact": "Lou D&apos;Ambrosio",
		"phone": "(416) 650-1033",
		"website": null
	},
	{
		"company": "Casa Bella Windows Inc.",
		"link": "/member_directory/35139",
		"street": "7630 Airport Rd.",
		"city": "Mississauga, ON",
		"postCode": "L4T 4G6",
		"contact": "Sal Amato",
		"phone": "1-800-407-9917",
		"website": null
	},
	{
		"company": "Casa Bella Windows Inc.",
		"link": "/member_directory/36802",
		"street": "7630 Airport Rd.",
		"city": "Mississauga, ON",
		"postCode": "L4T 4G6",
		"contact": "Sal Amato",
		"phone": "(416) 650-1033",
		"website": "http://casabellawindows.ca"
	},
	{
		"company": "Casa Bella Windows Inc.",
		"link": "/member_directory/34546",
		"street": "7630 Airport Rd.",
		"city": "Mississauga, ON",
		"postCode": "L4T 4G6",
		"contact": "Sal Amato",
		"phone": "(416) 650-1033",
		"website": "http://casabellawindows.ca"
	},
	{
		"company": "Casey's Creative Kitchens",
		"link": "/member_directory/37146",
		"street": "468 Talbot Street",
		"city": "St Thomas, ON",
		"postCode": "N5P 1C2",
		"contact": "Chris Willemse",
		"phone": "519-631-0401",
		"website": null
	},
	{
		"company": "Casey's Creative Kitchens Inc.",
		"link": "/member_directory/35889",
		"street": "4045 Blakie Rd.",
		"city": "London, ON",
		"postCode": "N6L 1R5",
		"contact": "Chris Willemse",
		"phone": "(519) 652-9029",
		"website": "http://caseyscreativekitchens.com"
	},
	{
		"company": "Casey's Creative Kitchens Inc.",
		"link": "/member_directory/36580",
		"street": "1020 Ontario St.",
		"city": "Stratford, ON",
		"postCode": "N5A 6Z3",
		"contact": "Colleen Brown",
		"phone": "(519) 271-5004",
		"website": "http://caseyscreativekitchens.com"
	},
	{
		"company": "Cassels Brock & Blackwell LLP",
		"link": "/member_directory/33777",
		"street": "40 King St. W. Ste. 2100",
		"city": "Toronto, ON",
		"postCode": "M5H 3C2",
		"contact": "Signe Leisk",
		"phone": "(416) 869-5300",
		"website": "http://casselsbrock.com"
	},
	{
		"company": "Cassidy & Co. Architectural Technologists",
		"link": "/member_directory/34515",
		"street": "60 Randall Dr. Unit 11",
		"city": "Ajax, ON",
		"postCode": "L1S 6L3",
		"contact": "Wayne Cassidy",
		"phone": "(905) 619-1270",
		"website": "http://cassidyco.com"
	},
	{
		"company": "Cassidy & Co. Architectural Technologists",
		"link": "/member_directory/33778",
		"street": "60 Randall Dr. Ste. 11",
		"city": "Ajax, ON",
		"postCode": "L1S 6L3",
		"contact": "Wayne Cassidy",
		"phone": "(905) 619-1270",
		"website": "http://cassidyco.com"
	},
	{
		"company": "Castel Homes",
		"link": "/member_directory/32921",
		"street": "3000 Langstaff Rd. Ste. 18",
		"city": "Concord, ON",
		"postCode": "L4K 4R7",
		"contact": "Mark Zanette",
		"phone": "(905) 738-9779",
		"website": "http://castelhomes.ca"
	},
	{
		"company": "Castell Homes",
		"link": "/member_directory/35673",
		"street": "P.O. Box 247",
		"city": "Lambeth, ON",
		"postCode": "N6P 2A0",
		"contact": "Frank Callipari",
		"phone": "(519) 860-3109",
		"website": "http://castellhomes.com"
	},
	{
		"company": "Castle Group Ventures",
		"link": "/member_directory/32922",
		"street": "8000 Jane St. Tower B, Ste. 102",
		"city": "Concord, ON",
		"postCode": "L4K 5B8",
		"contact": "Mona Bhamani",
		"phone": "(905) 738-9292",
		"website": "http://castlegroup.ca"
	},
	{
		"company": "Castleform Developments Inc.",
		"link": "/member_directory/32923",
		"street": "227 Empress Ave.",
		"city": "North York, ON",
		"postCode": "M2N 3V1",
		"contact": "Peter Voong",
		"phone": "(416) 828-9109",
		"website": "http://castleform.com"
	},
	{
		"company": "Castleman Contracting Inc.",
		"link": "/member_directory/36324",
		"street": "3567 Queen St.",
		"city": "Camlachie, ON",
		"postCode": "N0N 1E0",
		"contact": "Carl Kongas",
		"phone": "(519) 381-3574",
		"website": null
	},
	{
		"company": "Castlestone Granite & Quartz Inc.",
		"link": "/member_directory/36048",
		"street": "27 Bysham Park Dr. Unit Unit14",
		"city": "Woodstock, ON",
		"postCode": "N4T 1P1",
		"contact": "John Jorgensen",
		"phone": "(519) 539-6262",
		"website": "http://castlestonegranite.com"
	},
	{
		"company": "Castor Foundation Repair",
		"link": "/member_directory/34977",
		"street": "1352 St. Jacques",
		"city": "Embrun, ON",
		"postCode": "K0A 1W0",
		"contact": "Denis Beaudin",
		"phone": "(613) 443-1510",
		"website": null
	},
	{
		"company": "Cataraqui Cabinets Inc.",
		"link": "/member_directory/35630",
		"street": "619 O&apos;Connor Dr.,",
		"city": "Kingston, ON",
		"postCode": "K7P 1J9",
		"contact": "Sean Flynn",
		"phone": "(613) 389-9295",
		"website": "http://ctaraquicabinets.ca"
	},
	{
		"company": "Causyn Cooling & Heating",
		"link": "/member_directory/35235",
		"street": "417 Queensway W.",
		"city": "Simcoe, ON",
		"postCode": "N3Y 4N1",
		"contact": "Jeff Causyn",
		"phone": "(519) 428-3241",
		"website": null
	},
	{
		"company": "CB Ross Partners",
		"link": "/member_directory/33779",
		"street": "1920 Yonge St. Ste. 501",
		"city": "Toronto, ON",
		"postCode": "M4S 3E2",
		"contact": "Kirk Mawhinney",
		"phone": "(416) 487-3330",
		"website": "http://cbross.ca"
	},
	{
		"company": "CBRE Ltd.",
		"link": "/member_directory/36828",
		"street": "101 Frederick St., Suite 810",
		"city": "Kitchener, ON",
		"postCode": "N2H 6R2",
		"contact": "Dietmar Sommerfeld",
		"phone": "(519) 748-7028",
		"website": "http://cbre.com"
	},
	{
		"company": "CBRE Ltd.",
		"link": "/member_directory/33780",
		"street": "2001 Sheppard Ave. E. Ste. 300",
		"city": "Toronto, ON",
		"postCode": "M2J 4Z8",
		"contact": "Mike Czestochowski",
		"phone": "(416) 495-6257",
		"website": "http://cbre.ca/mclsg"
	},
	{
		"company": "CCI Group Inc.",
		"link": "/member_directory/33781",
		"street": "7900 Keele St. Ste. 200",
		"city": "Concord, ON",
		"postCode": "L4K 2A3",
		"contact": "Rick Derbecker",
		"phone": "(905) 856-5200",
		"website": "http://ccigroupinc.ca"
	},
	{
		"company": "CCR Building & Remodeling",
		"link": "/member_directory/35745",
		"street": "2416 Sunningdale Rd. W., R.R. #41",
		"city": "London, ON",
		"postCode": "N6H 5L2",
		"contact": "Peder Madsen",
		"phone": "(519) 472-7461",
		"website": "http://ccrbuilding.com"
	},
	{
		"company": "CCS Construction Group Inc.",
		"link": "/member_directory/33583",
		"street": "59 Beverly Hill Dr.",
		"city": "Toronto, ON",
		"postCode": "M3L 1A2",
		"contact": "Angelo Carnevale",
		"phone": "(416) 241-9770",
		"website": "http://ccsconstruction.ca"
	},
	{
		"company": "CDC Contracting, Div. Patron Contracting",
		"link": "/member_directory/34167",
		"street": "10 Bradwick Dr.",
		"city": "Concord, ON",
		"postCode": "L4K 2T3",
		"contact": "Pat Pillitteri",
		"phone": "(905) 738-4303",
		"website": null
	},
	{
		"company": "CDRG + Red Team",
		"link": "/member_directory/34738",
		"street": "1084 Kenaston St. Unit 5",
		"city": "Ottawa, ON",
		"postCode": "K1B 3P5",
		"contact": "Simon Frigon",
		"phone": "(613) 736-9222",
		"website": "http://cdrg.com"
	},
	{
		"company": "Cecconi Simone Inc.",
		"link": "/member_directory/33782",
		"street": "1335 Dundas St. W.",
		"city": "Toronto, ON",
		"postCode": "M6J 1Y3",
		"contact": "Eva Petrillo",
		"phone": "(416) 588-5900",
		"website": "http://cecconisimone.com"
	},
	{
		"company": "Cedar Point Real Estate Corporation",
		"link": "/member_directory/33783",
		"street": "57 Grand Oak Dr.",
		"city": "Richmond Hill, ON",
		"postCode": "L4E 4A2",
		"contact": "Richard Luciani",
		"phone": "(416) 725-0141",
		"website": "http://cedarpointrealestate.ca"
	},
	{
		"company": "Cedar Ridge Construction",
		"link": "/member_directory/36491",
		"street": "11088 Belmont Rd.",
		"city": "St. Thomas, ON",
		"postCode": "N5P 3T3",
		"contact": "Paul Drenth",
		"phone": "(519) 637-3377",
		"website": "http://cedarridgeconstruction.ca"
	},
	{
		"company": "Cedar Rock Homes Inc.",
		"link": "/member_directory/36999",
		"street": "504 Forman Ave",
		"city": "Stratford, ON",
		"postCode": "N5A 0C5",
		"contact": "Kyle Dubus",
		"phone": "519-496-0091",
		"website": "http://cedarrockhomes.ca"
	},
	{
		"company": "Cedar Rock Homes Inc.",
		"link": "/member_directory/37048",
		"street": "504 Forman Ave.",
		"city": "Stratford, ON",
		"postCode": "N5A 0C5",
		"contact": "Kyle Debus",
		"phone": "519- 496-0091",
		"website": null
	},
	{
		"company": "Cedar Springs Landscape Group Inc.",
		"link": "/member_directory/35371",
		"street": "3242 S. Service Rd.",
		"city": "Oakville, ON",
		"postCode": "L6L 6T1",
		"contact": "Adrian Bartels",
		"phone": "(905) 333-6789",
		"website": "http://cedarsprings.net"
	},
	{
		"company": "Cedar Winds Design-Build",
		"link": "/member_directory/37170",
		"street": "173 Highland St Unit C",
		"city": "Haliburton, ON",
		"postCode": "K0M 1S0",
		"contact": "Glenn Evans",
		"phone": "705 457 3744",
		"website": null
	},
	{
		"company": "Cedarlane Landscape",
		"link": "/member_directory/35236",
		"street": "RR #2",
		"city": "Port Dover, ON",
		"postCode": "N0A 1N2",
		"contact": "Ron Haverkamp",
		"phone": "(519) 426-3801",
		"website": null
	},
	{
		"company": "CedarOak Development Corporation",
		"link": "/member_directory/32924",
		"street": "23 Lesmill Rd. Ste. 111",
		"city": "Toronto, ON",
		"postCode": "M3B 3P6",
		"contact": "David Brand",
		"phone": "(416) 291-1613",
		"website": null
	},
	{
		"company": "Cedarstone Homes Ltd.",
		"link": "/member_directory/34662",
		"street": "R.R.#3, 384 Richmond Rd.",
		"city": "Ashton, ON",
		"postCode": "K0A 1B0",
		"contact": "Kim Pijselman",
		"phone": "(613) 838-4663",
		"website": "http://cedarstonehomes.com"
	},
	{
		"company": "Celac Construction Ltd.",
		"link": "/member_directory/35568",
		"street": "452 Second Rd. E.",
		"city": "Stoney Creek, ON",
		"postCode": "L8J 2X9",
		"contact": "John Celani",
		"phone": "(905) 662-8242",
		"website": null
	},
	{
		"company": "Celcon General Contractors Ltd.",
		"link": "/member_directory/33584",
		"street": "361 Main St. N.",
		"city": "Markham, ON",
		"postCode": "L3P 1Z3",
		"contact": "Charles Lunau",
		"phone": "(905) 472-8281",
		"website": "http://celconcontractors.com"
	},
	{
		"company": "Centennial Truss Fabricators Ltd.",
		"link": "/member_directory/35649",
		"street": "166 Mill St. PO Box 179",
		"city": "Lanark, ON",
		"postCode": "K0G 1K0",
		"contact": "Gene Borrowman",
		"phone": "(613) 259-2566",
		"website": null
	},
	{
		"company": "Centennial Windows Ltd.",
		"link": "/member_directory/35890",
		"street": "687 Sovereign Rd.",
		"city": "London, ON",
		"postCode": "N5V 4K8",
		"contact": "George Warren",
		"phone": "(519) 451-0508",
		"website": "http://centennialwindows.com"
	},
	{
		"company": "Centis Tile & Terrazzo Inc.",
		"link": "/member_directory/36668",
		"street": "1260 Kelly Lake Rd.",
		"city": "Sudbury, ON",
		"postCode": "P3E 5P4",
		"contact": "Dennis Centis",
		"phone": "(705) 673-5213",
		"website": "http://centistile.com"
	},
	{
		"company": "Centra Homes Corp.",
		"link": "/member_directory/32925",
		"street": "125 Norfinch Dr. Ste. 201",
		"city": "Toronto, ON",
		"postCode": "M3N 1W8",
		"contact": "Paul Lorusso",
		"phone": "(416) 514-2726",
		"website": "http://centra-homes.ca"
	},
	{
		"company": "Central Fairbank Lumber",
		"link": "/member_directory/33333",
		"street": "1900 Steeles Ave. W.",
		"city": "Concord, ON",
		"postCode": "L4K 1A1",
		"contact": "Mark Di Poce",
		"phone": "(905) 738-2111",
		"website": "http://centralfairbank.com"
	},
	{
		"company": "CentreCourt Developments Inc.",
		"link": "/member_directory/32926",
		"street": "208 Adelaide St. W. Ste. 300",
		"city": "Toronto, ON",
		"postCode": "M5H 1W7",
		"contact": "Andrew Hoffman",
		"phone": "(416) 324-2499",
		"website": "http://centrecourtdevelopments.com"
	},
	{
		"company": "CentreLine Design",
		"link": "/member_directory/36651",
		"street": "159 Pine St Unit 2",
		"city": "Sudbury, ON",
		"postCode": "P3C 1X2",
		"contact": "Dan Guillemette",
		"phone": "(705) 618-1767",
		"website": "http://cldesigninc.ca"
	},
	{
		"company": "Centreline Sanitation Ltd.",
		"link": "/member_directory/35813",
		"street": "108 Meg Dr.",
		"city": "London, ON",
		"postCode": "N6E 3T7",
		"contact": "Dave Carr",
		"phone": "(519) 668-6314",
		"website": null
	},
	{
		"company": "Centrestone Urban Developments Inc.",
		"link": "/member_directory/32927",
		"street": "171 E. Liberty St. Ste. 217",
		"city": "Toronto, ON",
		"postCode": "M6K 3P6",
		"contact": "Martin Niro",
		"phone": "(647) 344-2834",
		"website": "http://centrestonedev.com"
	},
	{
		"company": "Centric Engineering Corporation",
		"link": "/member_directory/36829",
		"street": "1315 Bishop St. N, Suite 200",
		"city": "Cambridge, ON",
		"postCode": "N1R 6Z2",
		"contact": "Darryl Twynstra",
		"phone": "(519) 963-0444",
		"website": "http://centricengineering.ca"
	},
	{
		"company": "Centro Homes Ltd.",
		"link": "/member_directory/32928",
		"street": "12830 Yonge St. Ste. 202",
		"city": "Richmond Hill, ON",
		"postCode": "L4E 4H1",
		"contact": "Pasquale Caggianiello",
		"phone": "(905) 313-0455",
		"website": "http://greystonehomes.ca"
	},
	{
		"company": "Centura",
		"link": "/member_directory/33334",
		"street": "950 Lawrence Ave. W.",
		"city": "Toronto, ON",
		"postCode": "M6A 1C4",
		"contact": "Helena Vaz",
		"phone": "(416) 785-5165",
		"website": "http://centura.ca"
	},
	{
		"company": "Centura London",
		"link": "/member_directory/35814",
		"street": "993 Adelaide St. S.",
		"city": "London, ON",
		"postCode": "N6E 1R5",
		"contact": "Wendy Earle",
		"phone": "(519) 681-1978",
		"website": "http://centura.ca/london"
	},
	{
		"company": "Century 21 Lanthom Real Estate Ltd.",
		"link": "/member_directory/36199",
		"street": "170 N. Front St.",
		"city": "Belleville, ON",
		"postCode": "K8P 3B8",
		"contact": "Kelly Singer",
		"phone": "(613) 967-2100",
		"website": null
	},
	{
		"company": "Ceramic Decor Centre",
		"link": "/member_directory/36888",
		"street": "987 York Rd.",
		"city": "Guelph, ON",
		"postCode": "N1E 6Y9",
		"contact": "Chris Wiancko",
		"phone": "(519) 836-7060",
		"website": "http://ceramicdecor.com"
	},
	{
		"company": "Ceramic Decor Centre",
		"link": "/member_directory/35160",
		"street": "987 York Rd.",
		"city": "Guelph, ON",
		"postCode": "N1E 6Y9",
		"contact": "George Durigon",
		"phone": "(519) 836-7060",
		"website": null
	},
	{
		"company": "Ceres Ventures",
		"link": "/member_directory/36830",
		"street": "27 Robson Ave",
		"city": "Cambridge, ON",
		"postCode": "N1T 1K9",
		"contact": "Sardool Bhogal",
		"phone": "(519) 621-4852",
		"website": "http://cambridgehomeseller.ca"
	},
	{
		"company": "Cert Pro Painters of London",
		"link": "/member_directory/35891",
		"street": "3392 Wonderland Rd. S. Building 3 Unit 7",
		"city": "London, ON",
		"postCode": "N6L 1A8",
		"contact": "Paul Guenette",
		"phone": "(519) 471-1149",
		"website": "http://london.certapro.com/"
	},
	{
		"company": "CertaPro Painters of Waterloo",
		"link": "/member_directory/36927",
		"street": "452 Dansbury Dr.",
		"city": "Waterloo, ON",
		"postCode": "N2K 4K5",
		"contact": "Art Dyck",
		"phone": "(519) 616-1163",
		"website": "http://waterloo.certapro.com"
	},
	{
		"company": "Cerwood & Family Ltd.",
		"link": "/member_directory/36581",
		"street": "145 Arnold St.",
		"city": "New Hamburg, ON",
		"postCode": "N3A 2C6",
		"contact": "Aimee Bender",
		"phone": "(519) 894-6367",
		"website": null
	},
	{
		"company": "CFO Mortgages",
		"link": "/member_directory/33259",
		"street": "11 Allstate Parkway Ste. 203",
		"city": "Markham, ON",
		"postCode": "L3R 9T8",
		"contact": "Mark Kay",
		"phone": "(905) 477-6542",
		"website": "http://cfogroup.com"
	},
	{
		"company": "CGC Inc.",
		"link": "/member_directory/33335",
		"street": "350 Burnhamthorpe Rd. W. 5th Flr.",
		"city": "Mississauga, ON",
		"postCode": "L5B 3J1",
		"contact": "Scott Mahony",
		"phone": "(905) 803-5600",
		"website": "http://cgcinc.com"
	},
	{
		"company": "CGGC Construction Inc.",
		"link": "/member_directory/37071",
		"street": "32 WIndy Ridge Dr",
		"city": "Toronto, ON",
		"postCode": "M1M 1H5",
		"contact": "Carl Gales",
		"phone": "416-625-2851",
		"website": null
	},
	{
		"company": "CGT Management",
		"link": "/member_directory/33336",
		"street": "570 Bryne Dr. Ste. E",
		"city": "Barrie, ON",
		"postCode": "L4N 9P6",
		"contact": "David Valcourt",
		"phone": "(705) 722-4043",
		"website": "http://cgtevents.com"
	},
	{
		"company": "Chaitons LLP",
		"link": "/member_directory/33784",
		"street": "5000 Yonge St. 10th Flr.",
		"city": "North York, ON",
		"postCode": "M2N 7E9",
		"contact": "Robert Miller",
		"phone": "(416) 218-1134",
		"website": "http://chaitons.com"
	},
	{
		"company": "Channel 13 Advertising & Design",
		"link": "/member_directory/33785",
		"street": "111 Regina Rd. Ste. 10B",
		"city": "Vaughan, ON",
		"postCode": "L4L 8N5",
		"contact": "Riel Sammy",
		"phone": "(905) 264-2413",
		"website": "http://channel13.ca"
	},
	{
		"company": "Chaplin Home Improvements Ltd.",
		"link": "/member_directory/33585",
		"street": "16 Daniel Crt.",
		"city": "Markham, ON",
		"postCode": "L3P 4B7",
		"contact": "Gary Chaplin",
		"phone": "(416) 904-6909",
		"website": "http://chaplinhomeimprovements.com"
	},
	{
		"company": "Chapman Plumbing & Heating Ltd.",
		"link": "/member_directory/36279",
		"street": "70 N. Park Gardens",
		"city": "Belleville, ON",
		"postCode": "K8P 2M3",
		"contact": "Dave Chapman",
		"phone": "(613) 962-4234",
		"website": null
	},
	{
		"company": "Chatham Kent Construction Products",
		"link": "/member_directory/34426",
		"street": "257 Colborne St.",
		"city": "Chatham, ON",
		"postCode": "N7M 3M3",
		"contact": "Monica Swance",
		"phone": "(519) 351-5125",
		"website": "http://chathamkentreadymix.com"
	},
	{
		"company": "Chatham Kent Ready Mix Inc.",
		"link": "/member_directory/34408",
		"street": "420 Queen St., P.O. Box 21008",
		"city": "Chatham, ON",
		"postCode": "N7M 2J2",
		"contact": "Rick Zavitz",
		"phone": "(519) 809-1260",
		"website": "http://chathamkentreadymix.com"
	},
	{
		"company": "Chatham Plumbing",
		"link": "/member_directory/34427",
		"street": "602 Richmond St.",
		"city": "Chatham, ON",
		"postCode": "N7M 1R3",
		"contact": "Mark McTavish",
		"phone": "(519) 351-6442",
		"website": null
	},
	{
		"company": "Chatham-Kent Home Hardware Building Centre",
		"link": "/member_directory/34428",
		"street": "124 Keil Dr. S.",
		"city": "Chatham, ON",
		"postCode": "N7M 3H1",
		"contact": "Wayne Jee",
		"phone": "(519) 354-0700",
		"website": null
	},
	{
		"company": "Chatham-Kent PUC",
		"link": "/member_directory/34413",
		"street": "325 Grand Ave E. P.O. Box 1191",
		"city": "Chatham, ON",
		"postCode": "N7M 5L8",
		"contact": "Tom Kissner",
		"phone": "(519) 352-6300",
		"website": null
	},
	{
		"company": "Chatsworth Fine Homes",
		"link": "/member_directory/32929",
		"street": "19-511 Maple Grove Dr Box 61061",
		"city": "Oakville, ON",
		"postCode": "L6J 7P5",
		"contact": "Nancy Bland",
		"phone": "(905) 337-1112",
		"website": "http://chatsworthfinehomes.com"
	},
	{
		"company": "Chemong Home Hardware Building Centre",
		"link": "/member_directory/36126",
		"street": "1699 Chemong Rd.",
		"city": "Peterborough, ON",
		"postCode": "K9J 6X2",
		"contact": "Mike Kingdon",
		"phone": "(705) 748-9111",
		"website": null
	},
	{
		"company": "Chemong Home Solutions",
		"link": "/member_directory/36154",
		"street": "2834 Highway 7",
		"city": "Indian River, ON",
		"postCode": "K0L 2B0",
		"contact": "Rodd Wazny",
		"phone": "1-888-229-6058",
		"website": null
	},
	{
		"company": "Cherishome Living",
		"link": "/member_directory/32930",
		"street": "60 Scarsdale Rd. Unit 120",
		"city": "Toronto, ON",
		"postCode": "M3B 2R7",
		"contact": "Jeff Usher",
		"phone": "(416) 386-9645",
		"website": "http://cherishome.com"
	},
	{
		"company": "Chervin Kitchen & Bath Inc.",
		"link": "/member_directory/36889",
		"street": "20 Benjamin Rd.",
		"city": "Waterloo, ON",
		"postCode": "N2V 2J9",
		"contact": "Jeff MacIntyre",
		"phone": "(519) 885-3542",
		"website": "http://chervin.ca"
	},
	{
		"company": "Chestnut Hill Homes",
		"link": "/member_directory/32931",
		"street": "150 Ferrand Dr. Ste. 801",
		"city": "Toronto, ON",
		"postCode": "M3C 3E5",
		"contact": "Ralph Del Duca",
		"phone": "(416) 499-9995",
		"website": "http://chestnuthillhomes.ca"
	},
	{
		"company": "Chiaravalle Developments Inc.",
		"link": "/member_directory/35296",
		"street": "52 Hildegard Dr.",
		"city": "Hamilton, ON",
		"postCode": "L8K 5R9",
		"contact": "Gino Chiaravalle",
		"phone": "(905) 561-3632",
		"website": "http://cdihomes.ca"
	},
	{
		"company": "Chicopee Craftsmen (1999) Inc.",
		"link": "/member_directory/36813",
		"street": "39 Durward Place, Unit #1",
		"city": "Waterloo, ON",
		"postCode": "N2L 4E5",
		"contact": "John Westcott",
		"phone": "(519) 578-6290",
		"website": null
	},
	{
		"company": "Chisholm's Tim-BR Mart",
		"link": "/member_directory/36239",
		"street": "R.R. #1",
		"city": "Roslin, ON",
		"postCode": "K0K 2Y0",
		"contact": "Patrick Cassidy",
		"phone": "(613) 477-2920",
		"website": null
	},
	{
		"company": "Chislett Asphalt Roofing Ltd.",
		"link": "/member_directory/34168",
		"street": "99 Rodinea Rd. Unit 4-7",
		"city": "Vaughan, ON",
		"postCode": "L6A 1K5",
		"contact": "Bill Chislett",
		"phone": "(905) 738-9433",
		"website": "http://chislettroofing.com"
	},
	{
		"company": "Cholette Electric Inc.",
		"link": "/member_directory/34889",
		"street": "671 County Rd. 9",
		"city": "Plantagenet, ON",
		"postCode": "K0B 1L0",
		"contact": "Daniel Cholette",
		"phone": "(613) 673-5444",
		"website": null
	},
	{
		"company": "Chouinard Bros Roofing",
		"link": "/member_directory/34589",
		"street": "194 Earl Stewart Dr.",
		"city": "Aurora, ON",
		"postCode": "L4G 6V7",
		"contact": "Jean-Louis Couturier",
		"phone": "(905) 726-1400",
		"website": "http://chouinardbros.com"
	},
	{
		"company": "Chouinard Bros.",
		"link": "/member_directory/34169",
		"street": "194 Earl Stewart Dr.",
		"city": "Aurora, ON",
		"postCode": "L4G 6V7",
		"contact": "Peter Cressatti",
		"phone": "(905) 479-8300",
		"website": "http://chouinardbros.com"
	},
	{
		"company": "Chris King and Sons Construction Ltd.",
		"link": "/member_directory/36943",
		"street": "1675 Division Rd. N.",
		"city": "Kingsville, ON",
		"postCode": "N9Y 2H1",
		"contact": "Chris King",
		"phone": "(519) 733-8717",
		"website": null
	},
	{
		"company": "Chris Otten Carpentry Ltd.",
		"link": "/member_directory/36608",
		"street": "3408, Rd. 145, R. R. Unit 2,",
		"city": "St. Pauls,, ON",
		"postCode": "N0K 1V0",
		"contact": "Chris Otten",
		"phone": "(519) 274-3538",
		"website": null
	},
	{
		"company": "Christal Mechanical",
		"link": "/member_directory/34590",
		"street": "160 Cidermill Ave. Unit 16",
		"city": "Vaughan, ON",
		"postCode": "L4K 4K5",
		"contact": "Joe Raspa",
		"phone": "(416) 740-8818",
		"website": "http://christalmechanical.com"
	},
	{
		"company": "Christopher Simmonds Architect Inc.",
		"link": "/member_directory/34801",
		"street": "45 Eccles St., The Annex",
		"city": "Ottawa, ON",
		"postCode": "K1R 6S3",
		"contact": "Christopher Simmonds",
		"phone": "(613) 567-7888",
		"website": "http://csarchitect.com"
	},
	{
		"company": "Chuan Liang Architects",
		"link": "/member_directory/33786",
		"street": "106 Thomas Foster St.",
		"city": "Markham, ON",
		"postCode": "L6C 2W6",
		"contact": "Chuan Liang",
		"phone": "(416) 578-3068",
		"website": "http://clarchitects.ca"
	},
	{
		"company": "Chuck Mills Residential Design & Development Inc.",
		"link": "/member_directory/34802",
		"street": "37 Benlark Rd.",
		"city": "Ottawa, ON",
		"postCode": "K2J 2L5",
		"contact": "Chuck Mills",
		"phone": "(613) 825-0548",
		"website": "http://cmillsdesign.com"
	},
	{
		"company": "Church's Flooring",
		"link": "/member_directory/35210",
		"street": "1593 Rd. 8, R.R. #6",
		"city": "Simcoe, ON",
		"postCode": "N3Y 4K5",
		"contact": "Gavin Church",
		"phone": "(519) 428-1383",
		"website": null
	},
	{
		"company": "Churko Electric",
		"link": "/member_directory/35274",
		"street": "Box 339",
		"city": "Haliburton, ON",
		"postCode": "K0M 1S0",
		"contact": "Steve Churko",
		"phone": "(705) 457-4576",
		"website": null
	},
	{
		"company": "CIBC ",
		"link": "/member_directory/36417",
		"street": "3 Orsi Crt.",
		"city": "Barrie, ON",
		"postCode": "L4N 0C7",
		"contact": "Tim or Diane Shwed",
		"phone": "(705) 737-3302",
		"website": null
	},
	{
		"company": "CIBC ",
		"link": "/member_directory/35398",
		"street": "1 King St. W., 3rd Floor",
		"city": "Hamilton, ON",
		"postCode": "L8P 1A4",
		"contact": "Chris Pellarin",
		"phone": "(905) 572-5954",
		"website": null
	},
	{
		"company": "CIBC",
		"link": "/member_directory/35731",
		"street": "560 Wellington St., 3rd floor",
		"city": "London, ON",
		"postCode": "N6A 3R4",
		"contact": "Mark Banks",
		"phone": "(519) 661-8068",
		"website": "http://cibc.com"
	},
	{
		"company": "CIBC ",
		"link": "/member_directory/33260",
		"street": "55 Yonge St. Ste. 700",
		"city": "Toronto, ON",
		"postCode": "M5E 1J4",
		"contact": "Yaana Davies",
		"phone": "1-866-803-4888",
		"website": "http://cibc.com"
	},
	{
		"company": "CIMA+",
		"link": "/member_directory/37031",
		"street": "110-240 Catherine St",
		"city": "Ottawa, ON",
		"postCode": "K2P 2G8",
		"contact": "Hugues Bisson",
		"phone": "613-860-2462",
		"website": null
	},
	{
		"company": "CINDERBLOC Inc.",
		"link": "/member_directory/33787",
		"street": "192 Spadina Ave. Ste. 111",
		"city": "Toronto, ON",
		"postCode": "M5T 2C2",
		"contact": "Sandra Di Leo",
		"phone": "(416) 777-2562",
		"website": "http://cinderbloc.com"
	},
	{
		"company": "Ciot",
		"link": "/member_directory/33337",
		"street": "8899 Jane St.",
		"city": "Concord, ON",
		"postCode": "L4K 2M6",
		"contact": "Marcus Rossl",
		"phone": "(416) 739-8000",
		"website": "http://ciot.com"
	},
	{
		"company": "City Homes",
		"link": "/member_directory/34444",
		"street": "1333 Boundary Rd., Unit 4A",
		"city": "Oshawa, ON",
		"postCode": "L1J 6Z7",
		"contact": "Jamie MacInnis",
		"phone": "(905) 723-2815",
		"website": "http://mycityhomes.ca"
	},
	{
		"company": "City of Cambridge",
		"link": "/member_directory/36831",
		"street": "50 Dickson St., P.O. Box 669",
		"city": "Cambridge, ON",
		"postCode": "N1R 5W8",
		"contact": "Hardy Bromberg",
		"phone": "(519) 740-4613",
		"website": "http://cambridge.ca"
	},
	{
		"company": "City of Cornwall",
		"link": "/member_directory/36383",
		"street": "P.O. Box 877",
		"city": "Cornwall, ON",
		"postCode": "K6H 5T9",
		"contact": "Chris Mercier",
		"phone": "(613) 932-6252",
		"website": null
	},
	{
		"company": "City of Greater Sudbury",
		"link": "/member_directory/36652",
		"street": "200 Brady St.  P.O. Box 5000",
		"city": "Sudbury, ON",
		"postCode": "P3A 5P3",
		"contact": "Guido Mazza",
		"phone": "(705) 671-2489",
		"website": "http://greatersudbury.ca"
	},
	{
		"company": "City of Guelph Building Dept.",
		"link": "/member_directory/35115",
		"street": "59 Carden St.",
		"city": "Guelph, ON",
		"postCode": "N1H 3A1",
		"contact": "Adrian Van Eck",
		"phone": "(519) 837-5615",
		"website": null
	},
	{
		"company": "City of Hamilton",
		"link": "/member_directory/35399",
		"street": "71 Main St. W., 7th Floor Planning &amp; Development",
		"city": "Hamilton, ON",
		"postCode": "L8P 4Y5",
		"contact": "Chris Phillips",
		"phone": "(905) 546-2424",
		"website": "http://hamilton.ca"
	},
	{
		"company": "City of Kawartha Lakes",
		"link": "/member_directory/36101",
		"street": "P.O. Box 9000 26 Francis St.",
		"city": "Lindsay, ON",
		"postCode": "K9V 5R8",
		"contact": "Ron Taylor",
		"phone": "(705) 324-9411",
		"website": null
	},
	{
		"company": "City of Kitchener",
		"link": "/member_directory/36832",
		"street": "200 King St. W. P.O. Box 1118",
		"city": "Kitchener, ON",
		"postCode": "N2G 4G7",
		"contact": "Tracey Gingerich",
		"phone": "(519) 741-2200",
		"website": "http://kitchener.ca"
	},
	{
		"company": "City of London",
		"link": "/member_directory/35769",
		"street": "300 Dufferin Ave. Room 708",
		"city": "London, ON",
		"postCode": "N6B 1Z2",
		"contact": "Peter Kokkoros",
		"phone": "(519) 661-2500",
		"website": "http://london.ca"
	},
	{
		"company": "City of North Bay",
		"link": "/member_directory/36024",
		"street": "200 McIntyre St. E PO Box 360",
		"city": "North Bay, ON",
		"postCode": "P1B 8H8",
		"contact": "Sean Killens",
		"phone": "(705) 474-0400",
		"website": null
	},
	{
		"company": "City of Ottawa",
		"link": "/member_directory/34803",
		"street": "Planning &amp; Growth Management 101 Centrepointe Drive",
		"city": "Ottawa, ON",
		"postCode": "K2G 5K7",
		"contact": "Frank Bidin",
		"phone": "(613) 580-2400",
		"website": "http://ottawa.ca"
	},
	{
		"company": "City of Peterborough",
		"link": "/member_directory/36102",
		"street": "Building Division City Hall, 500 George St. N.",
		"city": "Peterborough, ON",
		"postCode": "K9H 3R9",
		"contact": "Dean Findlay",
		"phone": "(705) 742-7777",
		"website": null
	},
	{
		"company": "City of Port Colborne",
		"link": "/member_directory/37156",
		"street": "66 Charlotte St",
		"city": "Port Colborne, ON",
		"postCode": "L3K 3C8",
		"contact": "John Maloney",
		"phone": "905 835 2900",
		"website": "http://portcolborne.ca"
	},
	{
		"company": "City of Waterloo",
		"link": "/member_directory/36833",
		"street": "100 Regina St. Building Dept",
		"city": "Waterloo, ON",
		"postCode": "N2J 4A8",
		"contact": "Ralph Kaminski",
		"phone": "(519) 747-8782",
		"website": "http://waterloo.ca"
	},
	{
		"company": "City Wide Group Inc. (The)",
		"link": "/member_directory/34170",
		"street": "25 Hollinger Rd. Unit 3",
		"city": "Toronto, ON",
		"postCode": "M4B 3N4",
		"contact": "Chris Cavan",
		"phone": "(416) 283-5500",
		"website": "http://citywidegroup.com"
	},
	{
		"company": "Cityview Homes Inc.",
		"link": "/member_directory/35076",
		"street": "6 Bradwick Dr.",
		"city": "Concord, ON",
		"postCode": "L4K 2T3",
		"contact": "Evan Shear",
		"phone": "(905) 761-9944",
		"website": null
	},
	{
		"company": "Cityview Homes Inc.",
		"link": "/member_directory/36737",
		"street": "6 Bradwick Dr. Unit B",
		"city": "Concord, ON",
		"postCode": "L4K 2T3",
		"contact": "Evan Shear",
		"phone": "(416) 863-1811",
		"website": "http://cityviewhomes.ca"
	},
	{
		"company": "Cityzen Development Group",
		"link": "/member_directory/32932",
		"street": "56 The Esplanade Ste. 308",
		"city": "Toronto, ON",
		"postCode": "M5E 1A7",
		"contact": "Paulo Stellato",
		"phone": "(416) 777-2489",
		"website": "http://cityzen.ca"
	},
	{
		"company": "CJ Construction",
		"link": "/member_directory/36017",
		"street": "6 Glendale HTS Dr.",
		"city": "Powassan, ON",
		"postCode": "P0H 1Z0",
		"contact": "Chris Morawski",
		"phone": "(705) 724-5802",
		"website": null
	},
	{
		"company": "CKC Group Ltd.",
		"link": "/member_directory/34739",
		"street": "10521 Hwy #7",
		"city": "Carleton Place, ON",
		"postCode": "K7C 0C4",
		"contact": "Brent Young",
		"phone": "(613) 253-0080",
		"website": "http://ckcgroup.ca"
	},
	{
		"company": "Clancy Builders Ltd.",
		"link": "/member_directory/35060",
		"street": "G D Box 98",
		"city": "Leith, ON",
		"postCode": "N0H 1V0",
		"contact": "Tom Clancy",
		"phone": "(519) 376-0637",
		"website": "http://clancybuilders.ca"
	},
	{
		"company": "Claridge Homes",
		"link": "/member_directory/34663",
		"street": "210 Gladstone Ave., Suite 2001",
		"city": "Ottawa, ON",
		"postCode": "K2P 0Y6",
		"contact": "Neil Malhotra",
		"phone": "(613) 233-6030",
		"website": "http://claridgehomes.com"
	},
	{
		"company": "Clarke Basement Systems",
		"link": "/member_directory/33586",
		"street": "10638 Ninth Line",
		"city": "Markham, ON",
		"postCode": "L6B 1A8",
		"contact": "Dalen Sharp",
		"phone": "(905) 642-4861",
		"website": "http://wetbasements.ca"
	},
	{
		"company": "Clarke Surveyors Inc.",
		"link": "/member_directory/36965",
		"street": "2535 Lesperance Rd.",
		"city": "Tecumseh, ON",
		"postCode": "N8N 2X1",
		"contact": "Ross Clarke",
		"phone": "(519) 258-4166",
		"website": "http://clarkesurveyors.com"
	},
	{
		"company": "Classic Construction",
		"link": "/member_directory/36092",
		"street": "9 Woodview Dr., R.R. #7",
		"city": "Peterborough, ON",
		"postCode": null,
		"contact": "Rick McIntyre",
		"phone": "(705) 745-9156",
		"website": null
	},
	{
		"company": "Classic Granite & Marble Ltd.",
		"link": "/member_directory/35815",
		"street": "565 Sovereign Rd.",
		"city": "London, ON",
		"postCode": "N5V 4K9",
		"contact": "Cynthia Bernardo",
		"phone": "(519) 455-4012",
		"website": "http://classicgraniteandmarble.com"
	},
	{
		"company": "Classic Hardwood Floors",
		"link": "/member_directory/36669",
		"street": "2351 Main St.",
		"city": "Val Caron, ON",
		"postCode": "P3N 1A9",
		"contact": "Guy Gagne",
		"phone": "(705) 969-0566",
		"website": null
	},
	{
		"company": "Classic Hardwood Mouldings Corp.",
		"link": "/member_directory/34890",
		"street": "210 Colonnade Rd.",
		"city": "Nepean, ON",
		"postCode": "K2E 7L5",
		"contact": "Claude Sevigny",
		"phone": "(613) 225-4782",
		"website": null
	},
	{
		"company": "Classic Homestyles Inc.",
		"link": "/member_directory/32933",
		"street": "2800 14th Ave. Ste. 500",
		"city": "Markham, ON",
		"postCode": "L3R 0E4",
		"contact": "Andrew Biller",
		"phone": "(905) 477-0441",
		"website": "http://classichomestyles.ca"
	},
	{
		"company": "Classic Kitchen Designs o/b KCC Toronto Ltd.",
		"link": "/member_directory/33338",
		"street": "1672 Dundas St. E.",
		"city": "Mississauga, ON",
		"postCode": "L4X 1L7",
		"contact": "Wes Kehler",
		"phone": "(905) 279-6194",
		"website": "http://classickitchendesigns.ca"
	},
	{
		"company": "Clawsie Kitchens Inc.",
		"link": "/member_directory/34370",
		"street": "34 Dalkeith Dr., Units 1 &amp; 2",
		"city": "Brantford, ON",
		"postCode": "N3P 1N6",
		"contact": "John Clawsie",
		"phone": "(519) 756-8720",
		"website": "http://clawsiekitchens.com"
	},
	{
		"company": "Clawsie Kitchens Inc.",
		"link": "/member_directory/35211",
		"street": "34 Dalkeith Dr., Unit 1 &amp; 2",
		"city": "Brantford, ON",
		"postCode": "N3P 1N6",
		"contact": "Jack Clawsie",
		"phone": "(519) 756-8720",
		"website": null
	},
	{
		"company": "Claysam Homes Ltd.",
		"link": "/member_directory/36738",
		"street": "R. R. # 22",
		"city": "Cambridge, ON",
		"postCode": "N3C 2V4",
		"contact": "Eric Boyles",
		"phone": "(519) 220-0269",
		"website": "http://claysamhomes.com"
	},
	{
		"company": "Clean All Environmental Services Inc.",
		"link": "/member_directory/36385",
		"street": "1495 Gerald St.",
		"city": "Cornwall, ON",
		"postCode": "K6H 5V1",
		"contact": "Nathaniel Cardinal",
		"phone": "(613) 932-5326",
		"website": null
	},
	{
		"company": "Clearsphere",
		"link": "/member_directory/33788",
		"street": "1632 O&apos;Connor Dr.",
		"city": "Toronto, ON",
		"postCode": "M4B 3P4",
		"contact": "John Godden",
		"phone": "(416) 481-4218",
		"website": "http://clearsphere.ca"
	},
	{
		"company": "Clearview Industries Ltd.",
		"link": "/member_directory/33339",
		"street": "45 Fenmar Dr.",
		"city": "North York, ON",
		"postCode": "M9L 1M1",
		"contact": "Tom Marsala",
		"phone": "(416) 745-6666",
		"website": "http://clearview.on.ca"
	},
	{
		"company": "Cleary Homes",
		"link": "/member_directory/36060",
		"street": "314 Carnegie Ave.",
		"city": "Peterborough, ON",
		"postCode": "K9L 1M9",
		"contact": "Pat Cleary",
		"phone": "(705) 741-0004",
		"website": null
	},
	{
		"company": "Clemchar Homes",
		"link": "/member_directory/36628",
		"street": "1277 N. Shore Dr.",
		"city": "Sudbury, ON",
		"postCode": "P3B 1E7",
		"contact": "John Charles",
		"phone": "(705) 564-9195",
		"website": null
	},
	{
		"company": "Clemmensen & Associates Ltd.",
		"link": "/member_directory/32934",
		"street": "17 Oakland Ave.",
		"city": "Weston, ON",
		"postCode": "M9M 2H9",
		"contact": "Bruce Clemmensen",
		"phone": "(416) 747-6266",
		"website": null
	},
	{
		"company": "Cliff and Evans Ltd.",
		"link": "/member_directory/33587",
		"street": "1 St. Clair Ave. W. Ste. 301",
		"city": "Toronto, ON",
		"postCode": "M4V 1K6",
		"contact": "Dave Evans",
		"phone": "(416) 628-7186",
		"website": "http://cliffandevans.com"
	},
	{
		"company": "Clifton Kok LLP",
		"link": "/member_directory/36834",
		"street": "12 N.umberland St.",
		"city": "Ayr, ON",
		"postCode": "N0B 1E0",
		"contact": "Mark Kok",
		"phone": "(519) 632-9755",
		"website": "http://cklegal.ca"
	},
	{
		"company": "Climate Control North Inc",
		"link": "/member_directory/36706",
		"street": "2055 Long Lake Rd.",
		"city": "Sudbury, ON",
		"postCode": "P3E 4M8",
		"contact": "Chris Vigneault",
		"phone": "(705) 207-1320",
		"website": "http://climatecontrolsudbury.ca"
	},
	{
		"company": "Climec Residential Inc.",
		"link": "/member_directory/34978",
		"street": "2160 Thurston Dr.",
		"city": "Ottawa, ON",
		"postCode": "K1G 6E1",
		"contact": "Bruce Parrington",
		"phone": "(613) 244-1555",
		"website": "http://climecresidential.com"
	},
	{
		"company": "CMA Realty Ltd",
		"link": "/member_directory/37011",
		"street": "82 Weber St E Suite 1",
		"city": "Kitchener, ON",
		"postCode": "N2H 1C7",
		"contact": "Neil Koebel",
		"phone": "519-578-0337",
		"website": "http://cmrealty.ca"
	},
	{
		"company": "CMB Construction",
		"link": "/member_directory/34321",
		"street": "P.O. Box 164",
		"city": "Blyth, ON",
		"postCode": "N0M 1H0",
		"contact": "Casey Boven",
		"phone": "(519) 525-1558",
		"website": null
	},
	{
		"company": "CMT Engineering Ltd.",
		"link": "/member_directory/36835",
		"street": "1011 Industrial Cres., Unit 1",
		"city": "St. Clements, ON",
		"postCode": "N0B 2M0",
		"contact": "Dale Bender",
		"phone": "(519) 699-5775",
		"website": "http://cmtinc.net"
	},
	{
		"company": "Co-operators, The",
		"link": "/member_directory/36553",
		"street": "204 Huron St.",
		"city": "Stratford, ON",
		"postCode": "N5A 5S8",
		"contact": "Peter Maranger",
		"phone": "(519) 272-2667",
		"website": null
	},
	{
		"company": "Coast Wholesale Appliances",
		"link": "/member_directory/33340",
		"street": "1748 Creditstone Rd. Unit 1",
		"city": "Vaughan, ON",
		"postCode": "L4K 5V8",
		"contact": "Michael Fiorini",
		"phone": "(905) 856-0007",
		"website": "http://coastappliances.com"
	},
	{
		"company": "Coast Wholesale Appliances Inc.",
		"link": "/member_directory/35478",
		"street": "Unit #1 - 1748 Creditstone Rd.",
		"city": "Vaughan, ON",
		"postCode": "L4K 5V8",
		"contact": "Michael Fiorini",
		"phone": "(905) 856-0007",
		"website": "http://coastappliances.com"
	},
	{
		"company": "Cobblestone Homes Quinte Inc.",
		"link": "/member_directory/36168",
		"street": "P.O.Box 1695",
		"city": "Belleville, ON",
		"postCode": "K8N 0A5",
		"contact": "Graham Cobb",
		"phone": "(613) 661-3011",
		"website": null
	},
	{
		"company": "Cobourg Development Services Ltd.",
		"link": "/member_directory/36155",
		"street": "609 William St",
		"city": "Cobourg, ON",
		"postCode": "K9A 4W4",
		"contact": "John Reyns",
		"phone": "(905) 372-4848",
		"website": "http://cobourgdevelopmentservices.com"
	},
	{
		"company": "Cobra Pools & Spas Inc.",
		"link": "/member_directory/35650",
		"street": "99 E Dufferin St.  Dufferin Square",
		"city": "Perth, ON",
		"postCode": "K7H 3A5",
		"contact": "Bill Brady",
		"phone": "(613) 267-7591",
		"website": "http://cobrapools.com"
	},
	{
		"company": "Cochren Homes Ltd.",
		"link": "/member_directory/33588",
		"street": "P.O. Box 711 Lakeshore W.",
		"city": "Oakville, ON",
		"postCode": "L6K 0A8",
		"contact": "Michael Cochren",
		"phone": "(905) 842-2462",
		"website": "http://cochrenhomes.com"
	},
	{
		"company": "Coco Homes",
		"link": "/member_directory/36944",
		"street": "6725 S. Service Rd.",
		"city": "Windsor, ON",
		"postCode": "N8N 2M1",
		"contact": "Patty Fraize",
		"phone": "(519) 948-7133",
		"website": "http://cocogroup.com"
	},
	{
		"company": "Code Construction Inc.",
		"link": "/member_directory/35632",
		"street": "R.R. #6",
		"city": "Perth, ON",
		"postCode": "K7H 3C8",
		"contact": "Darwin Code",
		"phone": "(613) 267-6115",
		"website": null
	},
	{
		"company": "Cogeco Cable Canada ",
		"link": "/member_directory/36103",
		"street": "170 Colborne St",
		"city": "Kingston, ON",
		"postCode": null,
		"contact": "Amy Crews",
		"phone": "613-449-9152",
		"website": "http://cogeco.com"
	},
	{
		"company": "Cogeco Cable Canada ",
		"link": "/member_directory/33341",
		"street": "950 Syscon Rd. P.O. Box 5076, Station LCD 1",
		"city": "Burlington, ON",
		"postCode": "L7R 4S6",
		"contact": "Tracey Rieger",
		"phone": "(905) 333-5343",
		"website": "http://cogeco.com"
	},
	{
		"company": "Cogeco Cable Canada",
		"link": "/member_directory/36966",
		"street": "950 Syscon Rd",
		"city": "Burlington, ON",
		"postCode": null,
		"contact": "Jennifer Glenn",
		"phone": "1 800-565 0273 xt 7629",
		"website": "http://cogeco.ca"
	},
	{
		"company": "Cogeco Cable Canada",
		"link": "/member_directory/36200",
		"street": "170 Colborne St",
		"city": "Kingston, ON",
		"postCode": null,
		"contact": "Amy Crews",
		"phone": "613-449-9152",
		"website": "http://cogeco.com"
	},
	{
		"company": "Cogeco Cable Canada",
		"link": "/member_directory/34414",
		"street": "970 Syscon Rd PO Box 5076 Stn LCD 1",
		"city": "Burlington, ON",
		"postCode": "L7R 4S6",
		"contact": "Jennifer Glenn",
		"phone": "1 800 565 0273 xt 7629",
		"website": "http://cogeco.ca"
	},
	{
		"company": "Cogeco Cable Canada ",
		"link": "/member_directory/35963",
		"street": "7170 McLeod Rd",
		"city": "Niagara Falls, ON",
		"postCode": null,
		"contact": "Ashley Neville",
		"phone": "289-962-1536",
		"website": "http://cogeco.com"
	},
	{
		"company": "Cogeco Cable Canada ",
		"link": "/member_directory/35479",
		"street": "P.O.Box 5076, Stn. LCD 1 950 Syscon",
		"city": "Burlington, ON",
		"postCode": "L7R 4S6",
		"contact": "Tracey Rieger",
		"phone": "(289) 337-7023",
		"website": "http://cogeco.ca"
	},
	{
		"company": "Cohen, Highley LLP, Lawyers",
		"link": "/member_directory/35770",
		"street": "255 Queens Ave.",
		"city": "London, ON",
		"postCode": "N6A 5R8",
		"contact": "Brian Phillips",
		"phone": "(519) 672-9330",
		"website": "http://cohenhighley.com"
	},
	{
		"company": "Cohn Construction Ltd.",
		"link": "/member_directory/33589",
		"street": "2775 Folkway Dr.",
		"city": "Mississauga, ON",
		"postCode": "L5L 2L1",
		"contact": "Frank Cohn",
		"phone": "(905) 569-1349",
		"website": null
	},
	{
		"company": "Colasante Windows & Doors",
		"link": "/member_directory/36240",
		"street": "110 Prospect Hill",
		"city": "Quinte West, ON",
		"postCode": "K8V 2V3",
		"contact": "Mike Colasante",
		"phone": "(613) 392-2157",
		"website": null
	},
	{
		"company": "Coldwell Banker Action Plus Realty, Brokerage",
		"link": "/member_directory/35192",
		"street": "140 Queensway E.",
		"city": "Simcoe, ON",
		"postCode": "N3Y 4Y7",
		"contact": "Peggy Waldick",
		"phone": "(519) 426-8816",
		"website": null
	},
	{
		"company": "Coldwell Banker Peter Benninger Realty",
		"link": "/member_directory/36836",
		"street": "508 Riverbend Dr.",
		"city": "Kitchener, ON",
		"postCode": "N2K 3S2",
		"contact": "Tim Ingold",
		"phone": "(519) 742-5800",
		"website": "http://coldwellbankerpbr.com"
	},
	{
		"company": "Cole Engineering Group Ltd.",
		"link": "/member_directory/33789",
		"street": "70 Valleywood Dr.",
		"city": "Markham, ON",
		"postCode": "L3R 4T5",
		"contact": "Nik Mracic",
		"phone": "(905) 940-6161",
		"website": "http://coleengineering.ca"
	},
	{
		"company": "Coleman Custom Renovations",
		"link": "/member_directory/34348",
		"street": "46 Maplecrest Lane",
		"city": "Brantford, ON",
		"postCode": "N3R 7T9",
		"contact": "Rob Coleman",
		"phone": "(519) 756-1861",
		"website": null
	},
	{
		"company": "Coleman-Dias 3 Construction Inc.",
		"link": "/member_directory/36492",
		"street": "351 Sunset Dr.",
		"city": "St. Thomas, ON",
		"postCode": "N5R 3C6",
		"contact": "Stefanie Coleman-Dias",
		"phone": "(519) 633-6233",
		"website": "http://cd3.ca"
	},
	{
		"company": "Coleman-Dias 3 Construction Inc.",
		"link": "/member_directory/35746",
		"street": "351 Sunset Dr.",
		"city": "St. Thomas, ON",
		"postCode": "N5R 3C6",
		"contact": "Stepfanie Coleman-Dias",
		"phone": "(519) 633-6233",
		"website": null
	},
	{
		"company": "Coletara Development",
		"link": "/member_directory/35077",
		"street": "966 Pantera Dr. Suite 22",
		"city": "Mississauga, ON",
		"postCode": "L4W 2S1",
		"contact": "Paul Kemper",
		"phone": "(905) 624-4100",
		"website": null
	},
	{
		"company": "Colewood Construction Ltd.",
		"link": "/member_directory/33590",
		"street": "313 Horner Ave.",
		"city": "Toronto, ON",
		"postCode": "M8W 1Z5",
		"contact": "Steve Bartolini",
		"phone": "(416) 252-2226",
		"website": null
	},
	{
		"company": "Collier Homes Inc.",
		"link": "/member_directory/36481",
		"street": "42372 John Wise Line",
		"city": "St. Thomas, ON",
		"postCode": "N5R 5T5",
		"contact": "Rick Collier",
		"phone": "(519) 633-9642",
		"website": "http://collierhomes.ca"
	},
	{
		"company": "Collins Corporation, Real Estate Brokerage (The)",
		"link": "/member_directory/33790",
		"street": "2383 Carrington Place",
		"city": "Oakville, ON",
		"postCode": "L6J 5P5",
		"contact": "Frank Collins",
		"phone": "(905) 849-0811",
		"website": null
	},
	{
		"company": "Collinson Interiors",
		"link": "/member_directory/33791",
		"street": "18 Bearbury Dr.",
		"city": "Etobicoke, ON",
		"postCode": "M9C 2G9",
		"contact": "Crystal Collinson",
		"phone": "(416) 233-2960",
		"website": "http://collinsoninteriors.com"
	},
	{
		"company": "Colours & Concepts",
		"link": "/member_directory/33792",
		"street": "789 Edgewood Rd.",
		"city": "Pickering, ON",
		"postCode": "L1V 3A1",
		"contact": "Jo-Ann Capelaci",
		"phone": "(905) 837-2667",
		"website": "http://coloursandconcepts.ca"
	},
	{
		"company": "Comfield Management Services",
		"link": "/member_directory/34619",
		"street": "2171 Ave. Rd. Suite 303",
		"city": "Toronto, ON",
		"postCode": "M5M 4B4",
		"contact": "Anthony Irwin",
		"phone": "(416) 640-6730",
		"website": "http://comfield.ca"
	},
	{
		"company": "Comfort Insulation",
		"link": "/member_directory/34979",
		"street": "25B Bentley Ave.",
		"city": "Nepean, ON",
		"postCode": "K2E 6T7",
		"contact": "Joe Iaderosa",
		"phone": "(613) 226-9912",
		"website": null
	},
	{
		"company": "Comfort Zone Insulation",
		"link": "/member_directory/35644",
		"street": "532 Crain Dr., R.R. #7",
		"city": "Perth, ON",
		"postCode": "K7H 3C9",
		"contact": "Arlen Gaylord",
		"phone": "(613) 267-0066",
		"website": null
	},
	{
		"company": "Community",
		"link": "/member_directory/33793",
		"street": "822 Richmond St. W. Ste. 400",
		"city": "Toronto, ON",
		"postCode": "M6J 1C9",
		"contact": "George Barbas",
		"phone": "(416) 361-0025",
		"website": "http://thecommunity.ca"
	},
	{
		"company": "Compass Creative Studio Inc.",
		"link": "/member_directory/35400",
		"street": "1040 S. Service Rd. Suite 201",
		"city": "Stoney Creek, ON",
		"postCode": "L8E 6G3",
		"contact": "Jason Bouwman",
		"phone": "(289) 656-1444",
		"website": "http://compasscreative.ca"
	},
	{
		"company": "Complete Construction (Goderich) Inc.",
		"link": "/member_directory/34295",
		"street": "P.O. Box 355",
		"city": "Goderich, ON",
		"postCode": "N7A 4C6",
		"contact": "Hugh Burgsma",
		"phone": "(519) 524-6355",
		"website": null
	},
	{
		"company": "Completely Wired Corporation",
		"link": "/member_directory/34171",
		"street": "7500 Highway 27 Ste. 12",
		"city": "Vaughan, ON",
		"postCode": "L4H 0J2",
		"contact": "Nelson Correia",
		"phone": "(905) 663-3000",
		"website": "http://cwc-group.ca"
	},
	{
		"company": "Con-Rep Services Ltd.",
		"link": "/member_directory/34172",
		"street": "2576 Dunwin Dr. Unit 7",
		"city": "Mississauga, ON",
		"postCode": "L5L 5P6",
		"contact": "Linda Liew",
		"phone": "(416) 230-1132",
		"website": null
	},
	{
		"company": "Conasys Inc. D.B.A. Home Information Packages",
		"link": "/member_directory/33794",
		"street": "50 Fell Ave. Ste. 202",
		"city": "North Vancouver, British Columbia",
		"postCode": "V7P 3S2",
		"contact": "Ian Blake",
		"phone": "(604) 988-0690",
		"website": "http://conasysinc.com"
	},
	{
		"company": "Concert Properties Ltd.",
		"link": "/member_directory/32935",
		"street": "55 University Ave. Ste. 1601",
		"city": "Toronto, ON",
		"postCode": "M5J 2H7",
		"contact": "Brian McCauley",
		"phone": "(647) 789-2050",
		"website": "http://concertproperties.com"
	},
	{
		"company": "Concierge Mortgage Group",
		"link": "/member_directory/34620",
		"street": "12 Dawson Rd.",
		"city": "Orangeville, ON",
		"postCode": "L9W 2W2",
		"contact": "Donna Ramsey",
		"phone": "(519) 940-4020",
		"website": null
	},
	{
		"company": "Concord Adex Developments Corp.",
		"link": "/member_directory/32936",
		"street": "23 Spadina Ave.",
		"city": "Toronto, ON",
		"postCode": "M5V 3M5",
		"contact": "Michael Hopkins",
		"phone": "(416) 813-0333",
		"website": "http://cityplace.ca"
	},
	{
		"company": "Concord Concrete Group Inc.",
		"link": "/member_directory/34173",
		"street": "125 Edilcan Dr.",
		"city": "Concord, ON",
		"postCode": "L4K 3S6",
		"contact": "Irving Teper",
		"phone": "(905) 738-7979",
		"website": "http://concordconcretegroup.ca"
	},
	{
		"company": "Concord Fireplaces Inc.",
		"link": "/member_directory/34174",
		"street": "330 Millway Ave. Unit 2",
		"city": "Concord, ON",
		"postCode": "L4K 3W2",
		"contact": "David Bratty",
		"phone": "(905) 660-5998",
		"website": null
	},
	{
		"company": "Concord Homes",
		"link": "/member_directory/35600",
		"street": "P.O. Box 23015",
		"city": "Amherstview, ON",
		"postCode": "K7N 1Y2",
		"contact": "Martin Mack",
		"phone": "(613) 384-0033",
		"website": "http://concordhomes.ca"
	},
	{
		"company": "Condeland Engineering Ltd.",
		"link": "/member_directory/33795",
		"street": "350 Creditstone Rd. Unit 200",
		"city": "Concord, ON",
		"postCode": "L4K 3Z2",
		"contact": "Robert DeAngelis",
		"phone": "(905) 695-2096",
		"website": "http://condeland.com"
	},
	{
		"company": "Condo Store Marketing Systems (The)",
		"link": "/member_directory/33796",
		"street": "171 E. Liberty St. Ste. 101",
		"city": "Toronto, ON",
		"postCode": "M6K 3P6",
		"contact": "Mark Cohen",
		"phone": "(416) 533-5888",
		"website": "http://condostorecanada.com"
	},
	{
		"company": "Condominium Living Management Inc. (CLM)",
		"link": "/member_directory/33797",
		"street": "260 Richmond St. E. Ste. 300",
		"city": "Toronto, ON",
		"postCode": "M5A 1P4",
		"contact": "Kazi Shahnewaz",
		"phone": "1-877-812-6636",
		"website": "http://condominiumliving.ca"
	},
	{
		"company": "Conelco",
		"link": "/member_directory/34175",
		"street": "200 Bradwick Dr.",
		"city": "Concord, ON",
		"postCode": "L4K 1K8",
		"contact": "Nick Melatti",
		"phone": "(416) 798-7150",
		"website": "http://con-elco.com"
	},
	{
		"company": "Conestoga - Rovers & Associates Ltd.",
		"link": "/member_directory/34804",
		"street": "400-179 Colonnade Rd.",
		"city": "Ottawa, ON",
		"postCode": "K2E 7J4",
		"contact": "Joseph Drader",
		"phone": "(613) 727-0510",
		"website": "http://craworld.com"
	},
	{
		"company": "Conestoga College",
		"link": "/member_directory/36838",
		"street": "108 University Ave",
		"city": "Waterloo, ON",
		"postCode": "N2J 2W2",
		"contact": "Rob Gilchrist",
		"phone": "(519) 885-0300",
		"website": "http://conestogac.on.ca"
	},
	{
		"company": "Coni Marble Manufacturing Inc.",
		"link": "/member_directory/35816",
		"street": "31 Aritsans Cres.",
		"city": "London, ON",
		"postCode": "N5V 5E9",
		"contact": "Deborah Clemens",
		"phone": "(519) 453-0100",
		"website": "http://conimarble.ca"
	},
	{
		"company": "Conlin Premier Construction Inc.",
		"link": "/member_directory/36061",
		"street": "901 Burnside Dr",
		"city": "Bridgenorth, ON",
		"postCode": "K0L 1J0",
		"contact": "Jake Conlin",
		"phone": "705 292 6092",
		"website": "http://conlinpremierconstruction.com"
	},
	{
		"company": "Conquest Carpet & Flooring (Division of Trust Flooring)",
		"link": "/member_directory/34176",
		"street": "4965 Steeles Ave. W.",
		"city": "North York, ON",
		"postCode": "M9L 1R4",
		"contact": "Stewart Turk",
		"phone": "(416) 745-8518",
		"website": "http://trustflooring.com"
	},
	{
		"company": "Conquest Construction Services",
		"link": "/member_directory/34805",
		"street": "341 - 900 Greenbank Rd.",
		"city": "Ottawa, ON",
		"postCode": "K2J 4P6",
		"contact": "Mike Hilchuk",
		"phone": "(613) 825-8445",
		"website": "http://conquestconstructionserivces.com"
	},
	{
		"company": "Conrad Construction",
		"link": "/member_directory/37204",
		"street": "2570 Roman Ave",
		"city": "Ottawa, ON",
		"postCode": "K2B 7X9",
		"contact": "Chris Long",
		"phone": "613 601 5564",
		"website": null
	},
	{
		"company": "Conroy Ross Partners",
		"link": "/member_directory/33798",
		"street": "36 Toronto St. Ste. 1100",
		"city": "Toronto, ON",
		"postCode": "M5L 2C5",
		"contact": "Randy De Piero",
		"phone": "(416) 800-5550",
		"website": "http://conroyross.com"
	},
	{
		"company": "Conservatory Group (The)",
		"link": "/member_directory/32937",
		"street": "90 Tiverton Crt. Ste. 200",
		"city": "Markham, ON",
		"postCode": "L3R 9V2",
		"contact": "Sheldon Libfeld",
		"phone": "(905) 477-7609",
		"website": "http://conservatorygroup.com"
	},
	{
		"company": "Consolidated Homes",
		"link": "/member_directory/36018",
		"street": "595 Cartier Ave.",
		"city": "North Bay, ON",
		"postCode": "P1B 8N2",
		"contact": "Paul Orsi / Tony Fava",
		"phone": "(705) 474-2996",
		"website": null
	},
	{
		"company": "Constellation HomeBuilder Systems",
		"link": "/member_directory/33799",
		"street": "75 Frontenac Dr. West Wing",
		"city": "Markham, ON",
		"postCode": "L3R 6H2",
		"contact": "Chris Graham",
		"phone": "(905) 475-2209",
		"website": "http://constellationhb.com"
	},
	{
		"company": "Construction Group (The)",
		"link": "/member_directory/33591",
		"street": "3047 Lake Shore Blvd. W.",
		"city": "Toronto, ON",
		"postCode": "M8V 1K5",
		"contact": "Saul Berlin",
		"phone": "(416) 335-7911",
		"website": "http://theconstructiongroup.ca"
	},
	{
		"company": "Construction Services",
		"link": "/member_directory/33800",
		"street": "163 Buttermill Ave. Unit 7",
		"city": "Concord, ON",
		"postCode": "L4K 3X8",
		"contact": "Steve Hilchuk",
		"phone": "(905) 761-1512",
		"website": "http://constructionservices.ca"
	},
	{
		"company": "Construction Workplace Safety Training Ltd.",
		"link": "/member_directory/36418",
		"street": "41 King St. Unit #2",
		"city": "Barrie, ON",
		"postCode": "L4N 6B8",
		"contact": "Bruce Bolduc",
		"phone": "(705) 812-1656",
		"website": null
	},
	{
		"company": "Construction Workplace Safety Training Ltd.",
		"link": "/member_directory/36554",
		"street": "41 King St., Unit 2,",
		"city": "Barrie, ON",
		"postCode": "L4N 6B5",
		"contact": "Bruce Bolduc",
		"phone": "(705) 812-1656",
		"website": "http://buildwithsafety.com"
	},
	{
		"company": "Context Development Inc.",
		"link": "/member_directory/32938",
		"street": "229 Yonge St. Ste. 500",
		"city": "Toronto, ON",
		"postCode": "M5B 1N9",
		"contact": "Howard Cohen",
		"phone": "(416) 863-0202",
		"website": "http://context.ca"
	},
	{
		"company": "Continental Cabinet Company",
		"link": "/member_directory/35892",
		"street": "547 Clarke Rd.",
		"city": "London, ON",
		"postCode": "N5V 2E1",
		"contact": "Peter Volk",
		"phone": "(519) 455-3830",
		"website": "http://continentalcabinet.com"
	},
	{
		"company": "Contractors Rental Supply",
		"link": "/member_directory/36890",
		"street": "75 Cenntennial Rd.",
		"city": "Kitchener, ON",
		"postCode": "N2B 3E9",
		"contact": "Steve Burns",
		"phone": "(519) 576-6640",
		"website": "http://contractorsrentalsupply.ca"
	},
	{
		"company": "Contractors Rental Supply",
		"link": "/member_directory/33342",
		"street": "79A Ram Forest Rd.",
		"city": "Gormley, ON",
		"postCode": "L0H 1G0",
		"contact": "Craig Nyers",
		"phone": "(905) 726-1111",
		"website": "http://contractorsrentalsupply.ca"
	},
	{
		"company": "Contractors Rental Supply",
		"link": "/member_directory/34371",
		"street": "411 Henry St.",
		"city": "Brantford, ON",
		"postCode": "N3S 7V6",
		"contact": "Geoff Millier",
		"phone": "(519) 752-7074",
		"website": null
	},
	{
		"company": "Contractors Rental Supply",
		"link": "/member_directory/36437",
		"street": "535 Welham Rd.",
		"city": "Barrie, ON",
		"postCode": "L4N 8Z6",
		"contact": "Dean Bell / Will Denke",
		"phone": "(705) 739-6999",
		"website": null
	},
	{
		"company": "Contractors Rental Supply ",
		"link": "/member_directory/34980",
		"street": "2489 Sheffield Rd.",
		"city": "Ottawa, ON",
		"postCode": "K1B 3V6",
		"contact": "Mark Watson",
		"phone": "(613) 744-8889",
		"website": "http://crsottawa.ca"
	},
	{
		"company": "Contractors Rental Supply",
		"link": "/member_directory/36280",
		"street": "1037 Wallbridge Loyalist Rd.",
		"city": "Belleville, ON",
		"postCode": "K8N 4Z5",
		"contact": "Chris Gill",
		"phone": "(613) 962-1222",
		"website": null
	},
	{
		"company": "Contractors Rental Supply",
		"link": "/member_directory/35265",
		"street": "Box 1070",
		"city": "Haliburton, ON",
		"postCode": "K0M 1S0",
		"contact": "Doug Tallman",
		"phone": "(705) 457-9833",
		"website": null
	},
	{
		"company": "Contractors Rental Supply",
		"link": "/member_directory/36582",
		"street": "54 Lorne Ave.,",
		"city": "Stratford, ON",
		"postCode": "N5A 6S4",
		"contact": "Dan Bruinsma",
		"phone": "(519) 272-2220",
		"website": null
	},
	{
		"company": "Contractors Rental Supply",
		"link": "/member_directory/34547",
		"street": "1277 Wilson Rd. N.",
		"city": "Oshawa, ON",
		"postCode": "L1K 2B8",
		"contact": "Matthew Eon",
		"phone": "(905) 576-1888",
		"website": "http://contractorsrentalsupply.ca"
	},
	{
		"company": "Contractors Rental Supply CRS",
		"link": "/member_directory/37141",
		"street": "1097 Highway 7 East",
		"city": "Peterborough, ON",
		"postCode": "L9J 6X8",
		"contact": "Dan Stephen",
		"phone": "705 760 9211",
		"website": "http://crsrents,ca"
	},
	{
		"company": "Convoy Supply Ltd.",
		"link": "/member_directory/36670",
		"street": "64 National St.",
		"city": "Garson, ON",
		"postCode": "P3L 1M5",
		"contact": "Steve Cribari",
		"phone": "(705) 524-9777",
		"website": "http://convoy-supply.com"
	},
	{
		"company": "Convoy Supply Ltd.",
		"link": "/member_directory/34891",
		"street": "810 Belfast Rd.",
		"city": "Ottawa, ON",
		"postCode": "K1G 0Z5",
		"contact": "Larry Iacovino",
		"phone": "(613) 260-5402",
		"website": "http://convoy-supply.com"
	},
	{
		"company": "Convoy Supply Ltd.",
		"link": "/member_directory/36438",
		"street": "95 Welham Rd.",
		"city": "Barrie, ON",
		"postCode": "L4N 8Y3",
		"contact": "Art Henderson",
		"phone": "(705) 722-5404",
		"website": null
	},
	{
		"company": "Convoy Supply Ltd.",
		"link": "/member_directory/34502",
		"street": "1080 Squires Beach Rd.",
		"city": "Pickering, ON",
		"postCode": "L1W 3N8",
		"contact": "Dan Hannam",
		"phone": "(905) 426-7099",
		"website": "http://convoy-supply.com"
	},
	{
		"company": "Convoy Supply Ltd.",
		"link": "/member_directory/35817",
		"street": "1070 Wilton Grove Rd.",
		"city": "London, ON",
		"postCode": "N6N 1C6",
		"contact": "Terry Moore",
		"phone": "(519) 686-5204",
		"website": "http://convoy-supply.com"
	},
	{
		"company": "Cook Homes Ltd.",
		"link": "/member_directory/36739",
		"street": "169 Lexington Crt., Unit B-1",
		"city": "Waterloo, ON",
		"postCode": "N2J 4R3",
		"contact": "Tim Allensen",
		"phone": "(519) 746-6244",
		"website": "http://cookhomes.ca"
	},
	{
		"company": "Cooper Equipment Rentals Ltd.",
		"link": "/member_directory/33343",
		"street": "33 Racine Rd.",
		"city": "Toronto, ON",
		"postCode": "M9W 2Z4",
		"contact": "Cameron Ecker",
		"phone": "(416) 744-5000",
		"website": "http://cooperequipment.ca"
	},
	{
		"company": "Copp Building Materials Ltd.",
		"link": "/member_directory/35818",
		"street": "45 York St.",
		"city": "London, ON",
		"postCode": "N6A 1A4",
		"contact": "Jake Draper",
		"phone": "(519) 679-9000",
		"website": "http://coppsbuildall.com"
	},
	{
		"company": "Copperstone Renovations",
		"link": "/member_directory/34740",
		"street": "60 Colonnade Rd.",
		"city": "Ottawa, ON",
		"postCode": "K2E 7J6",
		"contact": "Robert Miller",
		"phone": "(613) 617-8637",
		"website": "http://copperstonerenos.ca"
	},
	{
		"company": "Coram Construction Solutions Inc.",
		"link": "/member_directory/32939",
		"street": "200 Ronson Dr. Ste. 305",
		"city": "Etobicoke, ON",
		"postCode": "M9W 5Z9",
		"contact": "Matthew Melchior",
		"phone": "(416) 243-9019",
		"website": "http://coram.com"
	},
	{
		"company": "Corbara Development Group",
		"link": "/member_directory/37210",
		"street": "3700 Steeles Ave W",
		"city": "Vaughan, ON",
		"postCode": "L4L 8M9",
		"contact": "Greg Tanzola",
		"phone": "905 850 6154",
		"website": null
	},
	{
		"company": "Cordell Carpet",
		"link": "/member_directory/35266",
		"street": "P.O. Box 374",
		"city": "Haliburton, ON",
		"postCode": "K0M 1S0",
		"contact": "Bradley Sales",
		"phone": "(705) 457-2022",
		"website": null
	},
	{
		"company": "Core Architects Inc.",
		"link": "/member_directory/33801",
		"street": "317 Adelaide St. W. Ste. 600",
		"city": "Toronto, ON",
		"postCode": "M5V 1P9",
		"contact": "Babak Eslahjou",
		"phone": "(416) 343-0400",
		"website": "http://corearchitects.com"
	},
	{
		"company": "Core Insurance Claims Contracting Inc.",
		"link": "/member_directory/33592",
		"street": "94 Kenhar Dr. Unit 10",
		"city": "Weston, ON",
		"postCode": "M9L 1N2",
		"contact": "Ralph Mazza",
		"phone": "(416) 740-9400",
		"website": "http://corecontracting.com"
	},
	{
		"company": "CoreLogic Insurance Solutions",
		"link": "/member_directory/33802",
		"street": "160 Traders Blvd. E. Ste. 200",
		"city": "Mississauga, ON",
		"postCode": "L4Z 3K7",
		"contact": "Norrine Brydon",
		"phone": "(905) 502-6663",
		"website": "http://msbinfo.com"
	},
	{
		"company": "Coreslab Structures",
		"link": "/member_directory/37007",
		"street": "205 Coreslab Drive",
		"city": "Dundas, ON",
		"postCode": "L9H 0B3",
		"contact": "Jason Franciosa",
		"phone": "905 689-3993",
		"website": "http://coreslab.com"
	},
	{
		"company": "Coreslab Structures (Ont) Inc.",
		"link": "/member_directory/35353",
		"street": "205 Coreslab Dr.",
		"city": "Dundas, ON",
		"postCode": "L9H 0B3",
		"contact": "Anthony Franciosa",
		"phone": "(905) 689-3993",
		"website": "http://coreslab.com"
	},
	{
		"company": "Corestar Mechanical Ltd.",
		"link": "/member_directory/36928",
		"street": "R. R. #1",
		"city": "New Dundee, ON",
		"postCode": "N0B 2E0",
		"contact": "Robert Bogusat",
		"phone": "(519) 579-5037",
		"website": "http://corestar.ca"
	},
	{
		"company": "Corlon Properties Inc.",
		"link": "/member_directory/35674",
		"street": "379 Sunningdale Rd. W.",
		"city": "London, ON",
		"postCode": "N6G 5B9",
		"contact": "Dave Schmidt",
		"phone": "(519) 660-6200",
		"website": "http://sunningdalehome.com"
	},
	{
		"company": "Cornwall Construction Association",
		"link": "/member_directory/36384",
		"street": "P.O. Box 1478",
		"city": "Cornwall, ON",
		"postCode": "K6H 5V5",
		"contact": "Melissa Fell",
		"phone": null,
		"website": null
	},
	{
		"company": "Coronado Waterloo Stone Works",
		"link": "/member_directory/36803",
		"street": "115 Earl Thompson Rd.",
		"city": "Ayr, ON",
		"postCode": "N0B 1E0",
		"contact": "Rick Ejsymont",
		"phone": "(519) 620-0006",
		"website": "http://coronadocorp.com"
	},
	{
		"company": "Corporate Research Group Ltd.",
		"link": "/member_directory/34806",
		"street": "325 - 301 Moodie Dr.",
		"city": "Nepean, ON",
		"postCode": "K2H 9C4",
		"contact": "Paul Knowlton",
		"phone": "(613) 596-2910",
		"website": "http://thecrg.com"
	},
	{
		"company": "Corporation of the City of Belleville",
		"link": "/member_directory/36201",
		"street": "169 Front St.",
		"city": "Belleville, ON",
		"postCode": "K8N 2Y8",
		"contact": "Rod Bovay",
		"phone": "(613) 968-6481",
		"website": "http://belleville.ca"
	},
	{
		"company": "Corporation of the City of Burlington",
		"link": "/member_directory/37040",
		"street": "426 Brant St",
		"city": "Burlington, ON",
		"postCode": "L7R 3Z6",
		"contact": "Scott Stewart",
		"phone": "905 335 7600",
		"website": null
	},
	{
		"company": "Corrado Carpenter Contractor Ltd.",
		"link": "/member_directory/34177",
		"street": "445 Edgeley Blvd. Unit 20",
		"city": "Concord, ON",
		"postCode": "L4K 4G1",
		"contact": "C. Scivoletto",
		"phone": "(905) 660-4411",
		"website": null
	},
	{
		"company": "Corsica Homes Inc.",
		"link": "/member_directory/36740",
		"street": "160 S.gate Dr.",
		"city": "Guelph, ON",
		"postCode": "N1G 4P5",
		"contact": "Jeremy Marchildon",
		"phone": "(519) 572-7798",
		"website": null
	},
	{
		"company": "Cortina Kitchens Inc.",
		"link": "/member_directory/33344",
		"street": "70 Regina Rd.",
		"city": "Woodbridge, ON",
		"postCode": "L4L 8L6",
		"contact": "Paolo Tommasino",
		"phone": "1-866-554-7811",
		"website": "http://cortinakitchens.com"
	},
	{
		"company": "Corvinelli Homes",
		"link": "/member_directory/34665",
		"street": "24 Drentex St.",
		"city": "Russell, ON",
		"postCode": "K4R 1A7",
		"contact": "John Corvinelli",
		"phone": "(613) 445-8035",
		"website": "http://corvinellihomes.ca"
	},
	{
		"company": "Cosburn Giberson Landscape Architects Inc.",
		"link": "/member_directory/33803",
		"street": "30 Centurian Dr. Ste. 210",
		"city": "Markham, ON",
		"postCode": "L3R 8B8",
		"contact": "Bruce Johnson",
		"phone": "(905) 475-6988",
		"website": "http://cgla.ca"
	},
	{
		"company": "Coscorp Inc.",
		"link": "/member_directory/32940",
		"street": "6625 Kitimat Rd. Unit 58",
		"city": "Mississauga, ON",
		"postCode": "L5N 6J1",
		"contact": "Peter Costigan",
		"phone": "(905) 821-3666",
		"website": "http://coscorp.ca"
	},
	{
		"company": "Cosella Dorken Products Inc.",
		"link": "/member_directory/35354",
		"street": "4655 Delta Way",
		"city": "Beamsville, ON",
		"postCode": "L0R 1B4",
		"contact": "David Demaria",
		"phone": "(905) 563-3255",
		"website": "http://deltams.com"
	},
	{
		"company": "Cosella-Dorken Products Inc.",
		"link": "/member_directory/33345",
		"street": "4655 Delta Way",
		"city": "Beamsville, ON",
		"postCode": "L0R 1B4",
		"contact": "Tom Fallon",
		"phone": "1-888-433-5824",
		"website": "http://cosella-dorken.com"
	},
	{
		"company": "Cosmopolitan Homes",
		"link": "/member_directory/32941",
		"street": "120 W. Beaver Creek Rd. Unit 19",
		"city": "Richmond Hill, ON",
		"postCode": "L4B 1L2",
		"contact": "Henry Smith",
		"phone": "(905) 762-1800",
		"website": "http://cosmopolitanhomes.ca"
	},
	{
		"company": "Cosmopolitan Homes Ltd.",
		"link": "/member_directory/37111",
		"street": "120 West Beaver Creek Rd Unit 19",
		"city": "Richmond Hill, ON",
		"postCode": "L4B 1L2",
		"contact": "Carl Smith",
		"phone": "905 762 0134",
		"website": null
	},
	{
		"company": "Cotland Development Company Ltd.",
		"link": "/member_directory/36306",
		"street": "55 Blue Danube Way",
		"city": "Laurentian Valley, ON",
		"postCode": "K8A 6W2",
		"contact": "Zoltan Fuisz",
		"phone": "(613) 638-5097",
		"website": null
	},
	{
		"company": "Cotton Inc",
		"link": "/member_directory/36007",
		"street": "2125 Fruitbelt Parkway",
		"city": "Niagara Falls, ON",
		"postCode": "L2E 6S4",
		"contact": "Angelo Dosa",
		"phone": "(905) 262-2000",
		"website": "http://cottoninc.ca"
	},
	{
		"company": "Cotton Inc.",
		"link": "/member_directory/35480",
		"street": "2125 Fruitbelt Parkway",
		"city": "Niagara Falls, ON",
		"postCode": "L2E 6S4",
		"contact": "Angelo Dosa",
		"phone": "(905) 262-2000",
		"website": "http://cottoninc.ca"
	},
	{
		"company": "Cougs Investments Ltd.",
		"link": "/member_directory/34445",
		"street": "2700 Audley Rd. N.",
		"city": "Ajax, ON",
		"postCode": "L1Z 1T7",
		"contact": "Ken Russell",
		"phone": "(905) 427-7703",
		"website": "http://coughlanhomes.com"
	},
	{
		"company": "Cougs Investments Ltd.",
		"link": "/member_directory/32942",
		"street": "2700 Audley Rd. N.",
		"city": "Ajax, ON",
		"postCode": "L1Z 1T7",
		"contact": "Ken Russell",
		"phone": "(905) 427-7703",
		"website": "http://coughlanhomes.com"
	},
	{
		"company": "Coulson Design Build",
		"link": "/member_directory/36945",
		"street": "54 Balaclava St S",
		"city": "Amherstburg, ON",
		"postCode": "N9V 2G4",
		"contact": "Drew Coulson",
		"phone": "(519) 818 6601",
		"website": null
	},
	{
		"company": "Counterpoint Engineering Inc.",
		"link": "/member_directory/36104",
		"street": "8395 Jane St.",
		"city": "Vaughn, ON",
		"postCode": "L4K 5Y2",
		"contact": "Karl Repka",
		"phone": "(905) 326-1404",
		"website": "http://counterpointeng.com"
	},
	{
		"company": "Counterpoint Engineering Inc.",
		"link": "/member_directory/33804",
		"street": "8395 Jane St. Ste. 100",
		"city": "Vaughan, ON",
		"postCode": "L4K 5Y2",
		"contact": "Patrick Turner",
		"phone": "(905) 326-1404",
		"website": "http://counterpointeng.com"
	},
	{
		"company": "Country Gate Homes Ltd.",
		"link": "/member_directory/34446",
		"street": "1711 Hwy #2",
		"city": "Courtice, ON",
		"postCode": "L1E 2R5",
		"contact": "Cal Potter",
		"phone": "(905) 429-2105",
		"website": null
	},
	{
		"company": "Country Glen Homes",
		"link": "/member_directory/32943",
		"street": "4000 Steeles Ave. W. Ste. 203",
		"city": "Woodbridge, ON",
		"postCode": "L4L 4V9",
		"contact": "Paul Quattrociocchi",
		"phone": "(905) 851-9367",
		"website": null
	},
	{
		"company": "Country Green Homes Inc.",
		"link": "/member_directory/36741",
		"street": "410 Industrial Dr. Unit C",
		"city": "Milton, ON",
		"postCode": "L9T 5A6",
		"contact": "Maria Kyveris",
		"phone": "(905) 693-8525",
		"website": "http://countrygreenhomes.com"
	},
	{
		"company": "Country Wide Homes Ltd.",
		"link": "/member_directory/32944",
		"street": "1500 Highway 7",
		"city": "Concord, ON",
		"postCode": "L4K 5Y4",
		"contact": "Claudio Maggioni",
		"phone": "(905) 907-1500",
		"website": "http://countrywidehomes.ca"
	},
	{
		"company": "Countryside Landscaping Ltd.",
		"link": "/member_directory/35237",
		"street": "205 S. Cayuga St. E.",
		"city": "Cayuga, ON",
		"postCode": "N1A 1C5",
		"contact": "Wes Zanting",
		"phone": "(905) 701-7429",
		"website": null
	},
	{
		"company": "Countrywide Recycling Inc.",
		"link": "/member_directory/35569",
		"street": "900 Nebo Rd. PO Box 370",
		"city": "Hamilton, ON",
		"postCode": "L0R 1C0",
		"contact": "John Voortman",
		"phone": "(905) 679-7499",
		"website": "http://countrywiderecycling.ca"
	},
	{
		"company": "County Heritage Forest Products Ltd.",
		"link": "/member_directory/35819",
		"street": "1275 Hubrey Rd.",
		"city": "London, ON",
		"postCode": "N6N 1E2",
		"contact": "Margaret Parmar",
		"phone": "(519) 686-7573",
		"website": "http://countryheritage.com"
	},
	{
		"company": "County of Brant",
		"link": "/member_directory/37052",
		"street": "66 Grand River St N",
		"city": "Paris, ON",
		"postCode": "N3L 2M2",
		"contact": "Andre Gravelle",
		"phone": "519-442-6324",
		"website": null
	},
	{
		"company": "Courtney Roofing Ltd.",
		"link": "/member_directory/35893",
		"street": "300 Exeter Rd.",
		"city": "London, ON",
		"postCode": "N6L 1A3",
		"contact": "Drew Macdonald",
		"phone": "(519) 652-6859",
		"website": "http://courtneyroofing.com"
	},
	{
		"company": "Couvre Plancher Embrun Floor Covering Inc. (1997)",
		"link": "/member_directory/34981",
		"street": "781C Notre Dame St.",
		"city": "Embrun, ON",
		"postCode": "K0A 1W1",
		"contact": "Normand Seguin",
		"phone": "(613) 443-5538",
		"website": null
	},
	{
		"company": "Covenant Construction",
		"link": "/member_directory/35747",
		"street": "844 Willow Dr.",
		"city": "London, ON",
		"postCode": "N6E 1P1",
		"contact": "Bonnie Hardy",
		"phone": "(519) 473-1500",
		"website": "http://covenantconstruction.ca"
	},
	{
		"company": "Covington Estates (Division of Manquest Investments Ltd.)",
		"link": "/member_directory/32945",
		"street": "36 Greensboro Dr.",
		"city": "Rexdale, ON",
		"postCode": "M9W 1E1",
		"contact": "Daniel Mantella",
		"phone": "(416) 247-6200",
		"website": null
	},
	{
		"company": "Covington Group",
		"link": "/member_directory/35675",
		"street": "P.O. Box 39023",
		"city": "London, ON",
		"postCode": "N5Y 5L1",
		"contact": "Carl DiNardo",
		"phone": "(519) 453-4242",
		"website": "http://covingtongroup.com"
	},
	{
		"company": "Cowan Insurance Group ",
		"link": "/member_directory/35116",
		"street": "705 Fountain St. N Box 1510",
		"city": "Cambridge, ON",
		"postCode": "N1R 5T2",
		"contact": "David Outa",
		"phone": "(519) 650-6360",
		"website": null
	},
	{
		"company": "Cowan Insurance Group",
		"link": "/member_directory/36042",
		"street": "705 Fountain St. N.",
		"city": "Cambridge, ON",
		"postCode": "N1R 5T2",
		"contact": "Laura Van Vliet",
		"phone": "(519) 650-6363",
		"website": null
	},
	{
		"company": "Cowan Insurance Group",
		"link": "/member_directory/36839",
		"street": "705 Fountain St. N.  P. O. Box 1510",
		"city": "Cambridge, ON",
		"postCode": "N1R 5T2",
		"contact": "Craig Beaton",
		"phone": "(519) 650-6363",
		"website": "http://cowangroup.ca"
	},
	{
		"company": "Cowboy's Painting",
		"link": "/member_directory/37100",
		"street": "60 Waterloo St N",
		"city": "Goderich, ON",
		"postCode": "N7A 2W3",
		"contact": "Dan McLean",
		"phone": "226-421-2185",
		"website": null
	},
	{
		"company": "CP & Son General Contractor Ltd",
		"link": "/member_directory/34741",
		"street": "8 David Gaulin",
		"city": "Gatineau, Quebec",
		"postCode": "J8P 2T5",
		"contact": "Caroline Charron Patry",
		"phone": "(613) 695-5645",
		"website": "http://cpandson.com"
	},
	{
		"company": "Crack Doctor Waterproofing Group Inc. (The)",
		"link": "/member_directory/34178",
		"street": "2416 Haines Rd. Ste. 06",
		"city": "Mississauga, ON",
		"postCode": "L4Y 1Y6",
		"contact": "Denny Ikonomi",
		"phone": "(905) 450-2389",
		"website": "http://thecrackdoctor.ca"
	},
	{
		"company": "Craft House of Design Ltd.",
		"link": "/member_directory/37200",
		"street": "114 Rita Ave",
		"city": "Ottawa, ON",
		"postCode": "K2G 2H3",
		"contact": "Daniel St. Louis",
		"phone": "613-316-5750",
		"website": null
	},
	{
		"company": "Craiglee Home Improvements Ltd.",
		"link": "/member_directory/33593",
		"street": "95 Bexhill Ave.",
		"city": "Scarborough, ON",
		"postCode": "M1L 3B9",
		"contact": "Ed Hussey",
		"phone": "(416) 540-0503",
		"website": "http://craigleehomes.net"
	},
	{
		"company": "Crain & Schooley Insurance Brokers Ltd.",
		"link": "/member_directory/35645",
		"street": "81 Gore St. E",
		"city": "Perth, ON",
		"postCode": "K7H 1J1",
		"contact": "Jason Schooley",
		"phone": "(613) 267 8894",
		"website": null
	},
	{
		"company": "Crain's Construction Ltd.",
		"link": "/member_directory/35661",
		"street": "R.R. #1",
		"city": "Maberly, ON",
		"postCode": "K0H 2B0",
		"contact": "Wilburt Crain",
		"phone": "(613) 268-2308",
		"website": null
	},
	{
		"company": "Creative Design Group Canada Inc.",
		"link": "/member_directory/37092",
		"street": "206 Laird Drive Unit 203",
		"city": "Toronto, ON",
		"postCode": "M4G 3W4",
		"contact": "Max Lagace",
		"phone": "416-738-4351",
		"website": null
	},
	{
		"company": "Creative Landscape Depot",
		"link": "/member_directory/36891",
		"street": "1175 King St.",
		"city": "Waterloo, ON",
		"postCode": "N0B 2N0",
		"contact": "Jeremy Kwiatkowski",
		"phone": "(519) 664-0225",
		"website": "http://creativelandscapedepot.com"
	},
	{
		"company": "Cresford Developments",
		"link": "/member_directory/32946",
		"street": "170 Merton St.",
		"city": "Toronto, ON",
		"postCode": "M4S 1A1",
		"contact": "David Mann",
		"phone": "(416) 971-7557",
		"website": "http://cresford.com"
	},
	{
		"company": "Cricket Energy Inc.",
		"link": "/member_directory/33346",
		"street": "20 Floral Parkway",
		"city": "Concord, ON",
		"postCode": "L4K 4R1",
		"contact": "Jennifer Hurd",
		"phone": "1-855-353-2579",
		"website": "http://cricketenergy.com"
	},
	{
		"company": "Cricket Energy Inc.",
		"link": "/member_directory/34548",
		"street": "20 Floral Parkway",
		"city": "Concord, ON",
		"postCode": "L4K 4R1",
		"contact": "Larry Brydon Jennifer Hurd",
		"phone": "(416) 676-1651",
		"website": "http://cricketenergy.com"
	},
	{
		"company": "Cricket Home Comfort Inc.",
		"link": "/member_directory/34892",
		"street": "20 Floral Parkway",
		"city": "Concord, ON",
		"postCode": "L4K 4R1",
		"contact": "Dave Walton",
		"phone": "(613) 299-8319",
		"website": "http://cricketenergy.com"
	},
	{
		"company": "Crina General Construction Ltd.",
		"link": "/member_directory/33594",
		"street": "399 Four Valley Dr. Unit 28",
		"city": "Concord, ON",
		"postCode": "L4K 5Y7",
		"contact": "John Sepe",
		"phone": "(905) 738-7930",
		"website": null
	},
	{
		"company": "Criterium-Jansen Engineers",
		"link": "/member_directory/34621",
		"street": "75 First St., Suite 216",
		"city": "Orangeville, ON",
		"postCode": "L9W 5B6",
		"contact": "Henry Jansen",
		"phone": "(519) 940-0571",
		"website": "http://criterium-jansen.com"
	},
	{
		"company": "Crossford Construction Ltd.",
		"link": "/member_directory/34742",
		"street": "1501 Carling Ave. Suite 6",
		"city": "Ottawa, ON",
		"postCode": "K1Z 7M1",
		"contact": "Lindsay Nicol",
		"phone": "(613) 729-5004",
		"website": "http://crossford.ca"
	},
	{
		"company": "Crown Homes of London",
		"link": "/member_directory/35676",
		"street": "P.O. Box 8009",
		"city": "London, ON",
		"postCode": "N6G 2V9",
		"contact": "Merv Bell",
		"phone": "(519) 473-0723",
		"website": "http://crownhomes.on.ca"
	},
	{
		"company": "CRS",
		"link": "/member_directory/36043",
		"street": "836 Parkinson Rd.",
		"city": "Woodstock, ON",
		"postCode": "N4S 8L2",
		"contact": "Dan Bruinsma",
		"phone": "(519) 421-7219",
		"website": null
	},
	{
		"company": "Crystal Glen Homes (2000) Inc.",
		"link": "/member_directory/32947",
		"street": "8740 Jane St. Unit 1",
		"city": "Concord, ON",
		"postCode": "L4K 0E7",
		"contact": "Steve Saccoccia",
		"phone": "(905) 597-0227",
		"website": "http://crystalglenhomes.com"
	},
	{
		"company": "Crystal Homes Corporation",
		"link": "/member_directory/35297",
		"street": "161 Rebecca St.",
		"city": "Hamilton, ON",
		"postCode": "L8R 1B9",
		"contact": "Kathy DiSilvestro",
		"phone": "(905) 574-4859",
		"website": "http://crystalhomes.com"
	},
	{
		"company": "CST Canada/Ultra-Mar Home Energy",
		"link": "/member_directory/36241",
		"street": "R.R. 5, 406 Maitland Dr., Unit 5",
		"city": "Belleville, ON",
		"postCode": "K8N 4Z5",
		"contact": "Paul Murray",
		"phone": "(613) 967-4774",
		"website": null
	},
	{
		"company": "Culligan Water Treatment",
		"link": "/member_directory/35212",
		"street": "138 B Queensway E.",
		"city": "Simcoe, ON",
		"postCode": "N3Y 5L5",
		"contact": "Amanda Caissie",
		"phone": "(519) 426-1904",
		"website": null
	},
	{
		"company": "Culliton Brothers Ltd.",
		"link": "/member_directory/36609",
		"street": "473 Douro St., P.O. Box 850",
		"city": "Stratford, ON",
		"postCode": "N5A 3S9",
		"contact": "Tim Culliton",
		"phone": "(519) 271-1981",
		"website": null
	},
	{
		"company": "Curated Properties",
		"link": "/member_directory/32948",
		"street": "156 Old Forest Hill Rd.",
		"city": "Toronto, ON",
		"postCode": "M5N 2N8",
		"contact": "Gary Eisen",
		"phone": "(416) 579-4629",
		"website": "http://curatedproperties.com"
	},
	{
		"company": "Curb Signs Inc.",
		"link": "/member_directory/33347",
		"street": "14845-6 Yonge St. Ste. 186",
		"city": "Aurora, ON",
		"postCode": "L4G 6H8",
		"contact": "Kyle Gatt",
		"phone": "(905) 717-0115",
		"website": "http://curbsigns.net"
	},
	{
		"company": "Cushman & Wakefield Ltd.",
		"link": "/member_directory/33805",
		"street": "3100 Steeles Ave. E. Ste. 1100",
		"city": "Markham, ON",
		"postCode": "L3R 8T3",
		"contact": "Paul Langer",
		"phone": "(416) 494-9500",
		"website": "http://cushmanwakefield.com"
	},
	{
		"company": "Cusimano Professional Corporation, Chartered Accountant",
		"link": "/member_directory/33806",
		"street": "185 Bridgeland Ave. Ste. 201",
		"city": "Toronto, ON",
		"postCode": "M6A 1Y2",
		"contact": "Anthony Cusimano",
		"phone": "(416) 849-4000",
		"website": "http://cusimano.com"
	},
	{
		"company": "Cusinato Developments",
		"link": "/member_directory/36629",
		"street": "40 Oberon St.",
		"city": "Sudbury, ON",
		"postCode": "P3E 0A6",
		"contact": "Paulo Cusinato",
		"phone": "(705) 522-9837",
		"website": null
	},
	{
		"company": "Custom Floors Carpet One",
		"link": "/member_directory/36355",
		"street": "532 Christina St. N.",
		"city": "Sarnia, ON",
		"postCode": "N7T 5W6",
		"contact": "Derek Walter",
		"phone": "(519) 344-8855",
		"website": "http://customfloorscarpetonesarnia.com/"
	}
]