[
	{
		"company": "Schuts Unit Step",
		"link": "/member_directory/35203",
		"street": "423 Mt. Pleasant Rd., R.R. #2",
		"city": "Brantford, ON",
		"postCode": "N3T 5L5",
		"contact": "Jason Homes",
		"phone": "(519) 752-1512",
		"website": null
	},
	{
		"company": "Schwarz Law LLP",
		"link": "/member_directory/34061",
		"street": "1984 Yonge St.",
		"city": "Toronto, ON",
		"postCode": "M4S 1Z7",
		"contact": "Jayson Schwarz",
		"phone": "(416) 486-2040",
		"website": "http://schwarzlaw.ca"
	},
	{
		"company": "Schwindt (W.) & Sons Building Contractors",
		"link": "/member_directory/36375",
		"street": "505 Silver St.",
		"city": "Mount Forest, ON",
		"postCode": "N0G 2L3",
		"contact": "Brad Schwindt",
		"phone": "(519) 323-1575",
		"website": null
	},
	{
		"company": "Scotiabank",
		"link": "/member_directory/36544",
		"street": "1 Ontario St., P.O. Box 128",
		"city": "Stratford, ON",
		"postCode": "N5A 6S9",
		"contact": "Paul Barton",
		"phone": "(519) 272-8250",
		"website": null
	},
	{
		"company": "Scott Burns Planning Consultants",
		"link": "/member_directory/34062",
		"street": "330 Bay St. Ste. 820",
		"city": "Toronto, ON",
		"postCode": "M5H 2S8",
		"contact": "Scott Burns",
		"phone": "(416) 304-1420",
		"website": "http://sbpc.ca"
	},
	{
		"company": "Scott Torrance Landscape Architect Inc.",
		"link": "/member_directory/34063",
		"street": "115 Danforth Ave. Ste. 301",
		"city": "Toronto, ON",
		"postCode": "M4K 1N2",
		"contact": "Scott Torrance",
		"phone": "(416) 469-4343",
		"website": "http://scotttorrance.ca"
	},
	{
		"company": "Scottsdale Contracting Inc.",
		"link": "/member_directory/33165",
		"street": "383 Old Yonge St.",
		"city": "Toronto, ON",
		"postCode": "M2P 1R6",
		"contact": "Mark Allison",
		"phone": "(416) 520-8858",
		"website": "http://scottsdalecontracting.ca"
	},
	{
		"company": "SCS Consulting Group Ltd.",
		"link": "/member_directory/34064",
		"street": "30 Centurian Dr. Ste. 100",
		"city": "Markham, ON",
		"postCode": "L3R 8B8",
		"contact": "Steve Schaefer",
		"phone": "(905) 475-1900",
		"website": "http://scsconsultinggroup.com"
	},
	{
		"company": "SeaDan Homes",
		"link": "/member_directory/34482",
		"street": "68 Kennedy St. W.",
		"city": "Aurora, ON",
		"postCode": "L4G 2L5",
		"contact": "Gary Daniell",
		"phone": "(647) 967-7045",
		"website": "http://seadanhomes.com"
	},
	{
		"company": "Sean Mason Homes",
		"link": "/member_directory/33166",
		"street": "233 Snowdon Ave.",
		"city": "Toronto, ON",
		"postCode": "M4N 2B4",
		"contact": "Sean Mason",
		"phone": "(416) 881-7949",
		"website": "http://seanmasonhomes.com"
	},
	{
		"company": "Sears Canada - Commercial Division",
		"link": "/member_directory/34945",
		"street": "2685 Iris St.",
		"city": "Ottawa, ON",
		"postCode": "K2C 3S4",
		"contact": "Dave MacDonald",
		"phone": "(613) 295-4701",
		"website": "http://sears.ca"
	},
	{
		"company": "Sears Commercial",
		"link": "/member_directory/34578",
		"street": "290 Yonge St. Suite 700",
		"city": "Toronto, ON",
		"postCode": "M5B 2X3",
		"contact": null,
		"phone": "1-877-327-7229",
		"website": "http://searscommericial.ca"
	},
	{
		"company": "Sears Commercial",
		"link": "/member_directory/35154",
		"street": "290 Yonge St. Ste. 700",
		"city": "Toronto, ON",
		"postCode": "M5B 2C3",
		"contact": "Shelley Murray",
		"phone": "(226) 820-5391",
		"website": null
	},
	{
		"company": "Sears Commercial",
		"link": "/member_directory/36457",
		"street": "290 Yonge St. #700 Floor 6 B9",
		"city": "Toronto, ON",
		"postCode": "M5B 2C3",
		"contact": "Derek Williams",
		"phone": "(416) 941-3517",
		"website": null
	},
	{
		"company": "Sears Commercial",
		"link": "/member_directory/33483",
		"street": "290 Yonge St. Ste. 700",
		"city": "Toronto, ON",
		"postCode": "M5B 2C3",
		"contact": "Anna Milakowski Krupa",
		"phone": "1-877-327-7229",
		"website": "http://searscommercial.ca"
	},
	{
		"company": "Secure Contracting & Renovations Inc.",
		"link": "/member_directory/36407",
		"street": "647 Welham Rd. Unit #5",
		"city": "Barrie, ON",
		"postCode": "L4N 0B7",
		"contact": "Steve O&apos;Brien",
		"phone": "(705) 728-9500",
		"website": "http://securecr.com"
	},
	{
		"company": "Seguin's Designer Kitchens",
		"link": "/member_directory/36695",
		"street": "1360 B Kelly Lake Rd.",
		"city": "Sudbury, ON",
		"postCode": "P3E 5P4",
		"contact": "Mike Seguin",
		"phone": "(705) 673-8800",
		"website": null
	},
	{
		"company": "Selkirk Investments",
		"link": "/member_directory/37066",
		"street": "111 Park Rd",
		"city": "Toronto, ON",
		"postCode": "M4W 2N8",
		"contact": "Sandra Simpson",
		"phone": "416-927-0755",
		"website": null
	},
	{
		"company": "Senator Homes",
		"link": "/member_directory/33167",
		"street": "250 Lesmill Rd.",
		"city": "North York, ON",
		"postCode": "M3B 2T5",
		"contact": "Paul Breda",
		"phone": "(416) 445-8552",
		"website": "http://senatorhomes.com"
	},
	{
		"company": "Senator Homes (Thames Developments (2011) Ltd.)",
		"link": "/member_directory/36778",
		"street": "250 Lesmill Rd.",
		"city": "North York, ON",
		"postCode": "M3B 2T5",
		"contact": "Marg donaldson",
		"phone": "(416) 445-8552",
		"website": "http://senatorhomes.com"
	},
	{
		"company": "Sensational Signs Company Inc.",
		"link": "/member_directory/34579",
		"street": "12780 Simcoe St.",
		"city": "Port Perry, ON",
		"postCode": "L9L 1B3",
		"contact": "Brenda Colvin",
		"phone": "(905) 982-0881",
		"website": "http://sensationalsigns.net"
	},
	{
		"company": "Sensational Signs Company Inc.",
		"link": "/member_directory/33484",
		"street": "12780 Simcoe St.",
		"city": "Port Perry, ON",
		"postCode": "L9L 1B3",
		"contact": "Brenda Colvin",
		"phone": "1-866-736-7446",
		"website": "http://sensationalsigns.net"
	},
	{
		"company": "Sequoia Landscape",
		"link": "/member_directory/36363",
		"street": "1715 London Line",
		"city": "Sarnia, ON",
		"postCode": "N7T 7H2",
		"contact": "Mike Huard",
		"phone": "(519) 490-5733",
		"website": null
	},
	{
		"company": "Serenity Homes",
		"link": "/member_directory/33168",
		"street": "25 Scarsdale Rd. Unit 7",
		"city": "Toronto, ON",
		"postCode": "M3B 2R2",
		"contact": "Steven Gaggioli",
		"phone": "(416) 551-6220",
		"website": "http://serenity-homes.ca"
	},
	{
		"company": "Sescolite Lighting",
		"link": "/member_directory/35542",
		"street": "4175 Fairview St.",
		"city": "Burlington, ON",
		"postCode": "L7L 2A4",
		"contact": "Steve Bowen",
		"phone": "(905) 632-8659",
		"website": "http://sescolite.com"
	},
	{
		"company": "Seven Lakes Homes Ltd./Meo & Associates Inc.",
		"link": "/member_directory/36957",
		"street": "7200 Disputed Rd., Suite 200",
		"city": "Windsor, ON",
		"postCode": "N9A 6Z6",
		"contact": "Ralph Meo",
		"phone": "(519) 250-8088",
		"website": "http://sevenlakesgolf.com"
	},
	{
		"company": "SevernWoods Construction Inc.",
		"link": "/member_directory/33695",
		"street": "26 Butternut St.",
		"city": "Toronto, ON",
		"postCode": "M4K 1T7",
		"contact": "Tom Cumming",
		"phone": "(416) 483-2941",
		"website": "http://severnwoods.com"
	},
	{
		"company": "SF Partnership, LLP",
		"link": "/member_directory/34065",
		"street": "4950 Yonge St. 4th Flr., Madison Centre",
		"city": "North York, ON",
		"postCode": "M2N 6K1",
		"contact": "Bradley Waese",
		"phone": "(416) 250-1212",
		"website": "http://sfgroup.ca"
	},
	{
		"company": "Shane Construction Group",
		"link": "/member_directory/35383",
		"street": "382 S.cote Rd.",
		"city": "Ancaster, ON",
		"postCode": "L9G 2W3",
		"contact": "Shane VanBarneveld",
		"phone": "(905) 304-4009",
		"website": "http://shaneconstructiongroup.com"
	},
	{
		"company": "Shaw Cablesystems",
		"link": "/member_directory/35543",
		"street": "141 Hester St.",
		"city": "Hamilton, ON",
		"postCode": "L9A 2N9",
		"contact": "Doug Marshall",
		"phone": "(905) 389-0174",
		"website": "http://mountaincable.net"
	},
	{
		"company": "Shaw Industries",
		"link": "/member_directory/34946",
		"street": "6440 Sugar Creek Way",
		"city": "Orleans, ON",
		"postCode": "K1C 1Y3",
		"contact": "Kevin Harsh",
		"phone": "(705) 980-8700",
		"website": "http://shawfloors.com"
	},
	{
		"company": "Shelburne Home Hardware",
		"link": "/member_directory/34636",
		"street": "725 Steeles St., P.O. Box 670",
		"city": "Shelburne, ON",
		"postCode": "L0N 1S0",
		"contact": "Bill Gilliam",
		"phone": "(519) 925-3991",
		"website": null
	},
	{
		"company": "Sheldon Creek Development Inc.",
		"link": "/member_directory/34611",
		"street": "26 Robb Blvd.",
		"city": "Orangeville, ON",
		"postCode": "L9W 3Z2",
		"contact": "Peter Van Grootheest",
		"phone": "(519) 943-0337",
		"website": "http://sheldoncreek.com"
	},
	{
		"company": "Shellstar Homes (Shellstar Holdings Ltd)",
		"link": "/member_directory/34711",
		"street": "P.O. Box 569",
		"city": "Stittsville, ON",
		"postCode": "K2S 1A6",
		"contact": "Tristan Terkuc",
		"phone": "(613) 831-9041",
		"website": "http://shellstarhomes.com"
	},
	{
		"company": "Sheppard Pearl Waterproofing & Renovation (1450434 Ontario Inc.)",
		"link": "/member_directory/33696",
		"street": "98 Banmoor Blvd.",
		"city": "Scarborough, ON",
		"postCode": "M1J 2Z6",
		"contact": "Andy Tsang",
		"phone": "(416) 677-0888",
		"website": "http://iwaterproofing.ca"
	},
	{
		"company": "Sherwin Williams",
		"link": "/member_directory/34947",
		"street": "1760 Woodward Dr.",
		"city": "Ottawa, ON",
		"postCode": "K2C 0P8",
		"contact": "Alex Pora",
		"phone": "(613) 203-0617",
		"website": "http://sherwin-williams.com"
	},
	{
		"company": "Sherwin-Williams Paint",
		"link": "/member_directory/34580",
		"street": "670 Kingston Rd.",
		"city": "Pickering, ON",
		"postCode": "L1V 1A6",
		"contact": "Bill Lamacraft, District Sales Mgr Adil Meziati, District Manager",
		"phone": "(905) 831-8488",
		"website": "http://generalpaint.com"
	},
	{
		"company": "Sherwood Custom Homes Inc.",
		"link": "/member_directory/33169",
		"street": "602 Mount Pleasant Rd.",
		"city": "Toronto, ON",
		"postCode": "M4S 2M8",
		"contact": "Taylor Moore",
		"phone": "(416) 224-1522",
		"website": "http://sherwoodhomes.ca"
	},
	{
		"company": "Shipway Stairs Ltd.",
		"link": "/member_directory/35364",
		"street": "1820 Ironstone Dr.",
		"city": "Burlington, ON",
		"postCode": "L7L 5V3",
		"contact": "Bill Parchem",
		"phone": "(905) 336-1296",
		"website": "http://shipwaystairs.com"
	},
	{
		"company": "Shipway Stairs Ltd.",
		"link": "/member_directory/33485",
		"street": "1820 Ironstone Dr.",
		"city": "Burlington, ON",
		"postCode": "L7L 5V3",
		"contact": "Bill Parchem",
		"phone": "(905) 336-1296",
		"website": "http://shipwaystairs.com"
	},
	{
		"company": "Shoppers HomeHealthCare",
		"link": "/member_directory/33486",
		"street": "202 Sparks Ave.",
		"city": "Toronto, ON",
		"postCode": "M2H 2S4",
		"contact": "Chris Davis",
		"phone": "(416) 701-1351",
		"website": "http://shoppershomehealthcare.ca"
	},
	{
		"company": "Shouldice Designer Stone",
		"link": "/member_directory/33487",
		"street": "281227 Shouldice Block Rd.",
		"city": "Shallowlake, ON",
		"postCode": "NOH 2K0",
		"contact": "Bob Sanders",
		"phone": "1-800-265-3174",
		"website": "http://shouldice.ca"
	},
	{
		"company": "Shouldice Designer Stone",
		"link": "/member_directory/35068",
		"street": "281227 Shouldice Block Rd.",
		"city": "Shallow Lake, ON",
		"postCode": "N0H 2K0",
		"contact": "Rob Shouldice",
		"phone": "(519) 935-2771",
		"website": "http://shouldice.ca"
	},
	{
		"company": "Showerline Sales Ltd.",
		"link": "/member_directory/35864",
		"street": "15 Blackthorne Cres.",
		"city": "London, ON",
		"postCode": "N6J 4B2",
		"contact": "Wayne Kiser",
		"phone": "(519) 657-2694",
		"website": null
	},
	{
		"company": "Shropshire Communications Group",
		"link": "/member_directory/34066",
		"street": "5 Hanna Ave. Ste. 640",
		"city": "Toronto, ON",
		"postCode": "M6K 0B3",
		"contact": "Elizabeth Shropshire",
		"phone": "(416) 466-7044",
		"website": null
	},
	{
		"company": "Sider Bros Builders Ltd",
		"link": "/member_directory/35948",
		"street": "31 Emerick Ave.",
		"city": "Fort Erie, ON",
		"postCode": "L2A 2W2",
		"contact": "Shawn Sider",
		"phone": "(905) 382-2280",
		"website": "http://siderbros.com"
	},
	{
		"company": "Sierra Gate Homes",
		"link": "/member_directory/34712",
		"street": "22 Antares Dr. Unit F",
		"city": "Ottawa, ON",
		"postCode": "K2E 7Z6",
		"contact": "Angus Ravanelli",
		"phone": "(613) 789-1377",
		"website": "http://sierragatehomes.ca"
	},
	{
		"company": "Sifton Properties Ltd.",
		"link": "/member_directory/34340",
		"street": "P.O. Box 5099",
		"city": "London, ON",
		"postCode": "N6A 4M8",
		"contact": "Phillip Masschelein",
		"phone": "(519) 434-1000",
		"website": null
	},
	{
		"company": "Sifton Properties Ltd.",
		"link": "/member_directory/35715",
		"street": "PO Box 5099",
		"city": "London, ON",
		"postCode": "N6A 4M8",
		"contact": "Toby Stolee",
		"phone": "(519) 850-0756",
		"website": "http://sifton.com"
	},
	{
		"company": "Sifton Properties Ltd.",
		"link": "/member_directory/35716",
		"street": "1510 Woodcock St., Suite 23",
		"city": "London, ON",
		"postCode": "N6H 5S1",
		"contact": "Maureen O&apos;Reilly",
		"phone": "(519) 850-0756",
		"website": null
	},
	{
		"company": "Signature Audio Video Ltd.",
		"link": "/member_directory/35045",
		"street": "126 Iber Rd.",
		"city": "Stittsville, ON",
		"postCode": "K2S 1E9",
		"contact": "Roger Delarosbil",
		"phone": "(613) 831-7140",
		"website": "http://sigav.com"
	},
	{
		"company": "Signature Communities",
		"link": "/member_directory/33171",
		"street": "45 Rodinea Rd. Unit 1A",
		"city": "Maple, ON",
		"postCode": "L6A 1R3",
		"contact": "Sebastian Mizzi",
		"phone": "(905) 695-0822",
		"website": "http://signaturecommunities.ca"
	},
	{
		"company": "Signature Landscape Concepts Inc.",
		"link": "/member_directory/36218",
		"street": "54 Waddington Rd.",
		"city": "Marysville, ON",
		"postCode": "K0K 2N0",
		"contact": "Daniel Button",
		"phone": "(613) 885-1914",
		"website": null
	},
	{
		"company": "Silver Beach Developments Ltd.",
		"link": "/member_directory/35261",
		"street": "1827 Wigamog Rd.",
		"city": "Haliburton, ON",
		"postCode": "K0M 1S0",
		"contact": "Gerry Kowalski",
		"phone": "(705) 457-1429",
		"website": null
	},
	{
		"company": "Silver Carpentry Ltd.",
		"link": "/member_directory/34267",
		"street": "129 Rowntree Dairy Rd. Unit 10",
		"city": "Woodbridge, ON",
		"postCode": "L4L 6C9",
		"contact": "Joe Rubino",
		"phone": "(905) 850-1982",
		"website": null
	},
	{
		"company": "Silverado Custom Homes",
		"link": "/member_directory/33172",
		"street": "11 Tahoe Crt.",
		"city": "North York, ON",
		"postCode": "M3B 3M6",
		"contact": "Jeff Silverberg",
		"phone": "(416) 823-7018",
		"website": "http://silveradocustomhomes.com"
	},
	{
		"company": "Silvergate Homes",
		"link": "/member_directory/35335",
		"street": "144 Dunkirk Rd..",
		"city": "St. Catherines, ON",
		"postCode": "L2P 3H6",
		"contact": "Kelly Anderson",
		"phone": "(905) 680-6000",
		"website": "http://silvergatehomes.com"
	},
	{
		"company": "Silvergate Homes Ltd.",
		"link": "/member_directory/35949",
		"street": "144 Dunkirk Rd.",
		"city": "St. Catharines, ON",
		"postCode": "L2P 3H6",
		"contact": "Kelly Anderson",
		"phone": "(905) 680-6000",
		"website": "http://silvergatehomes.com"
	},
	{
		"company": "Silverline Group",
		"link": "/member_directory/37005",
		"street": "144 Dunkirk Rd",
		"city": "St Catharines, ON",
		"postCode": "L2P 3H6",
		"contact": "Nick Ventrone",
		"phone": "905-680-6002",
		"website": null
	},
	{
		"company": "Silverline Group Inc.",
		"link": "/member_directory/36013",
		"street": "144 Dunkirk Rd.",
		"city": "St. Catharines, ON",
		"postCode": "L2P 3H6",
		"contact": "Nick Ventrone",
		"phone": "(905) 680-6002",
		"website": "http://silverlinegroupinc.com"
	},
	{
		"company": "Silverline Group Inc.",
		"link": "/member_directory/35581",
		"street": "144 Dunkirk Rd.",
		"city": "St. Catharines, ON",
		"postCode": "L2P 3H6",
		"contact": "Gary Ladouceur",
		"phone": "(905) 680-6002",
		"website": "http://silverlinegroupinc.com"
	},
	{
		"company": "Silverpoint Fine Homes Inc.",
		"link": "/member_directory/33173",
		"street": "25 Scarsdale Rd. Unit 7",
		"city": "Toronto, ON",
		"postCode": "M3B 2R2",
		"contact": "Stefano Tognarelli",
		"phone": "(416) 995-4119",
		"website": "http://silverpointfinehomes.com"
	},
	{
		"company": "Silverstone Developments Inc.",
		"link": "/member_directory/35336",
		"street": "225 Lakeside Ave.",
		"city": "Burlington, ON",
		"postCode": "L7N 1Y4",
		"contact": "Neil Cairns",
		"phone": "(905) 570-3360",
		"website": "http://silverstonehomes.ca"
	},
	{
		"company": "Silvestri Investments",
		"link": "/member_directory/35337",
		"street": "21 King St W., Ste 920",
		"city": "Hamilton, ON",
		"postCode": "L8P 4W7",
		"contact": "Paul Silvestri",
		"phone": "(905) 521-1144",
		"website": "http://silvestri.ca"
	},
	{
		"company": "Simcoe Building Centre",
		"link": "/member_directory/36696",
		"street": "PO Box 82",
		"city": "North Bay, ON",
		"postCode": "P1B 8G8",
		"contact": "Dan Daoust",
		"phone": "(705) 791-1557",
		"website": "http://simcoesolutions.com"
	},
	{
		"company": "Simcoe Building/Simcoe Masonry Centres",
		"link": "/member_directory/36458",
		"street": "140 Ferndale Dr.",
		"city": "Barrie, ON",
		"postCode": "L4N 9W1",
		"contact": "Tom Robinson",
		"phone": "(705) 728-1773",
		"website": null
	},
	{
		"company": "Simcoe Concrete Forming",
		"link": "/member_directory/36476",
		"street": "698 Huronia Rd.",
		"city": "Barrie, ON",
		"postCode": "L4N 6C6",
		"contact": "Michel Morin",
		"phone": "(705) 725-9889",
		"website": null
	},
	{
		"company": "Simcoe Lighting",
		"link": "/member_directory/35226",
		"street": "625 W. St., W., R.R. #6",
		"city": "Simcoe, ON",
		"postCode": "N3Y 4K5",
		"contact": "Violet Brown",
		"phone": "(519) 428-9927",
		"website": null
	},
	{
		"company": "Simcoe Windows, Doors, Glass and More",
		"link": "/member_directory/35227",
		"street": "40 Park Rd., Unit 3",
		"city": "Simcoe, ON",
		"postCode": "N3Y 4R2",
		"contact": "Alan Werner",
		"phone": "(519) 428-9215",
		"website": null
	},
	{
		"company": "Simple Solutions Design & Build Contractors Inc.",
		"link": "/member_directory/33697",
		"street": "P.O. Box 113",
		"city": "Caledon Village, ON",
		"postCode": "L7K 3L3",
		"contact": "Domenic Malatesta",
		"phone": "(905) 799-9199",
		"website": "http://simplesolutionsrenovations.ca"
	},
	{
		"company": "SIMPLY By Design Inc.",
		"link": "/member_directory/35763",
		"street": "316 McNay St.",
		"city": "London, ON",
		"postCode": "N5Y 1L9",
		"contact": "Dan Renzella",
		"phone": "(519) 878-1864",
		"website": "http://simplybydesign.ca"
	},
	{
		"company": "Simply Divine Designs",
		"link": "/member_directory/36596",
		"street": "116 Downie St Suite 2",
		"city": "Stratford,, ON",
		"postCode": "N5A 1X1",
		"contact": "Heather Galloway",
		"phone": "(519) 305-3375",
		"website": null
	},
	{
		"company": "Simply Green Homes Services Inc.",
		"link": "/member_directory/33488",
		"street": "200 Yorkland Blvd. Ste. 1201",
		"city": "Toronto, ON",
		"postCode": "M2J 5C2",
		"contact": "Lawrence Krimker",
		"phone": "1-800-764-5138",
		"website": "http://mysimplygreen.com"
	},
	{
		"company": "Singhko Incorporated",
		"link": "/member_directory/34770",
		"street": "174 Colonnade Rd. S. Unit 8",
		"city": "Ottawa, ON",
		"postCode": "K2E 7J5",
		"contact": "Gary Singh",
		"phone": "(613) 291-4810",
		"website": "http://singhko.com"
	},
	{
		"company": "SiteLine Group",
		"link": "/member_directory/33174",
		"street": "20 Cachet Woods Crt. Ste. 1",
		"city": "Markham, ON",
		"postCode": "L6C 3G1",
		"contact": "Josh Silber",
		"phone": "(905) 927-9100",
		"website": "http://sitelinegroup.com"
	},
	{
		"company": "SJN + Associates Landscape Architects Inc.",
		"link": "/member_directory/34067",
		"street": "78 Alameda Ave.",
		"city": "Toronto, ON",
		"postCode": "M6C 3W5",
		"contact": "Sandra Neal",
		"phone": "(647) 478-4270",
		"website": "http://sjnassociatesinc.com"
	},
	{
		"company": "Skale Developments Inc.",
		"link": "/member_directory/33170",
		"street": "547 Eglinton Ave. E.",
		"city": "Toronto, ON",
		"postCode": "M4P 1N7",
		"contact": "Armaan Salek",
		"phone": "(416) 357-7555",
		"website": null
	},
	{
		"company": "Skelton, Brumwell & Associates Inc.",
		"link": "/member_directory/34068",
		"street": "93 Bell Farm Rd. Ste. 107",
		"city": "Barrie, ON",
		"postCode": "L4M 5G1",
		"contact": "Gary Bell",
		"phone": "(705) 726-1141",
		"website": "http://skeltonbrumwell.ca"
	},
	{
		"company": "Sky Homes Corporation",
		"link": "/member_directory/33175",
		"street": "3300 Steeles Ave. W. Ste. 9",
		"city": "Concord, ON",
		"postCode": "L4K 2Y4",
		"contact": "Art Saccoccia",
		"phone": "(416) 663-9334",
		"website": "http://skyhomes.ca"
	},
	{
		"company": "Sky Kitchen Cabinets Ltd.",
		"link": "/member_directory/33489",
		"street": "1193 Lorimar Dr.",
		"city": "Mississauga, ON",
		"postCode": "L5S 1M9",
		"contact": "Sukh Sahota",
		"phone": "(905) 678-3434",
		"website": "http://skykitchen.ca"
	},
	{
		"company": "Skyline International Development Inc.",
		"link": "/member_directory/33176",
		"street": "90 Eglinton Ave. E. Ste. 800",
		"city": "Toronto, ON",
		"postCode": "M4P 2Y3",
		"contact": "Paul Mondell",
		"phone": "(416) 368-2565",
		"website": "http://skylineinvestments.com"
	},
	{
		"company": "Sllvergate Homes",
		"link": "/member_directory/37023",
		"street": "144 Dunkirk Rd",
		"city": "St. Catharines, ON",
		"postCode": "L2P 3H6",
		"contact": "Kelly Anderson",
		"phone": "905 680 6000",
		"website": null
	},
	{
		"company": "Sloan Insulations",
		"link": "/member_directory/36364",
		"street": "1686 Trinity Cres.",
		"city": "Sarnia, ON",
		"postCode": "N7S 5K2",
		"contact": "Kelly Sloan",
		"phone": "(519) 541-1001",
		"website": "http://sloaninsulations.ca/en/"
	},
	{
		"company": "Sloan Stone Design",
		"link": "/member_directory/35865",
		"street": "3392 Wonderland Rd. S., Bldg 2 Unit 2 &amp; 3",
		"city": "London, ON",
		"postCode": "N6L 1A8",
		"contact": "Derek Sloan",
		"phone": "(519) 652-3100",
		"website": "http://slonestonedesign.coms.com"
	},
	{
		"company": "Sloot Construction",
		"link": "/member_directory/35092",
		"street": "599 Arkell Rd.",
		"city": "Arkell, ON",
		"postCode": "N0B 1C0",
		"contact": "John Sloot",
		"phone": "(519) 836-6142",
		"website": null
	},
	{
		"company": "Slotegraaf Construction",
		"link": "/member_directory/35093",
		"street": "260 Sheldon Dr., Unit A",
		"city": "Cambridge, ON",
		"postCode": "N1T 1A8",
		"contact": "Deb Slotegraaf",
		"phone": "(519) 620-2299",
		"website": null
	},
	{
		"company": "Slotegraaf Construction Inc.",
		"link": "/member_directory/36779",
		"street": "221 Shearson Cres",
		"city": "Cambridge, ON",
		"postCode": "N1T 1J5",
		"contact": "Dave Slotegraaf",
		"phone": "(519) 620-2299",
		"website": "http://slotegraafconstruction.com"
	},
	{
		"company": "SLV Homes",
		"link": "/member_directory/36639",
		"street": "218 John St.",
		"city": "Sudbury, ON",
		"postCode": "P3E 1P6",
		"contact": "Louie Zagardo",
		"phone": "(705) 673 3133",
		"website": "http://slvhomes.ca"
	},
	{
		"company": "Smart Green Technologies Inc.",
		"link": "/member_directory/33490",
		"street": "80 Main St. W.",
		"city": "Huntsville, ON",
		"postCode": "P1H 1B4",
		"contact": "Janet Baker",
		"phone": "(705) 789-7851",
		"website": "http://smartgreentechnologies.com"
	},
	{
		"company": "Smart Home Comfort",
		"link": "/member_directory/36871",
		"street": "125 Black Bridge Rd. Suite 8",
		"city": "Cambridge, ON",
		"postCode": "N3C 0G3",
		"contact": "Faisal Islam",
		"phone": "(519) 729-5567",
		"website": "http://smarthomecomfort.ca"
	},
	{
		"company": "Smart REIT",
		"link": "/member_directory/37097",
		"street": "700 Applewood Cres",
		"city": "Vaughan, ON",
		"postCode": "L4K 5X3",
		"contact": "Sandra Kaiser",
		"phone": "905-760-6200",
		"website": null
	},
	{
		"company": "Smart Touch Interactive",
		"link": "/member_directory/34069",
		"street": "4833 Spicewood Springs Rd. Ste. 102",
		"city": "Austin",
		"postCode": "78759",
		"contact": "Alan Daniel",
		"phone": "(214) 662-4008",
		"website": "http://smarttouchinteractive.com"
	},
	{
		"company": "Smith & Barber - Sculpture Atelier Inc",
		"link": "/member_directory/35046",
		"street": "2563A Edinburgh Place",
		"city": "Ottawa, ON",
		"postCode": "K1B 5M1",
		"contact": "Philippe Smith",
		"phone": "(613) 322-8806",
		"website": "http://smithandbarber.ca"
	},
	{
		"company": "Smith Concrete Forming Ltd.",
		"link": "/member_directory/34648",
		"street": "685 Ridell Road Unit 106",
		"city": "Orangeville, ON",
		"postCode": "L9W 4Z5",
		"contact": "Jane Hickey",
		"phone": "519-941-0707",
		"website": null
	},
	{
		"company": "Smith Valeriote",
		"link": "/member_directory/35130",
		"street": "105 Silvercreek Pkwy N. Ste. 100",
		"city": "Guelph, ON",
		"postCode": "N1H 6S4",
		"contact": "Rob Mullin",
		"phone": "(519) 837-2100",
		"website": null
	},
	{
		"company": "SNR Contracting Ltd.",
		"link": "/member_directory/33698",
		"street": "19-13085 Yonge St. Ste. 216",
		"city": "Richmond Hill, ON",
		"postCode": "L4E 0K2",
		"contact": "H. Saffar",
		"phone": "(647) 866-7859",
		"website": "http://snrcontracting.ca"
	},
	{
		"company": "SOFA: Source of Furniture + Accessories",
		"link": "/member_directory/33491",
		"street": "6900 Airport Rd. Ste. 120",
		"city": "Mississauga, ON",
		"postCode": "L4V 1E8",
		"contact": "Linda Kafka",
		"phone": "(905) 678-5626",
		"website": "http://visitsofa.com"
	},
	{
		"company": "Soil-Mat Engineers & Consultants Ltd.",
		"link": "/member_directory/35544",
		"street": "130 Lancing Dr.",
		"city": "Hamilton, ON",
		"postCode": "L8W 3A1",
		"contact": "John Monkman",
		"phone": "(905) 318-7440",
		"website": null
	},
	{
		"company": "Solar Team",
		"link": "/member_directory/35204",
		"street": "130 Bethel Church Rd., RR. #2",
		"city": "Brantford, ON",
		"postCode": "L0R 1T0",
		"contact": "Ken Burns",
		"phone": "(519) 770-5300",
		"website": null
	},
	{
		"company": "Soldi Real Estate Consulting Inc.",
		"link": "/member_directory/37085",
		"street": "2100 Sherobee Road Suite 1217",
		"city": "Mississauga, ON",
		"postCode": "L5A 4C5",
		"contact": "Roy Hobbs",
		"phone": "647-272-9759",
		"website": null
	},
	{
		"company": "Solmar Development Corp.",
		"link": "/member_directory/35950",
		"street": "122 Romina Dr.",
		"city": "Concord, ON",
		"postCode": "L4K 4Z7",
		"contact": "Giuseppe Paolicelli",
		"phone": "(905) 660-9222",
		"website": "http://solmar.ca"
	},
	{
		"company": "Solmar Development Corp.",
		"link": "/member_directory/33177",
		"street": "122 Romina Dr.",
		"city": "Concord, ON",
		"postCode": "L4K 4Z7",
		"contact": "Giuseppe Paolicelli",
		"phone": "(905) 660-9222",
		"website": "http://solmar.ca"
	},
	{
		"company": "Solo Electric Ltd.",
		"link": "/member_directory/34268",
		"street": "13205 McLaughlin Rd.",
		"city": "Caledon, ON",
		"postCode": "L7C 2B1",
		"contact": "Sandy Ragno",
		"phone": "(416) 984-7656",
		"website": "http://soloelectric.ca"
	},
	{
		"company": "Soloway, Wright LLP",
		"link": "/member_directory/34862",
		"street": "700 - 427 Laurier Ave. W.",
		"city": "Ottawa, ON",
		"postCode": "K1R 7Y2",
		"contact": "Ursula Melinz",
		"phone": "(613) 782-3214",
		"website": "http://solowaywright.com"
	},
	{
		"company": "Solum Developments Ltd",
		"link": "/member_directory/33178",
		"street": "40 Vogell Rd. Ste. 13",
		"city": "Richmond Hill, ON",
		"postCode": "L4B 3N6",
		"contact": "Abdullah Chutani",
		"phone": "(905) 237-8033",
		"website": "http://solum.ca"
	},
	{
		"company": "Somerlyn Trim & Doors Inc.",
		"link": "/member_directory/33492",
		"street": "56 Romina Dr.",
		"city": "Vaughan, ON",
		"postCode": "L4K 4Z7",
		"contact": "Peter Gallo",
		"phone": "(905) 669-0838",
		"website": null
	},
	{
		"company": "Somerville Custom Homes",
		"link": "/member_directory/35717",
		"street": "751 Woodcrest Blvd.",
		"city": "London, ON",
		"postCode": "N6K 1P8",
		"contact": "Lynne Mallette",
		"phone": "(519) 860-4686",
		"website": "http://SomervilleCustomHomes.com"
	},
	{
		"company": "Sonoma Homes",
		"link": "/member_directory/35338",
		"street": "1059 Upper James St. Unit #210",
		"city": "Hamilton, ON",
		"postCode": "L9C 3A6",
		"contact": "Carmen Chiaravalle",
		"phone": "(905) 538-2617",
		"website": "http://sonomahomes.ca"
	},
	{
		"company": "Sorbara Development Group",
		"link": "/member_directory/35094",
		"street": "3700 Steeles Ave W Ste 800",
		"city": "Vaughan, ON",
		"postCode": "L4L 8M9",
		"contact": "Greg Tanzola",
		"phone": "(905) 850-6154",
		"website": null
	},
	{
		"company": "Sorbara Development Group",
		"link": "/member_directory/33179",
		"street": "3700 Steeles Ave. W. Ste. 800",
		"city": "Woodbridge, ON",
		"postCode": "L4L 8M9",
		"contact": "Greg Tanzola",
		"phone": "(905) 850-8508",
		"website": "http://sorbaradevelopmentgroup.com"
	},
	{
		"company": "Sorbara, Schumacher, McCann LLP",
		"link": "/member_directory/36872",
		"street": "31 Union St. E.",
		"city": "Waterloo, ON",
		"postCode": "N2J 1B8",
		"contact": "Seth Jutzi",
		"phone": "(519) 576-0460",
		"website": "http://sorbaralaw.com"
	},
	{
		"company": "Sosna Inc.",
		"link": "/member_directory/33699",
		"street": "9251 Yonge St. Unit 8-322",
		"city": "Richmond Hill, ON",
		"postCode": "L4C 9T3",
		"contact": "Andrei Sosnovsky",
		"phone": "(416) 452-5259",
		"website": "http://sosna.ca"
	},
	{
		"company": "Source Cable Ltd.",
		"link": "/member_directory/35445",
		"street": "1074 Upper Wellington St.",
		"city": "Hamilton, ON",
		"postCode": "L9A 3S6",
		"contact": "Myrna Bontje",
		"phone": "(905) 574-6464",
		"website": "http://sourcecable.ca"
	},
	{
		"company": "South Light Design/Build Inc.",
		"link": "/member_directory/33700",
		"street": "198 Ashworth Ave.",
		"city": "Toronto, ON",
		"postCode": "M6G 2A7",
		"contact": "Jeremy Hudspith",
		"phone": "(416) 457-4640",
		"website": "http://southlight.ca"
	},
	{
		"company": "Southam Design",
		"link": "/member_directory/34863",
		"street": "950 Gladstone Ave., Suite 110",
		"city": "Ottawa, ON",
		"postCode": "K1Y 3E6",
		"contact": "Penny Southam",
		"phone": "(613) 728-2227",
		"website": "http://southamdesign.com"
	},
	{
		"company": "Southwinds Development Co Inc",
		"link": "/member_directory/37173",
		"street": "9952 Glendon Drive",
		"city": "Komoka, ON",
		"postCode": "N0L 1R0",
		"contact": "Stacey Graham",
		"phone": "519-657-2555",
		"website": null
	},
	{
		"company": "Space Age Shelving",
		"link": "/member_directory/35155",
		"street": "#11-50 Goebel Ave",
		"city": "Cambridge, ON",
		"postCode": "N3C 1Z1",
		"contact": "Jamie Kennedy",
		"phone": "(519) 651-2555",
		"website": null
	},
	{
		"company": "Space Converters Ltd.",
		"link": "/member_directory/33701",
		"street": "7172 Lowville Heights",
		"city": "Mississauga, ON",
		"postCode": "L5N 8M2",
		"contact": "Brian Bien",
		"phone": "(416) 219-5533",
		"website": "http://spaceconverters.com"
	},
	{
		"company": "spacesolutions.ca",
		"link": "/member_directory/33493",
		"street": "660 Eglinton Ave. E.",
		"city": "Toronto, ON",
		"postCode": "M4G 2K2",
		"contact": "Barb Larocque",
		"phone": "(416) 322-5575",
		"website": "http://spacesolutions.ca"
	},
	{
		"company": "Spadafora Drywall Services",
		"link": "/member_directory/35582",
		"street": "P. O. Box 359",
		"city": "Mount Hope, ON",
		"postCode": "L0R 1W0",
		"contact": "Leo Spadafora",
		"phone": "(905) 679-4288",
		"website": null
	},
	{
		"company": "Spalding, K. Construction Inc.",
		"link": "/member_directory/33702",
		"street": "1180 Kerrisdale Blvd. Unit 4",
		"city": "Newmarket, ON",
		"postCode": "L3Y 8Z9",
		"contact": "Ken Spalding",
		"phone": "(905) 898-5503",
		"website": null
	},
	{
		"company": "Spallacci Group",
		"link": "/member_directory/35339",
		"street": "85 Lancing Dr., Unit Q",
		"city": "Hamilton, ON",
		"postCode": "L8W 2Z9",
		"contact": "Adrian Spallacci",
		"phone": "(905) 389-6421",
		"website": "http://spallaccigroup.com"
	},
	{
		"company": "Span-Co General Contracting Services Ltd",
		"link": "/member_directory/33703",
		"street": "254 Denison St.",
		"city": "Markham, ON",
		"postCode": "L3R 1B6",
		"contact": "Clayton Spanton",
		"phone": "(905) 475-6282",
		"website": "http://spanco.ca"
	},
	{
		"company": "Sparta Homes Inc.",
		"link": "/member_directory/34483",
		"street": "2091 Liverpool Rd.",
		"city": "Pickering, ON",
		"postCode": "L1X 1E3",
		"contact": "Nick Tserotas",
		"phone": "(905) 420-9663",
		"website": null
	},
	{
		"company": "Spearhead Property Management Ltd.",
		"link": "/member_directory/34070",
		"street": "84 Milton St.",
		"city": "Toronto, ON",
		"postCode": "M8Y 2Y2",
		"contact": "Domenic Nesci",
		"phone": "1-800-914-7510",
		"website": "http://spearhead.to"
	},
	{
		"company": "Spectrum Brands HHI",
		"link": "/member_directory/33494",
		"street": "111 Brunel Rd. Ste. 110",
		"city": "Mississauga, ON",
		"postCode": "L4Z 1X3",
		"contact": "Aaron Beattie",
		"phone": "(905) 624-9488",
		"website": "http://spectrumhhi.com"
	},
	{
		"company": "Spectrum HHI",
		"link": "/member_directory/35866",
		"street": "111 Brunel Rd. Suite 110",
		"city": "Mississauga, ON",
		"postCode": "L4Z 1X3",
		"contact": "Ryan Bradley",
		"phone": "(647) 273-4330",
		"website": "http://bdhhi.com"
	},
	{
		"company": "Spectrum HHI Brands",
		"link": "/member_directory/35365",
		"street": "111 Brunel Rd., Suite 110",
		"city": "Mississauga, ON",
		"postCode": "L4Z 1X3",
		"contact": "Laura Tremblay",
		"phone": "(905) 545-3217",
		"website": null
	},
	{
		"company": "Spectrum Mechanical (2009) Ltd.",
		"link": "/member_directory/34269",
		"street": "499 Edgeley Blvd. Unit 10",
		"city": "Concord, ON",
		"postCode": "L4K 4H3",
		"contact": "Sandro Lafarciola",
		"phone": "(905) 760-0067",
		"website": "http://spectrumhvac.ca"
	},
	{
		"company": "Spectrum Realty Services Inc., Brokerage",
		"link": "/member_directory/34071",
		"street": "8400 Jane St. Unit 9",
		"city": "Vaughan, ON",
		"postCode": "L4K 4L8",
		"contact": "Marco Alberga",
		"phone": "(416) 736-6500",
		"website": "http://spectrumrealtyservices.com"
	},
	{
		"company": "Spotlight Home & Lifestyle Inc.",
		"link": "/member_directory/36097",
		"street": "819 Wad Street Unit 2B",
		"city": "Bridgenorth, ON",
		"postCode": "K0L 1J0",
		"contact": "Garnet Northey",
		"phone": "(705) 657-9777",
		"website": "http://spotlighthomeandlifestyle.com"
	},
	{
		"company": "Spring Town Homes",
		"link": "/member_directory/33180",
		"street": "1415 Bonhill Rd. Unit 1",
		"city": "Mississauga, ON",
		"postCode": "L5T 1R2",
		"contact": "Tony DiPede",
		"phone": "(905) 670-6666",
		"website": "http://springtown.com"
	},
	{
		"company": "Springcress Properties Inc.",
		"link": "/member_directory/34713",
		"street": "200-6 Gurdwara Rd.",
		"city": "Ottawa, ON",
		"postCode": "K2E 8A3",
		"contact": "David Spillenaar",
		"phone": "(613) 225-6000",
		"website": "http://springcress.com"
	},
	{
		"company": "Spruce Crossing Developments ",
		"link": "/member_directory/35718",
		"street": "P.O. Box 8118",
		"city": "London, ON",
		"postCode": "N6G 4X1",
		"contact": "John Mathews",
		"phone": "(519) 435-0005",
		"website": "http://sprucecrossing.com"
	},
	{
		"company": "Spruce Tree Resorts Corp.",
		"link": "/member_directory/33181",
		"street": "5300 Yonge St. Ste. 205",
		"city": "Toronto, ON",
		"postCode": "M2N 5R2",
		"contact": "Morris Fischtein",
		"phone": "(416) 224-1790",
		"website": null
	},
	{
		"company": "SR Contracting Inc.",
		"link": "/member_directory/33704",
		"street": "36 Sultana Ave.",
		"city": "Toronto, ON",
		"postCode": "M6A 1T1",
		"contact": "Sam Regan",
		"phone": "(416) 827-6624",
		"website": "http://srcontracting.ca"
	},
	{
		"company": "St. Clair Fence and Deck",
		"link": "/member_directory/36365",
		"street": "1702 London Rd.",
		"city": "Sarnia, ON",
		"postCode": "N7T 7H2",
		"contact": "Jeff Cox",
		"phone": "(519) 542-1261",
		"website": "http://decksbystclair.com/index.php"
	},
	{
		"company": "St. Clair Paint and Paper",
		"link": "/member_directory/35228",
		"street": "95 Queensway W.",
		"city": "Simcoe, ON",
		"postCode": "N3Y 2M8",
		"contact": "Mary Nolles",
		"phone": "(519) 426-6109",
		"website": null
	},
	{
		"company": "St. Lawrence Pools",
		"link": "/member_directory/36300",
		"street": "84 Cannifton Rd. N.  P.O. Box 190",
		"city": "Belleville, ON",
		"postCode": "K8N 5H5",
		"contact": "Marty Ivanic",
		"phone": "(613) 962-2545",
		"website": null
	},
	{
		"company": "St. Marys Building Centre",
		"link": "/member_directory/36597",
		"street": "925 Queen St. E., R.R. #2",
		"city": "St. Marys, ON",
		"postCode": "N4X 1C5",
		"contact": "George Chellew",
		"phone": "(519) 284-3380",
		"website": null
	},
	{
		"company": "St. Thomas Energy Services",
		"link": "/member_directory/36502",
		"street": "135 Edward St.",
		"city": "St. Thomas, ON",
		"postCode": "N5P 4A8",
		"contact": "Duane Orth",
		"phone": "(519) 631-5550",
		"website": "http://sttenergy.com"
	},
	{
		"company": "St. Thomas Rent-All Sales & Service",
		"link": "/member_directory/36518",
		"street": "1241 Talbot St.",
		"city": "St. Thomas, ON",
		"postCode": "N5P 1G8",
		"contact": "Jeff Campbell",
		"phone": "(519) 631-5450",
		"website": "http://stthomasrentall.com"
	},
	{
		"company": "Stafford Homes Ltd.",
		"link": "/member_directory/33182",
		"street": "55 St. Clair Ave. W. Ste. 408",
		"city": "Toronto, ON",
		"postCode": "M4V 2Y7",
		"contact": "Gary Goldman",
		"phone": "(416) 461-6100",
		"website": "http://staffordhomes.ca"
	},
	{
		"company": "Staikos Homes Ltd.",
		"link": "/member_directory/36186",
		"street": "12 Applewood Crt.",
		"city": "Trenton, ON",
		"postCode": "K8V 6J4",
		"contact": "Nick Staikos",
		"phone": "(613) 967-6560",
		"website": "http://staikoshomes.com"
	},
	{
		"company": "StairWorld ",
		"link": "/member_directory/35047",
		"street": "3228 Moodie Dr. P.O. Box 11401",
		"city": "Ottawa, ON",
		"postCode": "K2H 7V1",
		"contact": "Dany Wester",
		"phone": "(613) 838-6111",
		"website": "http://stairworld.com"
	},
	{
		"company": "Stanco Mechanical Ltd.",
		"link": "/member_directory/35048",
		"street": "1017 Serenity Ave.",
		"city": "Orleans, ON",
		"postCode": "K4A 4H4",
		"contact": "Jamie Stansel",
		"phone": "(613) 834-7565",
		"website": null
	},
	{
		"company": "Standard Homes",
		"link": "/member_directory/35185",
		"street": "31 Mann Ave.",
		"city": "Simcoe, ON",
		"postCode": "N3Y 5J3",
		"contact": "Habib Bavaghar",
		"phone": "(519) 909-9977",
		"website": null
	},
	{
		"company": "Stanford Homes Ltd.",
		"link": "/member_directory/33183",
		"street": "40 Vogel Rd. Ste. 1",
		"city": "Richmond Hill, ON",
		"postCode": "L4B 3N6",
		"contact": "Mark Berens",
		"phone": "(905) 780-9610",
		"website": "http://stanfordhomes.ca"
	},
	{
		"company": "Stanley & Schoel Enterprises Ltd.",
		"link": "/member_directory/35764",
		"street": "1502 Howland Ave.",
		"city": "London, ON",
		"postCode": "N5V 1W7",
		"contact": "Gary Schoel",
		"phone": "(519) 659-8744",
		"website": null
	},
	{
		"company": "Stanley Black & Decker, Inc.",
		"link": "/member_directory/35545",
		"street": "111 Brunel Rd., Suite 110",
		"city": "Mississauga, ON",
		"postCode": "L4Z 1X3",
		"contact": "Kathy Geffros",
		"phone": "(905) 545-3217",
		"website": "http://stanleyblackanddecker.com"
	},
	{
		"company": "Stantec Consulting Ltd.",
		"link": "/member_directory/36873",
		"street": "100-300 Hagey Blvd",
		"city": "Waterloo, ON",
		"postCode": "N2L 0A4",
		"contact": "Kevin Brousseau",
		"phone": "(519) 579-4410",
		"website": "http://stantec.com"
	},
	{
		"company": "Stantec Consulting Ltd.",
		"link": "/member_directory/34072",
		"street": "675 Cochrane Dr. W. Tower Ste. 300",
		"city": "Markham, ON",
		"postCode": "L3R 0B8",
		"contact": "Nathan Jamieson",
		"phone": "(905) 944-7777",
		"website": "http://stantec.com"
	},
	{
		"company": "Stantec Consulting Ltd.",
		"link": "/member_directory/34864",
		"street": "105-2625 Queensview Dr Suite 400",
		"city": "Ottawa, ON",
		"postCode": "K2B 8K2",
		"contact": "Peter Moroz",
		"phone": "(613) 724-4082",
		"website": "http://stantec.com"
	},
	{
		"company": "Stantec Consulting Ltd.",
		"link": "/member_directory/34360",
		"street": "49 Frederick St.",
		"city": "Kitchener, ON",
		"postCode": "N2H 6M7",
		"contact": "Douglas Stewart MCIP RPP",
		"phone": "(519) 585-7351",
		"website": "http://stantec.com"
	},
	{
		"company": "Stantec Consulting Ltd.",
		"link": "/member_directory/35131",
		"street": "49 Frederick St.",
		"city": "Kitchener, ON",
		"postCode": "N2H 6M7",
		"contact": "Kevin Brousseau",
		"phone": "(519) 585-7417",
		"website": null
	},
	{
		"company": "Stanton Renaissance",
		"link": "/member_directory/35340",
		"street": "93 Skyway Ave. #104",
		"city": "Toronto, ON",
		"postCode": "M9W 6N6",
		"contact": "Louie Santaguida",
		"phone": "(416) 201-8400",
		"website": "http://stantonrenaissance.com"
	},
	{
		"company": "Stanton Renaissance",
		"link": "/member_directory/33184",
		"street": "93 Skyway Ave. Ste. 104",
		"city": "Toronto, ON",
		"postCode": "M9W 6N6",
		"contact": "Luigi Santaguida",
		"phone": "(416) 201-8400",
		"website": "http://stantonrenaissance.com"
	},
	{
		"company": "Star One Motors O/A Mercedes-Benz Durham",
		"link": "/member_directory/34581",
		"street": "250 Thickson Rd. S",
		"city": "Whitby, ON",
		"postCode": "L1N 9Z1",
		"contact": "David Poon",
		"phone": "(905) 666-8805",
		"website": "http://mbdvans.com"
	},
	{
		"company": "Starboard Communications",
		"link": "/member_directory/36219",
		"street": "497 Dundas St. W.",
		"city": "Belleville, ON",
		"postCode": "K8P 1P6",
		"contact": "Darren Matassa",
		"phone": "(613) 966-0955",
		"website": null
	},
	{
		"company": "Starlane Home Corporation",
		"link": "/member_directory/33185",
		"street": "8600 Dufferin St.",
		"city": "Vaughan, ON",
		"postCode": "L4K 5P5",
		"contact": "Mauro Baldassarra",
		"phone": "(416) 736-8854",
		"website": "http://starlanehomes.com"
	},
	{
		"company": "Starward Homes",
		"link": "/member_directory/35951",
		"street": "2000 Garth St., Suite 201",
		"city": "Hamilton, ON",
		"postCode": "L9B 0C1",
		"contact": "Brandon Cambpell",
		"phone": "(905) 667-8800",
		"website": "http://starwardhomes.com"
	},
	{
		"company": "Starward Homes Ltd.",
		"link": "/member_directory/35341",
		"street": "2000 Garth St. Suite 201",
		"city": "Hamilton, ON",
		"postCode": "L9B 0C1",
		"contact": "Brandon Campbell",
		"phone": "(905) 667-8800",
		"website": "http://starwardhomes.com"
	},
	{
		"company": "State Park Homes Ltd.",
		"link": "/member_directory/33186",
		"street": "7501 Keele St. Ste. 100",
		"city": "Vaughan, ON",
		"postCode": "L4K 1Y2",
		"contact": "Michael Bratty",
		"phone": "(905) 761-8200",
		"website": null
	},
	{
		"company": "State Window Corporation",
		"link": "/member_directory/33495",
		"street": "20 Corrine Crt.",
		"city": "Concord, ON",
		"postCode": "L4K 5A4",
		"contact": "Christopher Liberta",
		"phone": "(416) 646-1421",
		"website": "http://statewindowcorp.com"
	},
	{
		"company": "Stateview Homes",
		"link": "/member_directory/33187",
		"street": "410 Chrislea Rd. Unit 16",
		"city": "Woodbridge, ON",
		"postCode": "L4L 8B5",
		"contact": "Tina Taurasi",
		"phone": "(905) 851-1849",
		"website": "http://stateviewhomes.com"
	},
	{
		"company": "Steel Tile Company",
		"link": "/member_directory/36477",
		"street": "3487 Thomas St.",
		"city": "Innisfil, ON",
		"postCode": "L9S 3W4",
		"contact": "Markku Heino",
		"phone": "(705) 436-1723",
		"website": null
	},
	{
		"company": "Steeles-West Realty Inc.",
		"link": "/member_directory/34073",
		"street": "3800 Steeles Ave. W. Ste. 400",
		"city": "Woodbridge, ON",
		"postCode": "L4L 4G9",
		"contact": "Roy Nicolucci",
		"phone": "(905) 264-1323",
		"website": null
	},
	{
		"company": "Stellar Homes Inc.",
		"link": "/member_directory/33188",
		"street": "21 Wellington St. E. Ste. 202",
		"city": "Aurora, ON",
		"postCode": "L4G 1H4",
		"contact": "Vito Froio",
		"phone": "(905) 726-7778",
		"website": "http://stellarhomesinc.ca"
	},
	{
		"company": "Sterling Realty (Niagara) Inc",
		"link": "/member_directory/35974",
		"street": "17 Dunbar Cres.",
		"city": "St. Catharines, ON",
		"postCode": "L2S 1A6",
		"contact": "John Delisio",
		"phone": "(905) 687-3342",
		"website": "http://coylecreek.com"
	},
	{
		"company": "Sterling Silver Development Corporation",
		"link": "/member_directory/33189",
		"street": "53 The Links Rd.",
		"city": "Toronto, ON",
		"postCode": "M2P 1T7",
		"contact": "Ken Kirsh",
		"phone": "(416) 226-5100",
		"website": null
	},
	{
		"company": "Steve Snider Construction Inc.",
		"link": "/member_directory/34484",
		"street": "1954 Durham Rd. 6, R.R. #5",
		"city": "Sunderland, ON",
		"postCode": "L0C 1H0",
		"contact": "Stephen Snider",
		"phone": "(905) 985-8201",
		"website": "http://stevesnider.ca"
	},
	{
		"company": "Steven J. Szasz Construction",
		"link": "/member_directory/34341",
		"street": "29 Marigold St.",
		"city": "Brantford, ON",
		"postCode": "N3R 5W7",
		"contact": "Steven Szasz",
		"phone": "(519) 753-2303",
		"website": null
	},
	{
		"company": "Stevensons LLP",
		"link": "/member_directory/34074",
		"street": "7501 Keele St. Ste. 200",
		"city": "Vaughan, ON",
		"postCode": "L4K 1Y2",
		"contact": "Richard Macklin",
		"phone": "(905) 760-2794",
		"website": "http://stevensonlaw.net"
	},
	{
		"company": "Stikeman Elliott LLP",
		"link": "/member_directory/34075",
		"street": "5300 Commerce Crt. W. 199 Bay St.",
		"city": "Toronto, ON",
		"postCode": "M5L 1B9",
		"contact": "Jim Harbell",
		"phone": "(416) 869-5690",
		"website": "http://stikeman.com"
	},
	{
		"company": "Stinson Builders Ltd.",
		"link": "/member_directory/36187",
		"street": "360 County Rd. 3",
		"city": "Belleville, ON",
		"postCode": "K8N 4Z1",
		"contact": "Paul Stinson",
		"phone": "(613) 962-6626",
		"website": "http://stinsonbuilders.com"
	},
	{
		"company": "Stinson Realty Corp.",
		"link": "/member_directory/35446",
		"street": "200 Stinson St.",
		"city": "Hamilton, ON",
		"postCode": "L8N 4J5",
		"contact": "Shawn Maher",
		"phone": "(289) 389-1022",
		"website": "http://stinsonschool.com"
	},
	{
		"company": "STO Canada",
		"link": "/member_directory/33496",
		"street": "184 Combe Ave.",
		"city": "North York, ON",
		"postCode": "M3H 4K5",
		"contact": "Crystal Stevens",
		"phone": "(647) 627-2270",
		"website": "http://stocorp.ca"
	},
	{
		"company": "Stockridge Construction Ltd.",
		"link": "/member_directory/33705",
		"street": "21 Burke Brook Place Ste. 319",
		"city": "Toronto, ON",
		"postCode": "M4G 0A2",
		"contact": "David Stock",
		"phone": "(416) 964-6800",
		"website": null
	},
	{
		"company": "Stone Castle Realty Group Inc.",
		"link": "/member_directory/34076",
		"street": "3883 Highway 7 Ste. 214",
		"city": "Vaughan, ON",
		"postCode": "L4L 6C1",
		"contact": "Frank Zoccoli",
		"phone": "(905) 851-7171",
		"website": null
	},
	{
		"company": "Stone Design Concepts",
		"link": "/member_directory/34948",
		"street": "15 Bentley Ave.",
		"city": "Ottawa, ON",
		"postCode": "K2E 6T8",
		"contact": "Laurie Asbil",
		"phone": "(613) 228-5456",
		"website": "http://stonedesignconcepts.com"
	},
	{
		"company": "Stone Edge Marble & Granite Inc.",
		"link": "/member_directory/33497",
		"street": "1640 Sismet Rd.",
		"city": "Mississauga, ON",
		"postCode": "L4W 1R4",
		"contact": "Vince Marchese",
		"phone": "(905) 625-7866",
		"website": "http://stoneedge.ca"
	},
	{
		"company": "Stone Road Development Corporation",
		"link": "/member_directory/34077",
		"street": "50 Cordova Ave. Ste. 2406",
		"city": "Toronto, ON",
		"postCode": "M9A 4X6",
		"contact": "Art Welter",
		"phone": "(416) 239-7501",
		"website": null
	},
	{
		"company": "Stone Selex Inc.",
		"link": "/member_directory/33498",
		"street": "4444 E.gate Parkway Ste. 4",
		"city": "Mississauga, ON",
		"postCode": "L4W 4T6",
		"contact": "Cezary Lebiedzinski",
		"phone": "(905) 672-2887",
		"website": "http://stoneselex.com"
	},
	{
		"company": "Stone Tile International",
		"link": "/member_directory/37122",
		"street": "1451 Castlefield Avenue",
		"city": "Toronto, ON",
		"postCode": "M6M 1Y3",
		"contact": "Daniel Sultan",
		"phone": "416-515-9000",
		"website": null
	},
	{
		"company": "Stonebridge Building Group Inc.",
		"link": "/member_directory/33190",
		"street": "2458 Dundas St. W. Unit 9",
		"city": "Mississauga, ON",
		"postCode": "L5K 1R8",
		"contact": "Mark Crowe",
		"phone": "(905) 822-2615",
		"website": "http://mystonebridge.ca"
	},
	{
		"company": "StoneCrest Engineering",
		"link": "/member_directory/36568",
		"street": "P O Box 266, 2079 Line 34,",
		"city": "Shakeslpeare, ON",
		"postCode": "N0B 2P0",
		"contact": "Rob Pol",
		"phone": "1-855-625-8025",
		"website": "http://stonecrestengineering.com"
	},
	{
		"company": "Stonecroft Homes Inc.",
		"link": "/member_directory/36780",
		"street": "159 Stonecroft Way",
		"city": "New Hamburg, ON",
		"postCode": "N3A 4R2",
		"contact": "Michael Schout",
		"phone": "(519) 634-1001",
		"website": "http://stonecrofthomes.com"
	},
	{
		"company": "Stonefield Homes",
		"link": "/member_directory/34485",
		"street": "PO Box 122",
		"city": "Hampton, ON",
		"postCode": "L0B 1J0",
		"contact": "Ken Hoy",
		"phone": "(905) 213-3422",
		"website": null
	},
	{
		"company": "Stonemill Developments Inc.",
		"link": "/member_directory/33191",
		"street": "550 Speers Rd. Unit 1",
		"city": "Oakville, ON",
		"postCode": "L6K 2G3",
		"contact": "Paul Ribau",
		"phone": "(905) 847-5900",
		"website": "http://stonemill.ca"
	},
	{
		"company": "StonePlus Products Inc.",
		"link": "/member_directory/33499",
		"street": "1 Applewood Cres. Unit 8",
		"city": "Concord, ON",
		"postCode": "L4K 4K1",
		"contact": "Simon Mo",
		"phone": "(416) 663-8998",
		"website": "http://stoneplus.ca"
	},
	{
		"company": "StoneRox (Div. of Architectural Accents Inc.)",
		"link": "/member_directory/33500",
		"street": "P.O. Box 1060",
		"city": "Stouffville, ON",
		"postCode": "L4A 8A1",
		"contact": "Brad Miller",
		"phone": "(416) 798-7809",
		"website": "http://stonerox.com"
	},
	{
		"company": "Stoneworx",
		"link": "/member_directory/34270",
		"street": "16 Nixon Rd.",
		"city": "Bolton, ON",
		"postCode": "L7E 1K3",
		"contact": "John Pacitti",
		"phone": "(905) 857-6098",
		"website": "http://stoneworx.com"
	},
	{
		"company": "Stoney Lake Homes & Cottages",
		"link": "/member_directory/36087",
		"street": "P.O. Box 219",
		"city": "Lakefield, ON",
		"postCode": "K0L 2H0",
		"contact": "Henry Schmied",
		"phone": "(705) 768-7070",
		"website": null
	},
	{
		"company": "Stonybrook Consulting",
		"link": "/member_directory/34078",
		"street": "1595 Sixteenth Ave. Ste. 301",
		"city": "Richmond Hill, ON",
		"postCode": "L4B 3N9",
		"contact": "Nancy Mather",
		"phone": "(905) 709-7454",
		"website": null
	},
	{
		"company": "Storybook Homes",
		"link": "/member_directory/33192",
		"street": "27-1300 King St. E. Box 229",
		"city": "Oshawa, ON",
		"postCode": "L1H 8J4",
		"contact": "Paul Halminen",
		"phone": "(905) 438-9516",
		"website": null
	},
	{
		"company": "Stoy Partition & Ceiling Systems Ltd.",
		"link": "/member_directory/35867",
		"street": "11 Weybourne Cres.",
		"city": "London, ON",
		"postCode": "N6H 4H2",
		"contact": "Dave Stoyanovich",
		"phone": "(519) 471-4669",
		"website": null
	},
	{
		"company": "Strada Aggregates Inc.",
		"link": "/member_directory/36459",
		"street": "30 Floral Pkwy",
		"city": "Concord, ON",
		"postCode": "L4K 4R1",
		"contact": "Mario Pietrolungo",
		"phone": "(905) 738-2200",
		"website": null
	},
	{
		"company": "Strassburger Supplies Ltd. Windows & Door",
		"link": "/member_directory/36598",
		"street": "2101 Shirley Dr.",
		"city": "Kitchener, ON",
		"postCode": "N2B 3X4",
		"contact": "Dean Elvidge",
		"phone": "1-800-265-4717",
		"website": null
	},
	{
		"company": "Strassburger Windows & Doors",
		"link": "/member_directory/36810",
		"street": "2101 Shirley Dr.",
		"city": "Kitchener, ON",
		"postCode": "N2B 3X4",
		"contact": "Robert Strassburger",
		"phone": "(519) 885-6380",
		"website": "http://strassburger.net"
	},
	{
		"company": "Strategic Benefits & Insurance Services Ltd.",
		"link": "/member_directory/36115",
		"street": "945 Princess St.",
		"city": "Kingston, ON",
		"postCode": "K7L 3N6",
		"contact": "Debra Dobing",
		"phone": "(613) 507-4400",
		"website": "http://strategicins.ca"
	},
	{
		"company": "Strategic Benefits and Insurance Services",
		"link": "/member_directory/36220",
		"street": "945 Princess St.",
		"city": "Kingston, ON",
		"postCode": "K7L 3N6",
		"contact": "Debra Dobing",
		"phone": "(613) 507-4400",
		"website": null
	},
	{
		"company": "Strategic Roofing Ltd",
		"link": "/member_directory/36697",
		"street": "Box 440 1372 Pioneer Road",
		"city": "Sudbury, ON",
		"postCode": "P0M 1M0",
		"contact": "Sabrina Demore",
		"phone": "(705) 806-2177",
		"website": null
	},
	{
		"company": "Stratford Gazette",
		"link": "/member_directory/36569",
		"street": "10 Downie St., Unit 106,",
		"city": "Stratford, ON",
		"postCode": "N5A 7K4",
		"contact": "Julie Haefling",
		"phone": "(519) 271-8002",
		"website": null
	},
	{
		"company": "Stratford Home Hardware Building Centre",
		"link": "/member_directory/36599",
		"street": "R.R. #4",
		"city": "Stratford, ON",
		"postCode": "N5A 6S5",
		"contact": "Paul Strasser",
		"phone": "(519) 271-4370",
		"website": null
	},
	{
		"company": "Stratford, Corp. of the City of",
		"link": "/member_directory/36570",
		"street": "P.O. Box 818, 82 Erie St.",
		"city": "Stratford, ON",
		"postCode": "N5A 6W1",
		"contact": "Dave Carroll",
		"phone": "(519) 271-0250",
		"website": null
	},
	{
		"company": "Strathroy Audio Video",
		"link": "/member_directory/37036",
		"street": "5 Front St",
		"city": "Strathroy, ON",
		"postCode": "N7G 1X5",
		"contact": "Chris Culos",
		"phone": "59-245-2534",
		"website": "http://strathroyaudiovideo.com"
	},
	{
		"company": "Streetcar Developments Inc.",
		"link": "/member_directory/33193",
		"street": "43 Davies Ave.",
		"city": "Toronto, ON",
		"postCode": "M4M 2A9",
		"contact": "Alie Warren",
		"phone": "(416) 686-9199",
		"website": "http://streetcar.ca"
	},
	{
		"company": "Strik, Baldinelli & Moniz Ltd.",
		"link": "/member_directory/36874",
		"street": "370 University Ave. E.  Unit 203A",
		"city": "Waterloo, ON",
		"postCode": "N2K 3N2",
		"contact": "Darryl Cowan",
		"phone": "(519) 725-8093",
		"website": "http://sbmltd.ca"
	},
	{
		"company": "Strik, Baldinelli & Moniz Ltd.",
		"link": "/member_directory/35796",
		"street": "14361 Medway Po Box 29",
		"city": "Arva, ON",
		"postCode": "N0M 1C0",
		"contact": "Kyle Kane",
		"phone": "(519) 471-6667",
		"website": "http://sbaltd.ca"
	},
	{
		"company": "Stronach Group (The)",
		"link": "/member_directory/33194",
		"street": "455 Magna Dr.",
		"city": "Aurora, ON",
		"postCode": "L4G 7A9",
		"contact": "Ari Huber",
		"phone": "(905) 726-7043",
		"website": "http://stronachgroup.com"
	},
	{
		"company": "Studio S Interiors Inc.",
		"link": "/member_directory/34771",
		"street": "950 Gladstone Ave. Suite 101",
		"city": "Ottawa, ON",
		"postCode": "K1Y 3E6",
		"contact": "Denis Villeneuve",
		"phone": "(613) 728-2027",
		"website": "http://studiosinteriors.com"
	},
	{
		"company": "Stylehaus Interiors",
		"link": "/member_directory/34865",
		"street": "204 Lebreton St. N.",
		"city": "Ottawa, ON",
		"postCode": "K1R 7J1",
		"contact": "Jason Bellaire",
		"phone": "(613) 292-4426",
		"website": "http://stylehausinteriors.com"
	},
	{
		"company": "Stylish Fireplaces by Huntington Lodge",
		"link": "/member_directory/33501",
		"street": "201 Huntington Park Dr.",
		"city": "Thornhill, ON",
		"postCode": "L3T 7A7",
		"contact": "Jeanne Grier",
		"phone": "(905) 889-1239",
		"website": "http://stylishfireplaces.ca"
	},
	{
		"company": "Sudbury Vacuum Sales & Service Ltd.",
		"link": "/member_directory/36698",
		"street": "1693 Lasalle Blvd.",
		"city": "Sudbury, ON",
		"postCode": "P3A 1Z8",
		"contact": "Richard Desmarais",
		"phone": "(705) 560-1841",
		"website": null
	},
	{
		"company": "Sudbury Windows & Doors Manufacturing",
		"link": "/member_directory/36699",
		"street": "902 Newgate Ave.",
		"city": "Sudbury, ON",
		"postCode": "P3A 5J9",
		"contact": "Mitch Poitras",
		"phone": "(705) 560-5700",
		"website": "http://sudburywindows.com"
	},
	{
		"company": "Sullivan Mahoney LLP",
		"link": "/member_directory/35975",
		"street": "40 Queen St., POBox 1360",
		"city": "St. Catharines, ON",
		"postCode": "L2R 6Z2",
		"contact": "Rocco Vacca",
		"phone": "(905) 688-6655",
		"website": "http://sullivan-mahoney.com"
	},
	{
		"company": "Summerhill Homes Ltd.",
		"link": "/member_directory/33195",
		"street": "20 Wertheim Crt. Ste. 17",
		"city": "Richmond Hill, ON",
		"postCode": "L4B 3A8",
		"contact": "Sal Ruscica",
		"phone": "(905) 886-6900",
		"website": "http://homesbysummerhill.com"
	},
	{
		"company": "Summit International Canada",
		"link": "/member_directory/33502",
		"street": "1750 Plummer St. Unit 9-10",
		"city": "Pickering, ON",
		"postCode": "L1W 3L7",
		"contact": "Robert Palmer",
		"phone": "(905) 420-7574",
		"website": "http://summitcarpet.com"
	},
	{
		"company": "Summit View Homes Ltd.",
		"link": "/member_directory/33196",
		"street": "1 W. Pearce St. Ste. 111",
		"city": "Richmond Hill, ON",
		"postCode": "L4B 3K3",
		"contact": "Gary Tiz",
		"phone": "(905) 886-8287",
		"website": "http://summitviewhomes.com"
	},
	{
		"company": "Sun Point Homes Ltd.",
		"link": "/member_directory/36781",
		"street": "421 Palamino Place",
		"city": "Waterloo, ON",
		"postCode": "N2K 4K5",
		"contact": "John Lowater",
		"phone": "(519) 635-6968",
		"website": "http://sunpointhomes.ca"
	},
	{
		"company": "Sun-Brite Drapery",
		"link": "/member_directory/34582",
		"street": "7695 Jane St., #11",
		"city": "Concord, ON",
		"postCode": "L4K 1A8",
		"contact": "Benny Caringi Steve Scaini",
		"phone": "(416) 741-9430",
		"website": "http://sunbritedrapery.com"
	},
	{
		"company": "Sun-Brite Drapery",
		"link": "/member_directory/33503",
		"street": "7695 Jane St. Unit 11",
		"city": "Concord, ON",
		"postCode": "L4K 1A8",
		"contact": "Benny Caringi",
		"phone": "(416) 741-9430",
		"website": "http://sunbritedrapery.com"
	},
	{
		"company": "Suncore Homes Inc.",
		"link": "/member_directory/34271",
		"street": "716 Gordon Baker Rd. Ste. 205",
		"city": "Toronto, ON",
		"postCode": "M2H 3B4",
		"contact": "Helen Zheng",
		"phone": "1-855-831-1002",
		"website": "http://suncorecons.com"
	},
	{
		"company": "Sundance Development Corporation",
		"link": "/member_directory/33197",
		"street": "3190 Steeles Ave. E. Ste. 304",
		"city": "Markham, ON",
		"postCode": "L3R 1G9",
		"contact": "Alon Szpindel",
		"phone": "(905) 307-2220",
		"website": "http://sundancehome.com"
	},
	{
		"company": "Sundial Homes Ltd.",
		"link": "/member_directory/33198",
		"street": "4576 Yonge St. Ste. 500",
		"city": "North York, ON",
		"postCode": "M2N 6N4",
		"contact": "Nitsan Wienberg",
		"phone": "(416) 224-1200",
		"website": "http://sundialhomes.com"
	},
	{
		"company": "Sunlight Heritage Homes",
		"link": "/member_directory/37164",
		"street": "419 Fountain St S",
		"city": "Cambridge, ON",
		"postCode": "N3H 1J2",
		"contact": "Wilson Riberiro",
		"phone": "519-653-8036",
		"website": "http://sunlighthomes.ca"
	},
	{
		"company": "Sunlight Heritage Homes",
		"link": "/member_directory/35719",
		"street": "419 Fountain St. S.",
		"city": "Cambridge, ON",
		"postCode": "N3H 1J1",
		"contact": "Wilson Ribeiro",
		"phone": "(519) 653-5036",
		"website": null
	},
	{
		"company": "Sunvale Homes",
		"link": "/member_directory/34612",
		"street": "29 Oakridge Dr.",
		"city": "Orangeville, ON",
		"postCode": "L9W 5J6",
		"contact": "John Welton",
		"phone": "(519) 942-4130",
		"website": "http://sunvalehomes.com"
	},
	{
		"company": "Sunvale Homes",
		"link": "/member_directory/36782",
		"street": "200 Lakeview Crt.",
		"city": "Orangeville, ON",
		"postCode": "L9W 5J7",
		"contact": "John Welton",
		"phone": "(519) 341-6443",
		"website": "http://sunvalehomes.com"
	},
	{
		"company": "Sunvest Homes",
		"link": "/member_directory/36783",
		"street": "901 Victoria St. N., Unit 1",
		"city": "Kitchener, ON",
		"postCode": "N2B 3C3",
		"contact": "Richard de Groot",
		"phone": "(519) 579-4110",
		"website": "http://remaxtwincity.com"
	},
	{
		"company": "Super 7 Group",
		"link": "/member_directory/33706",
		"street": "3032 Herald Rd.",
		"city": "Sharon, ON",
		"postCode": "L0G 1V0",
		"contact": "Lorenzo Marchelletta",
		"phone": "(416) 688-5599",
		"website": "http://super7group.com"
	},
	{
		"company": "Superior Construction - Luxury Homes Inc. (o/a Pahlbod Homes)",
		"link": "/member_directory/33199",
		"street": "7368 Yonge St. Ste. PH-C",
		"city": "Thornhill, ON",
		"postCode": "L4J 8H9",
		"contact": "Habib Khokhar",
		"phone": "(905) 597-7070",
		"website": "http://pahlbod.ca"
	},
	{
		"company": "Superior Construction Luxury Homes",
		"link": "/member_directory/36998",
		"street": "7368 Yonge St Suite PH-C",
		"city": "Thornhill, ON",
		"postCode": "L4J 8H9",
		"contact": "Gord Pahlbod",
		"phone": "416-625-1444",
		"website": null
	},
	{
		"company": "Superior Propane Inc.",
		"link": "/member_directory/34583",
		"street": "P O Box 605 7022 Wellington Rd.",
		"city": "Guelph, ON",
		"postCode": "N1H6L3",
		"contact": "Jeff Voyer",
		"phone": "(705) 760-1470",
		"website": "http://superiorpropane.com"
	},
	{
		"company": "Superior Propane Inc.",
		"link": "/member_directory/35156",
		"street": "6750 Century Ave. Ste. 400",
		"city": "Mississauga, ON",
		"postCode": "L5N 2V8",
		"contact": "Chris Van Herksen",
		"phone": "(519) 822-7780",
		"website": null
	},
	{
		"company": "Superior Quality Renovations & Construction Inc.",
		"link": "/member_directory/33707",
		"street": "7 Torryburn Place",
		"city": "Toronto, ON",
		"postCode": "M3B 1R2",
		"contact": "Florin Draghici",
		"phone": "(416) 441-0084",
		"website": "http://sqrc.ca"
	},
	{
		"company": "Superior Roof Truss/Barrette Structural",
		"link": "/member_directory/34949",
		"street": "6525 Bank St.",
		"city": "Ottawa, ON",
		"postCode": "K0A 2P0",
		"contact": "Paul Byrne",
		"phone": "(613) 822-8787",
		"website": "http://superiorrooftruss.com"
	},
	{
		"company": "Sure Seal Crack Injections Co. Ltd.",
		"link": "/member_directory/34272",
		"street": "96 Cameron Ave.",
		"city": "Toronto, ON",
		"postCode": "M6M 1R3",
		"contact": "Anselmo Dinis",
		"phone": "(416) 878-7295",
		"website": "http://crackinjections.com"
	},
	{
		"company": "Sure Seal Roofing and Siding",
		"link": "/member_directory/37195",
		"street": "4088 Sandwich St",
		"city": "Windsor, ON",
		"postCode": "N9C 1C4",
		"contact": "Art Bridgeman",
		"phone": "226-315-1702",
		"website": null
	},
	{
		"company": "Surface Design & Decor/Floors First",
		"link": "/member_directory/36700",
		"street": "1560 Lasalle Blvd.,",
		"city": "Sudbury, ON",
		"postCode": "P3A 1Z7",
		"contact": "John Pappano",
		"phone": "(705) 560-4567",
		"website": "http://sudburyfloorsfirst.com"
	},
	{
		"company": "Surface Developments",
		"link": "/member_directory/34714",
		"street": "61 Forest Hill Ave.",
		"city": "Ottawa, ON",
		"postCode": "K2C 1P7",
		"contact": "Jakub Ulak",
		"phone": "(613) 255-5507",
		"website": "http://surfacedevelopments.com"
	},
	{
		"company": "Surface Medic",
		"link": "/member_directory/36301",
		"street": "1713 Country Rd. 3",
		"city": "Carrying Place, ON",
		"postCode": "K0K 1L0",
		"contact": "Gerhard Blust",
		"phone": "(613) 969-9550",
		"website": null
	},
	{
		"company": "Surgenor National Leasing",
		"link": "/member_directory/34950",
		"street": "881 St-Laurent Blvd.",
		"city": "Ottawa, ON",
		"postCode": "K1K 3B1",
		"contact": "Andy Conde",
		"phone": "(613) 746-9616",
		"website": "http://snlease.com"
	},
	{
		"company": "Suriano Design Consultants Inc.",
		"link": "/member_directory/34079",
		"street": "51 Roysun Rd. Unit 1",
		"city": "Woodbridge, ON",
		"postCode": "L4L 8P9",
		"contact": "Mike Suriano",
		"phone": "(905) 264-0924",
		"website": "http://surianodesign.ca"
	},
	{
		"company": "Sustain Electrical Services",
		"link": "/member_directory/34273",
		"street": "15 Park Hill Rd.",
		"city": "Toronto, ON",
		"postCode": "M6C 3M8",
		"contact": "Tyler Shaver",
		"phone": "(647) 505-0692",
		"website": null
	},
	{
		"company": "Sustainable Buildings Canada",
		"link": "/member_directory/34080",
		"street": "33 Longboat Ave.",
		"city": "Toronto, ON",
		"postCode": "M5A 4C9",
		"contact": "Michael Singleton",
		"phone": "(416) 752-3535",
		"website": "http://sbcanada.org"
	},
	{
		"company": "Sustainable Housing Foundation",
		"link": "/member_directory/34081",
		"street": "63 Blair St.",
		"city": "Toronto, ON",
		"postCode": "M4B 3N5",
		"contact": "Patricia Duffy",
		"phone": "(416) 532-5981",
		"website": "http://sustainablehousingfoundation.org"
	},
	{
		"company": "Sutherland Development Group",
		"link": "/member_directory/35342",
		"street": "4151 Morris Dr.",
		"city": "Burlington, ON",
		"postCode": "L7L 5L5",
		"contact": "Scott Sutherland",
		"phone": "(905) 639-2330",
		"website": null
	},
	{
		"company": "Sutton Group - first Choice Realty Ltd.",
		"link": "/member_directory/36571",
		"street": "151 Downie St.",
		"city": "Stratford, ON",
		"postCode": "N5A 1X2",
		"contact": "Paul Graham",
		"phone": "(519) 271-5515",
		"website": null
	},
	{
		"company": "Sutton Group - Signature Realty Inc.",
		"link": "/member_directory/34082",
		"street": "33 Pearl St.",
		"city": "Mississauga, ON",
		"postCode": "L5M 1X1",
		"contact": "Mira Tomljenovic",
		"phone": "(905) 286-5888",
		"website": "http://suttonsignature.com"
	},
	{
		"company": "Swanson's Home Hardware Building Centre",
		"link": "/member_directory/36921",
		"street": "166 Park St.",
		"city": "Kitchener, ON",
		"postCode": "N2G 1M8",
		"contact": "Brad Swanson",
		"phone": "(519) 743-1404",
		"website": "http://homehardware.ca"
	},
	{
		"company": "SweetHomeSpaces",
		"link": "/member_directory/33708",
		"street": "811 Eaglemount Cres.",
		"city": "Mississauga, ON",
		"postCode": "L5C 1H2",
		"contact": "Alberto Becerra",
		"phone": "(647) 299-3871",
		"website": "http://sweethomespaces.com"
	},
	{
		"company": "Switzer Construction",
		"link": "/member_directory/37176",
		"street": "PO Box 967",
		"city": "Tweed, ON",
		"postCode": "K0K 3J0",
		"contact": "Steven Switzer",
		"phone": "613 920 3985",
		"website": null
	},
	{
		"company": "SWS Services",
		"link": "/member_directory/35593",
		"street": "R.R. #1",
		"city": "Haliburton, ON",
		"postCode": "K0M 1S0",
		"contact": "Stephen Soininen",
		"phone": "(705) 457-9525",
		"website": null
	},
	{
		"company": "Symbolics Architecture + Design",
		"link": "/member_directory/34083",
		"street": "181 Carlaw Ave. Ste. 201",
		"city": "Toronto, ON",
		"postCode": "M4M 2S1",
		"contact": "Peter Vishnovsky",
		"phone": "(416) 486-8171",
		"website": "http://symbolics.ca"
	},
	{
		"company": "T-Murr Exteriors Inc.",
		"link": "/member_directory/37161",
		"street": "PO Box 610",
		"city": "Ruthven, ON",
		"postCode": "N0P 2G0",
		"contact": "Tom Murray",
		"phone": null,
		"website": null
	},
	{
		"company": "T. Construction",
		"link": "/member_directory/36313",
		"street": "65 Mud Lake Rd.",
		"city": "Pembroke, ON",
		"postCode": "K8A 6W4",
		"contact": "Claus Trost",
		"phone": "(613) 639-3385",
		"website": null
	},
	{
		"company": "T. Johns Consulting Group Ltd.",
		"link": "/member_directory/35447",
		"street": "310 Limeridge Rd. W.",
		"city": "Hamilton, ON",
		"postCode": "L9C 2V2",
		"contact": "Terri Johns",
		"phone": "(905) 574-1993",
		"website": "http://tjohnsconsulting.com"
	},
	{
		"company": "T. Sena Construction and Management Inc.",
		"link": "/member_directory/33709",
		"street": "8611 W.on Rd. Unit 16",
		"city": "Woodbridge, ON",
		"postCode": "L4L 9P1",
		"contact": "Tony Sena",
		"phone": "(905) 850-1010",
		"website": null
	},
	{
		"company": "T. Verdonk and Sons Construction Ltd.",
		"link": "/member_directory/34394",
		"street": "77 Baptist Church Rd.",
		"city": "Brantford, ON",
		"postCode": "N3T 5L4",
		"contact": "Joe Verdonk",
		"phone": "(519) 752-6383",
		"website": null
	},
	{
		"company": "T.A. Appliance Inc",
		"link": "/member_directory/37130",
		"street": "1655 Dundas St E Unit 8",
		"city": "Mississauga, ON",
		"postCode": "L4Z 1L5",
		"contact": "Ed Day",
		"phone": "905 901 4861",
		"website": null
	},
	{
		"company": "T.C. Braun Construction",
		"link": "/member_directory/35952",
		"street": "34961 7th St.",
		"city": "St. Catharines, ON",
		"postCode": "L2R 6P7",
		"contact": "Travis Braun",
		"phone": "(905) 937-7316",
		"website": "http://tcbraunconstruction.ca"
	},
	{
		"company": "T.D. Canada Trust",
		"link": "/member_directory/34347",
		"street": "444 Fairview Dr.",
		"city": "Brantford, ON",
		"postCode": "N3R 2X8",
		"contact": "Linda Mitchell",
		"phone": "(519) 756-3620",
		"website": null
	},
	{
		"company": "T.D. Canada Trust",
		"link": "/member_directory/34361",
		"street": "230 Shellards Lane",
		"city": "Brantford, ON",
		"postCode": "N3R 5L5",
		"contact": "Melody Decker",
		"phone": "(519) 802-1633",
		"website": "http://td.com"
	},
	{
		"company": "T.F.P. Stairs & Railings",
		"link": "/member_directory/36191",
		"street": "550 Cataraqui Woods Dr.",
		"city": "Kingston, ON",
		"postCode": "K7P 2Y5",
		"contact": "David Cole",
		"phone": "(613) 384-7362",
		"website": null
	},
	{
		"company": "T.H Communications",
		"link": "/member_directory/34866",
		"street": "1158 County Rd., Unit 18, R.R.#1",
		"city": "Oxford Mills, ON",
		"postCode": "K0G 1S0",
		"contact": "Mary Humphries",
		"phone": "(613) 258-1117",
		"website": null
	},
	{
		"company": "T.M.S. Services",
		"link": "/member_directory/35284",
		"street": "Box 1018",
		"city": "Haliburton, ON",
		"postCode": "K0M 1S0",
		"contact": "Mitch Stephen",
		"phone": "(705) 457-9229",
		"website": null
	},
	{
		"company": "T.R. Symonds Signature Homes",
		"link": "/member_directory/35953",
		"street": "2843 Tracy Terrace",
		"city": "Port Colborne, ON",
		"postCode": "L3K 5V3",
		"contact": "Terry Symonds",
		"phone": "(905) 834-6641",
		"website": "http://trsymondssignaturehomes.com"
	},
	{
		"company": "TA Appliance",
		"link": "/member_directory/34387",
		"street": "932 Victoria St.",
		"city": "Kitchener, ON",
		"postCode": "N2B 1W4",
		"contact": "Ed Day",
		"phone": "(519) 578-0300",
		"website": null
	},
	{
		"company": "TA Appliance Inc",
		"link": "/member_directory/35157",
		"street": "932 Victoria St. N",
		"city": "Kitchener, ON",
		"postCode": "N2B 1W4",
		"contact": "Ed Day",
		"phone": "(519) 578-0300",
		"website": null
	},
	{
		"company": "TA Applicance",
		"link": "/member_directory/36922",
		"street": "932 Victoria St. N.",
		"city": "Kitchener, ON",
		"postCode": "N2B 1W4",
		"contact": "Clint Williams",
		"phone": "(519) 578-0300",
		"website": "http://taappliance.com"
	},
	{
		"company": "TACC Developments",
		"link": "/member_directory/33200",
		"street": "600 Applewood Cres.",
		"city": "Vaughan, ON",
		"postCode": "L4K 4B4",
		"contact": "Silvio DeGasperis",
		"phone": "(905) 760-7300",
		"website": "http://taccdevelopments.com"
	},
	{
		"company": "Tackaberry Heating & Refrigeration",
		"link": "/member_directory/36221",
		"street": "300 Bell Blvd.",
		"city": "Belleville, ON",
		"postCode": "K8P 5H7",
		"contact": "Jason DeBruyn",
		"phone": "(613) 967-2884",
		"website": null
	},
	{
		"company": "Taggart Investments",
		"link": "/member_directory/35619",
		"street": "685 Justus Dr.",
		"city": "Kingston, ON",
		"postCode": "K7M 4H5",
		"contact": "Barry Smith",
		"phone": "(613) 389-7550",
		"website": null
	},
	{
		"company": "Tahani Developments Inc.",
		"link": "/member_directory/36784",
		"street": "140 Hespeler Rd.",
		"city": "Cambridge, ON",
		"postCode": "N1R 3H2",
		"contact": "Tahani Aburaneh",
		"phone": "(519) 622-1441",
		"website": "http://urbanlivingrealty.ca"
	},
	{
		"company": "Tailored Living of Central Toronto",
		"link": "/member_directory/33504",
		"street": "60 Austin Terrace",
		"city": "Toronto, ON",
		"postCode": "M5R 1Y6",
		"contact": "Marc Javet",
		"phone": "(416) 631-7272",
		"website": "http://tailoredliving.com"
	},
	{
		"company": "Tailored Living/Premier Garage of Hamilton",
		"link": "/member_directory/35583",
		"street": "1100 Invicta Dr. Unit #7",
		"city": "Oakville, ON",
		"postCode": "L6H 2K9",
		"contact": "Mike Brown",
		"phone": "(289) 218-9098",
		"website": "http://tailoredliving.com/hamilton"
	},
	{
		"company": "Tailorwood Building Group",
		"link": "/member_directory/34486",
		"street": "38 Lawson Rd.",
		"city": "Courtice, ON",
		"postCode": "L1E 2K3",
		"contact": "Frank Gordiano Mario Cefai",
		"phone": "(647) 535-3299",
		"website": "http://tailorwood.ca"
	},
	{
		"company": "Talos Homes Ltd.",
		"link": "/member_directory/34715",
		"street": "1 - 5509 Canotek Rd.",
		"city": "Ottawa, ON",
		"postCode": "K1J 9J8",
		"contact": "David Toscano",
		"phone": "(613) 747-3993",
		"website": "http://taloshomes.com"
	},
	{
		"company": "Tamarack Development Crop.",
		"link": "/member_directory/35620",
		"street": "3187 Albion Rd. S.",
		"city": "Ottawa, ON",
		"postCode": "K1V 8Y3",
		"contact": "Steven Parkes",
		"phone": "(613) 739-2919",
		"website": "http://tamarackhomes.com"
	},
	{
		"company": "Tamarack Developments Corp.",
		"link": "/member_directory/34716",
		"street": "3187 Albion Rd. S.",
		"city": "Ottawa, ON",
		"postCode": "K1V 8Y3",
		"contact": "Chris Taggart",
		"phone": "(613) 739-2919",
		"website": "http://tamarackhomes.com"
	},
	{
		"company": "Tamarack Lumber Inc.",
		"link": "/member_directory/33505",
		"street": "3269 N. Service Rd. P.O. Box 518",
		"city": "Burlington, ON",
		"postCode": "L7R 3Y3",
		"contact": "Johnny Guglietti",
		"phone": "(416) 798-4869",
		"website": "http://tamaracklumber.ca"
	},
	{
		"company": "Tamarack Lumber Inc./Alpa Lumber Group",
		"link": "/member_directory/35546",
		"street": "3265 N. Service Rd P.O. Box 518",
		"city": "Burlington, ON",
		"postCode": "L7R 3Y3",
		"contact": "Ricardo Guglietti",
		"phone": "(905) 335-1115",
		"website": null
	},
	{
		"company": "Tampa Hall Ltd.",
		"link": "/member_directory/34388",
		"street": "100 Guthrie St., P.O. Box 1080",
		"city": "Ayr, ON",
		"postCode": "N0B 1E0",
		"contact": "Tim Malcolm",
		"phone": "(519) 632-7432",
		"website": null
	},
	{
		"company": "TARION Warranty Corporation",
		"link": "/member_directory/36875",
		"street": "395 Wellington Rd., Suite 214A",
		"city": "London, ON",
		"postCode": "N6C 5Z6",
		"contact": "Mike Hanas",
		"phone": "(416) 229-3844",
		"website": "http://tarion.com"
	},
	{
		"company": "TARION Warranty Corporation",
		"link": "/member_directory/36116",
		"street": "5150 Yonge St., 12th Floor",
		"city": "Toronto, ON",
		"postCode": "M2N 6L8",
		"contact": "Andy Ferguson",
		"phone": "(416) 229-3844",
		"website": null
	},
	{
		"company": "TARION Warranty Corporation",
		"link": "/member_directory/36378",
		"street": "5150 Yonge St. Concourse Level",
		"city": "Toronto, ON",
		"postCode": "M2N 6L8",
		"contact": "Bob Thoburn",
		"phone": "1-877-696-6497",
		"website": "http://tarion.com"
	},
	{
		"company": "TARION Warranty Corporation",
		"link": "/member_directory/34084",
		"street": "5160 Yonge St. 12th Flr.",
		"city": "North York, ON",
		"postCode": "M2N 6L9",
		"contact": "Mike Cote",
		"phone": "(416) 229-9200",
		"website": "http://tarion.com"
	},
	{
		"company": "TARION Warranty Corporation",
		"link": "/member_directory/35626",
		"street": "5150 Yonge St. 12th Floor",
		"city": "Toronto, ON",
		"postCode": "M2N 6L8",
		"contact": "Dan Moreau",
		"phone": "1-877-982-7466",
		"website": "http://tarion.com"
	},
	{
		"company": "TARION Warranty Corporation",
		"link": "/member_directory/34867",
		"street": "1580 Merivale Rd. Suite 508",
		"city": "Ottawa, ON",
		"postCode": "K2G 4B5",
		"contact": "Dan Moreau",
		"phone": "1-877-982-7466",
		"website": "http://tarion.com"
	},
	{
		"company": "TARION Warranty Corporation",
		"link": "/member_directory/36660",
		"street": "5150 Yonge St., Concourse Level",
		"city": "Toronto, ON",
		"postCode": "M2N 6L8",
		"contact": "Andy Ferguson",
		"phone": "1-877-982-7466",
		"website": "http://tarion.com"
	},
	{
		"company": "TARION Warranty Corporation",
		"link": "/member_directory/34362",
		"street": "5160 Yonge St., 12th Floor",
		"city": "Toronto, ON",
		"postCode": "M2N 6L9",
		"contact": "Bob Thoburn",
		"phone": "1-877-982-7466",
		"website": null
	},
	{
		"company": "TARION Warranty Corporation",
		"link": "/member_directory/35132",
		"street": "5150 Yonge St. Concourse Level",
		"city": "Toronto, ON",
		"postCode": "M3N 6L8",
		"contact": "Bob Thoburn",
		"phone": "1-877-982-7466",
		"website": null
	},
	{
		"company": "TARION Warranty Corporation",
		"link": "/member_directory/35648",
		"street": "1580 Merivale Rd. Suite 508",
		"city": "Ottawa, ON",
		"postCode": "K2G 4B5",
		"contact": "Dan Moreau",
		"phone": "1-877-982-7466",
		"website": null
	},
	{
		"company": "TARION Warranty Corporation",
		"link": "/member_directory/34630",
		"street": "5150 Yonge St. Concourse Level",
		"city": "Toronto, ON",
		"postCode": "M2N 6L8",
		"contact": "Scott Rowand",
		"phone": "1-877-696-6497",
		"website": "http://tarion.com"
	},
	{
		"company": "TARION Warranty Corporation",
		"link": "/member_directory/36431",
		"street": "5150 Yonge St. Concourse Level",
		"city": "Toronto, ON",
		"postCode": "M2N 6L8",
		"contact": "Andy Ferguson",
		"phone": "1-877-982-7466",
		"website": null
	},
	{
		"company": "TARION Warranty Corporation",
		"link": "/member_directory/36721",
		"street": "5150 Yonge St. Concourse Level",
		"city": "Toronto, ON",
		"postCode": "M2N 6L8",
		"contact": "Andy Ferguson",
		"phone": "1-877-696-6497",
		"website": null
	},
	{
		"company": "TARION Warranty Corporation",
		"link": "/member_directory/34422",
		"street": "5160 Yonge St., 12th Floor",
		"city": "Toronto, ON",
		"postCode": "M2N 6L9",
		"contact": "Bob Sholtanuk",
		"phone": "1-877-982-7466",
		"website": "http://tarion.com"
	},
	{
		"company": "TARION Warranty Corporation",
		"link": "/member_directory/35448",
		"street": "5160 Yonge St. 12th Flr.",
		"city": "Toronto, ON",
		"postCode": "M2N 6L9",
		"contact": "Bob Thoburn",
		"phone": "1-877-982-7466",
		"website": "http://tarion.com"
	},
	{
		"company": "TARION Warranty Corporation",
		"link": "/member_directory/36222",
		"street": "5160 Yonge St. 12 th Flr.",
		"city": "Toronto, ON",
		"postCode": "M2N 6L9",
		"contact": "Dan Moreau",
		"phone": "1-877-696-6497",
		"website": null
	},
	{
		"company": "TARION Warranty Corporation",
		"link": "/member_directory/35205",
		"street": "5150 Yonge St. Concourse Level",
		"city": "Toronto, ON",
		"postCode": "M2N 6L8",
		"contact": "Mike Cote",
		"phone": "1-877-696-6497",
		"website": null
	},
	{
		"company": "TARION Warranty Corporation",
		"link": "/member_directory/35977",
		"street": "5150 Yonge St. Concourse Level",
		"city": "Toronto, ON",
		"postCode": "M2N 6L8",
		"contact": "Bob Thoburn",
		"phone": "1-877-696-6497",
		"website": "http://tarion.com"
	},
	{
		"company": "TARION Warranty Corporation",
		"link": "/member_directory/36503",
		"street": "Concourse Level 5150 Yonge St.",
		"city": "Toronto, ON",
		"postCode": "M2N 6L8",
		"contact": "Mike Hanas",
		"phone": "1-877-696-6497",
		"website": "http://tarion.com"
	},
	{
		"company": "TARION Warranty Corporation",
		"link": "/member_directory/37054",
		"street": "5160 Yonge St 12th Flr",
		"city": "Toronto, ON",
		"postCode": "M2N 6L9",
		"contact": "Bob Thoburn",
		"phone": "1-877-982-466",
		"website": "http://tarion.com"
	},
	{
		"company": "TARION Warranty Corporation",
		"link": "/member_directory/35263",
		"street": "5160 Yonge St., 12th Floor",
		"city": "Toronto, ON",
		"postCode": "M2N 6L9",
		"contact": "Bob Thoburn",
		"phone": "1-877-696-6497",
		"website": null
	},
	{
		"company": "TARION Warranty Corporation",
		"link": "/member_directory/35797",
		"street": "395 Wellington Rd., Suite 214A The Rio Can Centre",
		"city": "London, ON",
		"postCode": "N6C 5Z6",
		"contact": "Siloni Waraich",
		"phone": "(416) 229-9200",
		"website": "http://tarion.com"
	},
	{
		"company": "TARION Warranty Corporation",
		"link": "/member_directory/36316",
		"street": "5160 Yonge St.",
		"city": "Toronto, ON",
		"postCode": "N2B 6L9",
		"contact": "Dan Moreau",
		"phone": null,
		"website": null
	},
	{
		"company": "TARION Warranty Corporation",
		"link": "/member_directory/36572",
		"street": "395 Wellington Rd.",
		"city": "London, ON",
		"postCode": "N6A 5Z6",
		"contact": "Mike Hanas",
		"phone": "1-877-982-7466",
		"website": null
	},
	{
		"company": "TARION Warranty Corporation",
		"link": "/member_directory/34532",
		"street": "5150 Yonge St. 12th Flr.",
		"city": "Toronto, ON",
		"postCode": "M2N 6L8",
		"contact": "Bob thoburn Scott Rowand",
		"phone": "1-877-982-7466",
		"website": "http://tarion.com"
	},
	{
		"company": "Tarpin Lumber Inc.",
		"link": "/member_directory/36460",
		"street": "2267 Bowman St.",
		"city": "Innisfil, ON",
		"postCode": "L9S 3V5",
		"contact": "Tony Krul/Nolan Pratt",
		"phone": "(705) 436-5373",
		"website": null
	},
	{
		"company": "Tarpin Lumber Incorporated",
		"link": "/member_directory/33506",
		"street": "2267 Bowman St.",
		"city": "Innisfil, ON",
		"postCode": "L9S 3V5",
		"contact": "Nolan Pratt",
		"phone": "(416) 283-2222",
		"website": "http://tarpin.com"
	},
	{
		"company": "Tartan Homes Corporation",
		"link": "/member_directory/34717",
		"street": "233 Melcalfe St.",
		"city": "Ottawa, ON",
		"postCode": "K2P 2C2",
		"contact": "Pierre Dufresne",
		"phone": "(613) 238-2040",
		"website": "http://tartanhomes.com"
	},
	{
		"company": "TAS",
		"link": "/member_directory/33201",
		"street": "491 Eglinton Ave. W. Ste. 503",
		"city": "Toronto, ON",
		"postCode": "M5N 1A8",
		"contact": "Mazyar Mortazavi",
		"phone": "(416) 510-8181",
		"website": "http://tasdesignbuild.com"
	},
	{
		"company": "TAS Communications",
		"link": "/member_directory/36223",
		"street": "P.O. Box 176",
		"city": "Belleville, ON",
		"postCode": "K8N 5A2",
		"contact": "Denise Reynolds",
		"phone": "(613) 969-1616",
		"website": null
	},
	{
		"company": "Taylor Taylor Design",
		"link": "/member_directory/34085",
		"street": "33 O&apos;Hara Ave.",
		"city": "Toronto, ON",
		"postCode": "M6K 2P9",
		"contact": "Rhonda Taylor",
		"phone": "(416) 937-7418",
		"website": "http://taylortaylordesign.com"
	},
	{
		"company": "Taymor Industries Ltd.",
		"link": "/member_directory/35547",
		"street": "6460 Kennedy Rd. Unit A",
		"city": "Mississauga, ON",
		"postCode": "L5T 2X4",
		"contact": "Kathleen Kelly",
		"phone": "(905) 362-3660",
		"website": "http://taymor.com"
	},
	{
		"company": "Taymor Industries Ltd.",
		"link": "/member_directory/33507",
		"street": "6460 Kennedy Rd. Unit A",
		"city": "Mississauga, ON",
		"postCode": "L5T 2X4",
		"contact": "Kathleen Kelly",
		"phone": "1-800-387-7064",
		"website": "http://taymor.com"
	},
	{
		"company": "tcgpr (The Communications Group Inc.)",
		"link": "/member_directory/34086",
		"street": "250 Ferrand Dr. 4th Flr.",
		"city": "Toronto, ON",
		"postCode": "M3C 3G8",
		"contact": "Rhoda Eisenstadt",
		"phone": "(416) 696-9900",
		"website": "http://tcgpr.com"
	},
	{
		"company": "TD Bank Financial Group",
		"link": "/member_directory/34497",
		"street": "220 Commerce Valley Drive West 2nd",
		"city": "Markham, ON",
		"postCode": "L3T 0A8",
		"contact": "Stelio Zupancich",
		"phone": "(905) 771-2313",
		"website": "http://tdcommercialbanking.com"
	},
	{
		"company": "TD Canada Trust",
		"link": "/member_directory/36432",
		"street": "220 Commerce Valley Dr. W. 2nd Flr.",
		"city": "Markham, ON",
		"postCode": "L3T 0A8",
		"contact": "Andy Wu",
		"phone": "(905) 771-3669",
		"website": null
	},
	{
		"company": "TD Canada Trust",
		"link": "/member_directory/35186",
		"street": "135 Queensway E.",
		"city": "Simcoe, ON",
		"postCode": "N3Y 4M5",
		"contact": "George Cornfield",
		"phone": "(519) 426-9230",
		"website": null
	},
	{
		"company": "TD Canada Trust",
		"link": "/member_directory/35449",
		"street": "TD Tower 55 King St., 22nd Flr.",
		"city": "Toronto, ON",
		"postCode": "M5K 1A2",
		"contact": "Lydia Dadic",
		"phone": "(416) 885-0918",
		"website": null
	},
	{
		"company": "TD Canada Trust",
		"link": "/member_directory/35735",
		"street": "275 Dundas St., 9th floor",
		"city": "London, ON",
		"postCode": "N6B 3L1",
		"contact": "John Marchioni",
		"phone": "(519)860 0422",
		"website": "http://tdcommercialbanking.com"
	},
	{
		"company": "TD Canada Trust",
		"link": "/member_directory/33275",
		"street": "77 King St. W. TD Tower North, 16th Flr.",
		"city": "Toronto, ON",
		"postCode": "M5K 1A2",
		"contact": "Lydia Dadic",
		"phone": "(416) 885-0918",
		"website": "http://tdbank.ca"
	},
	{
		"company": "TD Commercial Banking",
		"link": "/member_directory/36797",
		"street": "381 King St. W., 2nd Floor",
		"city": "Kitchener, ON",
		"postCode": "N2G 1B8",
		"contact": "Dave Duncan",
		"phone": "(519) 570-7319",
		"website": "http://tdcommercialbanking.com"
	},
	{
		"company": "TD Commercial Banking Centre",
		"link": "/member_directory/35104",
		"street": "381 King St. W., 2nd Floor",
		"city": "Kitchener, ON",
		"postCode": "N2G 1B8",
		"contact": "Ryan Niesen",
		"phone": "(519) 579-3133",
		"website": null
	},
	{
		"company": "TDL Group Corp. (Tim Hortons) (The)",
		"link": "/member_directory/33202",
		"street": "874 Sinclair Rd.",
		"city": "Oakville, ON",
		"postCode": "L6K 2Y1",
		"contact": "Paul Barron",
		"phone": "(905) 339-6376",
		"website": "http://timhortons.com"
	},
	{
		"company": "Teahen Construction Ltd.",
		"link": "/member_directory/36539",
		"street": "201 Griffith Rd., Unit B",
		"city": "Stratford, ON",
		"postCode": "N5A 6S4",
		"contact": "Courtney and Chris Teahen",
		"phone": "(519) 275-2557",
		"website": null
	},
	{
		"company": "Team 2000 Realty Inc.",
		"link": "/member_directory/34087",
		"street": "7611 Pine Valley Dr. Ste. 38",
		"city": "Vaughan, ON",
		"postCode": "L4L 0A2",
		"contact": "Tony Bova",
		"phone": "(416) 746-2999",
		"website": "http://team2000realty.com"
	},
	{
		"company": "Team FX",
		"link": "/member_directory/33508",
		"street": "12 Goodmark Place Ste. 6",
		"city": "Toronto, ON",
		"postCode": "M9W 6R1",
		"contact": "Domenic Cosentino",
		"phone": "(905) 850-8326",
		"website": "http://teamfx.ca"
	},
	{
		"company": "Techo Bloc Ottawa",
		"link": "/member_directory/34951",
		"street": "6310 Hazeldean Rd., P.O. Box 1791",
		"city": "Stittsville, ON",
		"postCode": "K2S 1B4",
		"contact": "Marco Recine",
		"phone": "(613) 836-2990",
		"website": "http://techo-bloc.com"
	},
	{
		"company": "Techtronic Industries Canada Inc.",
		"link": "/member_directory/33509",
		"street": "7303 Warden Ave. Ste. 202",
		"city": "Markham, ON",
		"postCode": "L3R 5Y6",
		"contact": "John Myers",
		"phone": "(416) 439-4181",
		"website": "http://ttigroup.com"
	},
	{
		"company": "Teddington Homes Inc.",
		"link": "/member_directory/33203",
		"street": "1315 Lawrence Ave. E. Ste. 519",
		"city": "Toronto, ON",
		"postCode": "M3A 3R3",
		"contact": "Reza Hosseinian",
		"phone": "(416) 800-0684",
		"website": "http://teddington.ca"
	},
	{
		"company": "Tego Bathroom Design & Renovation Centre",
		"link": "/member_directory/34772",
		"street": "1885 Merivale Rd.",
		"city": "Ottawa, ON",
		"postCode": "K2G 1E5",
		"contact": "John Manzo",
		"phone": "(613) 521-3318",
		"website": "http://tego.ca"
	},
	{
		"company": "Teixeira Construction Inc.",
		"link": "/member_directory/35621",
		"street": "4 harris Point Lane",
		"city": "Westport, ON",
		"postCode": "K0G 1X0",
		"contact": "John Teixeira",
		"phone": "(613) 273-5555",
		"website": "http://teixeirahomes.com"
	},
	{
		"company": "Tek Support Group Inc.",
		"link": "/member_directory/37067",
		"street": "75 Bristol Road E Unit 194",
		"city": "Mississauga, ON",
		"postCode": "L4Z 3P2",
		"contact": "Bonnie Brunette",
		"phone": null,
		"website": null
	},
	{
		"company": "Tek Systems Group",
		"link": "/member_directory/35584",
		"street": "25-5100 S. Service Rd.",
		"city": "Burlington, ON",
		"postCode": "L7L 6A5",
		"contact": "Pat Consoli",
		"phone": "(905) 561-2715",
		"website": "http://teksystemsgroup.com"
	},
	{
		"company": "Telephone City Aggregates (TCA)",
		"link": "/member_directory/34389",
		"street": "14442 Hwy #50 PO Box 310",
		"city": "Bolton, ON",
		"postCode": "L7E 5T3",
		"contact": "Scott Gayton",
		"phone": "(519) 753-3434",
		"website": "http://jamesdick.com"
	},
	{
		"company": "Tempco Heating & Sheet Metal Inc.",
		"link": "/member_directory/33510",
		"street": "180 Belfield Rd.",
		"city": "Etobicoke, ON",
		"postCode": "M9W 1H1",
		"contact": "Ramzi Jeries",
		"phone": "(416) 766-1237",
		"website": "http://tempcohvac.ca"
	},
	{
		"company": "Templehouse Renovations Ltd.",
		"link": "/member_directory/33710",
		"street": "745 Queen St. E.",
		"city": "Toronto, ON",
		"postCode": "M4M 1H3",
		"contact": "Chris Prosser",
		"phone": "(416) 932-9099",
		"website": "http://templehouse.com"
	},
	{
		"company": "Teraprobe Inc",
		"link": "/member_directory/37206",
		"street": "1012 Kelly Lake Rd",
		"city": "Sudbury, ON",
		"postCode": "P3E 5P4",
		"contact": "705 670 0460",
		"phone": null,
		"website": null
	},
	{
		"company": "TerCot Development Inc.",
		"link": "/member_directory/33204",
		"street": "56 The Esplanade Ste. 206",
		"city": "Toronto, ON",
		"postCode": "M5E 1A7",
		"contact": "Joe Valela",
		"phone": "(416) 309-9272",
		"website": "http://tercot.com"
	},
	{
		"company": "Terra Brook Homes Inc.",
		"link": "/member_directory/33205",
		"street": "241 Applewood Cres. Ste. 3",
		"city": "Concord, ON",
		"postCode": "L4K 4E6",
		"contact": "Corey DiCarlo",
		"phone": "(905) 660-2432",
		"website": "http://terrabrookhomes.ca"
	},
	{
		"company": "Terra Media Design Ltd.",
		"link": "/member_directory/34088",
		"street": "25 Lesmill Rd. Unit C",
		"city": "Toronto, ON",
		"postCode": "M3B 2T3",
		"contact": "Ariana Stultz",
		"phone": "(416) 510-8856",
		"website": "http://terramedia.ca"
	},
	{
		"company": "Terra Nova Building Corporation",
		"link": "/member_directory/34718",
		"street": "P.O. Box 4185, Station E",
		"city": "Ottawa, ON",
		"postCode": "K1S 5B2",
		"contact": "John Henry",
		"phone": "(613) 769-2697",
		"website": "http://terranovabuildingcorp.com"
	},
	{
		"company": "Terra Nova Truss",
		"link": "/member_directory/35628",
		"street": "P.O. Box 178",
		"city": "Glenburnie, ON",
		"postCode": "K0H 1S0",
		"contact": "Mark R. Fox",
		"phone": "(613) 546-5850",
		"website": "http://terranovatruss.com"
	},
	{
		"company": "Terra Nova Truss",
		"link": "/member_directory/37174",
		"street": "Box 178  2602 Perth Road",
		"city": "Glenburnie, ON",
		"postCode": "K0K 1S0",
		"contact": "Christine Hollywood",
		"phone": "613 546 5850",
		"website": null
	},
	{
		"company": "Terra Nova Truss",
		"link": "/member_directory/34952",
		"street": "P.O. Box 178",
		"city": "Glenburnie, ON",
		"postCode": "K0H 1S0",
		"contact": "Wayne Corbin",
		"phone": "(613) 546-5850",
		"website": null
	},
	{
		"company": "Terra View Custom Homes Ltd.",
		"link": "/member_directory/35095",
		"street": "45 Speedvale Ave. E., Unit 5",
		"city": "Guelph, ON",
		"postCode": "N1H 1J2",
		"contact": "David Brix",
		"phone": "(519) 763-8580",
		"website": null
	},
	{
		"company": "Terra View Homes",
		"link": "/member_directory/36785",
		"street": "45 Speedvale Ave. E., Unit 5",
		"city": "Guelph, ON",
		"postCode": "N1H 1J2",
		"contact": "Dave Brix",
		"phone": "(519) 763-8580",
		"website": "http://terra-view.com"
	},
	{
		"company": "Terraventure Realty Group Ltd.",
		"link": "/member_directory/34089",
		"street": "4685 Yonge St. Ste. 202",
		"city": "Toronto, ON",
		"postCode": "M2N 5M3",
		"contact": "Frank Reiss",
		"phone": "(416) 201-2225",
		"website": null
	},
	{
		"company": "Terridar Builders Inc.",
		"link": "/member_directory/34719",
		"street": "14 Cedar Lane",
		"city": "Smiths Falls, ON",
		"postCode": "K7A 4S5",
		"contact": "Michael Martin",
		"phone": "(613) 283-8347",
		"website": "http://terridar.com"
	},
	{
		"company": "Teskey Concrete Company Corp.",
		"link": "/member_directory/33511",
		"street": "20 Murray Rd.",
		"city": "Downsview, ON",
		"postCode": "M3K 1T2",
		"contact": "Mark Teskey",
		"phone": "(416) 638-0340",
		"website": "http://teskeyconcrete.com"
	},
	{
		"company": "TFP Stairs and Railings",
		"link": "/member_directory/35658",
		"street": "550 Cataraqui Woods Dr.",
		"city": "Kingston, ON",
		"postCode": "K7P 2Y5",
		"contact": "Don Hogan",
		"phone": "(613) 384-7362",
		"website": null
	},
	{
		"company": "Thames Crest Farms Ltd.",
		"link": "/member_directory/36540",
		"street": "301 - 100 Wellington St. Ste. 225",
		"city": "London, ON",
		"postCode": "N6B 2K6",
		"contact": "Craig Linton",
		"phone": "(519) 672-4011",
		"website": null
	},
	{
		"company": "Thames Valley Engineering Inc.",
		"link": "/member_directory/34423",
		"street": "392 Park Ave. E., Suite 100",
		"city": "Chatham, ON",
		"postCode": "N7M 5Y5",
		"contact": "Win Elzinga",
		"phone": "(519) 354-2193",
		"website": null
	},
	{
		"company": "That's Fab Design",
		"link": "/member_directory/35978",
		"street": "5659 Magnolia Dr.",
		"city": "Niagara Falls, ON",
		"postCode": "L2H 3J4",
		"contact": "Wendi Pelfrey",
		"phone": "(905) 327-1053",
		"website": null
	},
	{
		"company": "The Conscious Builder",
		"link": "/member_directory/34664",
		"street": "5840 Red Castle Ridge",
		"city": "Manotick, ON",
		"postCode": "K4M 0A7",
		"contact": "Casey Grey",
		"phone": "(613) 853-0693",
		"website": "http://cgreyconstruction.com"
	},
	{
		"company": "The Interprovincial Group",
		"link": "/member_directory/37087",
		"street": "1315 Morningside Ave",
		"city": "Toronto, ON",
		"postCode": "M1B 3C5",
		"contact": "Mark Wade",
		"phone": "416-283-5555",
		"website": null
	},
	{
		"company": "The Landscape Depot",
		"link": "/member_directory/37196",
		"street": "4382 Montrose Rd",
		"city": "Niagara Falls, ON",
		"postCode": "NL2H 1K2",
		"contact": "Blu Desrosiers",
		"phone": "905 380 3237",
		"website": null
	},
	{
		"company": "The Real Estate Book - Guelph & Wellington County",
		"link": "/member_directory/37190",
		"street": "436 Woodrow Drive",
		"city": "Waterloo, ON",
		"postCode": "N2T 2V6",
		"contact": "Jon Beauchesne",
		"phone": "519-841-3145",
		"website": null
	},
	{
		"company": "Thermal Pro Insulation",
		"link": "/member_directory/34395",
		"street": "469 Hardy Rd.",
		"city": "BRANTFORD, ON",
		"postCode": "N3T 5L8",
		"contact": "Shawn Hagan",
		"phone": "(519) 751-1905",
		"website": "http://thermalpro.ca"
	},
	{
		"company": "ThermEco Construction",
		"link": "/member_directory/37114",
		"street": "7 Briarwood Crt",
		"city": "Midhurst, ON",
		"postCode": "L0L 1X0",
		"contact": "Paul Stevens",
		"phone": "705 737 2850",
		"website": "http://thermecoconstruction.com"
	},
	{
		"company": "Thermo Seal Insulation Systems",
		"link": "/member_directory/36164",
		"street": "51 Stephenson Rd. 12 W",
		"city": "Utterson, ON",
		"postCode": "P0B 1M0",
		"contact": "Bob Stillman",
		"phone": "(705) 761-8487",
		"website": "http://thermosealinsulation.ca"
	},
	{
		"company": "Thermo Seal Insulation Systems",
		"link": "/member_directory/36461",
		"street": "51 Stephenson Rd. Unit #12",
		"city": "Utterson, ON",
		"postCode": "P0B 1M0",
		"contact": "TBA",
		"phone": "1-800-461-5672",
		"website": null
	},
	{
		"company": "Thomas Cochren Homes",
		"link": "/member_directory/35343",
		"street": "P. O. Box 1300 95 Hamilton St. N. Ste. 6",
		"city": "Waterdown, ON",
		"postCode": "L0R 2H0",
		"contact": "Tom Cochren",
		"phone": "(905) 689-3204",
		"website": "http://thomascochrenhomes.com"
	},
	{
		"company": "Thomas Feeley Construction Ltd.",
		"link": "/member_directory/33206",
		"street": "4597 Kingston Rd. Ste. 209",
		"city": "Toronto, ON",
		"postCode": "M1E 2P3",
		"contact": "Brian Feeley",
		"phone": "(416) 284-9304",
		"website": null
	},
	{
		"company": "Thomas Wieland Construction Ltd.",
		"link": "/member_directory/34487",
		"street": "3154 Harmony Rd. N.",
		"city": "Oshawa, ON",
		"postCode": "L1H 8L7",
		"contact": "Thomas Wieland",
		"phone": "(905) 655-4683",
		"website": null
	},
	{
		"company": "Thomasfield Homes",
		"link": "/member_directory/34613",
		"street": "P.O. Box 1112, 295 S.gate Dr. Unit 17",
		"city": "Guelph, ON",
		"postCode": "N1H 6N3",
		"contact": "Tom McLaughlin",
		"phone": "(519) 836-4332",
		"website": null
	},
	{
		"company": "Thomasfield Homes Ltd.",
		"link": "/member_directory/35096",
		"street": "295 S.gate Dr., P.O. Box 1112",
		"city": "Guelph, ON",
		"postCode": "N1H 6N3",
		"contact": "Tom McLaughlin",
		"phone": "(519) 836-4332",
		"website": null
	},
	{
		"company": "Thomasfield Homes Ltd.",
		"link": "/member_directory/36786",
		"street": "295 S.gate Dr., P.O. Box 1112",
		"city": "Guelph, ON",
		"postCode": "N1H 6N3",
		"contact": "Tom McLaughlin",
		"phone": "(519) 836-4332",
		"website": "http://thomasfieldhomes.com"
	},
	{
		"company": "Thomson, Rogers",
		"link": "/member_directory/34090",
		"street": "390 Bay St. Ste. 3100",
		"city": "Toronto, ON",
		"postCode": "M5H 1W2",
		"contact": "Roger Beaman",
		"phone": "(416) 868-3157",
		"website": "http://thomsonrogers.com"
	},
	{
		"company": "Thornridge Homes Ltd.",
		"link": "/member_directory/33207",
		"street": "225 Bradwick Dr. Unit 18",
		"city": "Concord, ON",
		"postCode": "L4K 1K7",
		"contact": "Marlene DiGiuseppe",
		"phone": "(905) 669-4483",
		"website": "http://thornridgehomes.com"
	},
	{
		"company": "Three Hills Engineering",
		"link": "/member_directory/36224",
		"street": "293 Dundas St. W.",
		"city": "Belleville, ON",
		"postCode": "K8P 1A9",
		"contact": "Curtis Vreugdenhil",
		"phone": "(613) 920-6415",
		"website": null
	},
	{
		"company": "Three Season Complete Renovations Inc.",
		"link": "/member_directory/33711",
		"street": "566 River Rd.",
		"city": "Belfountain, ON",
		"postCode": "L7K 0E5",
		"contact": "Michael Nippard",
		"phone": "(647) 968-6455",
		"website": null
	},
	{
		"company": "Three W Construction",
		"link": "/member_directory/36309",
		"street": "132 Main St., P.O. Box 207",
		"city": "Beachburg, ON",
		"postCode": "K0J 1C0",
		"contact": "Ian Wright",
		"phone": "(613) 582-3513",
		"website": null
	},
	{
		"company": "Thunder Bay Hydro",
		"link": "/member_directory/36722",
		"street": "34 N. Cumberland St.",
		"city": "Thunder Bay, ON",
		"postCode": "P7A 4K9",
		"contact": "Bill Willis",
		"phone": "(807) 343-1111",
		"website": null
	},
	{
		"company": "Tibro Developments Ltd.",
		"link": "/member_directory/33208",
		"street": "11 The Bridle Path",
		"city": "North York, ON",
		"postCode": "M2L 1C9",
		"contact": "Sarit Chandaria",
		"phone": "(647) 426-3415",
		"website": "http://theladysmith.com"
	},
	{
		"company": "Tice River Estates Inc.",
		"link": "/member_directory/36787",
		"street": "1919 Albion Rd.",
		"city": "Etobicoke, ON",
		"postCode": "M9W 6J9",
		"contact": "Matthew DiDonato",
		"phone": "(416) 674-5717",
		"website": "http://ticeriverhomes.com"
	},
	{
		"company": "Tickner and Associates Inc.",
		"link": "/member_directory/34091",
		"street": "94 Oak Ave.",
		"city": "Richmond Hill, ON",
		"postCode": "L4C 6R7",
		"contact": "Roger Tickner",
		"phone": "(416) 891-7120",
		"website": "http://safetyway.com"
	},
	{
		"company": "Tiffany Park Homes",
		"link": "/member_directory/33209",
		"street": "601 Magnetic Dr. Unit 1 &amp; 2",
		"city": "North York, ON",
		"postCode": "M3J 3J2",
		"contact": "S. Saitowitz",
		"phone": "(416) 665-8880",
		"website": "http://tiffanyparkhomes.com"
	},
	{
		"company": "TIM-BR Mart",
		"link": "/member_directory/36321",
		"street": "10 Matthews Ave.",
		"city": "Pembroke, ON",
		"postCode": "K8A 8A4",
		"contact": "Oran Nagle",
		"phone": "(613) 735-3195",
		"website": null
	},
	{
		"company": "Timber Green Landscaping Ltd.",
		"link": "/member_directory/35585",
		"street": "442 6th Concession E. R.R.#1",
		"city": "Millgrove, ON",
		"postCode": "L0R 1V0",
		"contact": "Henry Linde",
		"phone": "(905) 689-8917",
		"website": null
	},
	{
		"company": "Timberfield Roof Truss",
		"link": "/member_directory/35868",
		"street": "2016 Oxford St. E.",
		"city": "London, ON",
		"postCode": "N5H 2R8",
		"contact": "Gord Moir",
		"phone": "(519) 659-2711",
		"website": "http://timberfieldrooftruss.com"
	},
	{
		"company": "Timberland General Contractors (Windsor) Inc.",
		"link": "/member_directory/36958",
		"street": "6224 Wales Court",
		"city": "Windsor, ON",
		"postCode": "N9J 3R7",
		"contact": "Gino Piccioni",
		"phone": "(519) 978-3877",
		"website": "http://timberlandhomes.ca"
	},
	{
		"company": "Timberlea Construction And Roofing Ltd",
		"link": "/member_directory/33712",
		"street": "1295 Eglinton Ave. E. Unit 10",
		"city": "Mississauga, ON",
		"postCode": "L4W 3E6",
		"contact": "Chester Czoraj",
		"phone": "(905) 602-5959",
		"website": "http://timberleaconstruction.com"
	},
	{
		"company": "Timberline Custom Homes",
		"link": "/member_directory/36088",
		"street": "5584 Hwy 28",
		"city": "Woodview, ON",
		"postCode": "K0L 3E0",
		"contact": "Ray Northey",
		"phone": "(705) 654-4312",
		"website": null
	},
	{
		"company": "Timberworx Construction Inc.",
		"link": "/member_directory/35384",
		"street": "5 Spencer Cres.",
		"city": "Guelph, ON",
		"postCode": "N1L 1N1",
		"contact": "Shawn Marsh",
		"phone": "(226) 780-0234",
		"website": "http://timberworx.ca"
	},
	{
		"company": "Timberworx Custom Homes",
		"link": "/member_directory/35097",
		"street": "Box 21027 RPO Campus",
		"city": "Guelph, ON",
		"postCode": "N1G 4T3",
		"contact": "Shawn Marsh",
		"phone": "226-780-0234",
		"website": null
	},
	{
		"company": "Time Development Group Inc.",
		"link": "/member_directory/33210",
		"street": "7100 Woodbine Ave. Unit 206",
		"city": "Markham, ON",
		"postCode": "L3R 5J2",
		"contact": "Mike Wang",
		"phone": "(905) 604-5766",
		"website": "http://timedevelopmentgroup.com"
	},
	{
		"company": "Timeless Glass & Mirror",
		"link": "/member_directory/33512",
		"street": "42 Lepage Crt.",
		"city": "North York, ON",
		"postCode": "M3J 1Z9",
		"contact": "Jeff Canavor",
		"phone": "(416) 631-0276",
		"website": "http://timelessgm.com"
	},
	{
		"company": "Timeless Millwork Inc.",
		"link": "/member_directory/34274",
		"street": "161 Connie Cres. Unit 4",
		"city": "Concord, ON",
		"postCode": "L4K 1L3",
		"contact": "Antonio Freitas",
		"phone": "(905) 760-1985",
		"website": "http://timelessmillwork.com"
	},
	{
		"company": "Times Group Corporation",
		"link": "/member_directory/33211",
		"street": "3985 Highway 7 E. Ste. 202",
		"city": "Markham, ON",
		"postCode": "L3R 2A2",
		"contact": "Shadi Aghaei",
		"phone": "(905) 940-6286",
		"website": "http://timesgroupcorp.com"
	},
	{
		"company": "TIPEQ Inc.",
		"link": "/member_directory/33713",
		"street": "155 Beecroft Rd. Ste. 2716",
		"city": "Toronto, ON",
		"postCode": "M2N 7C6",
		"contact": "Oleksandr Lerkhbaum",
		"phone": "(416) 623-8159",
		"website": "http://tipeqrenovations.ca"
	},
	{
		"company": "Tishler Custom Homes Ltd.",
		"link": "/member_directory/33212",
		"street": "1174 Eglinton Ave. W.",
		"city": "Toronto, ON",
		"postCode": "M6C 2E3",
		"contact": "Phil Tishler",
		"phone": "(416) 785-0060",
		"website": "http://tishlerhomes.com"
	},
	{
		"company": "Titan Automation",
		"link": "/member_directory/36622",
		"street": "380 Welllington St. Tower B, Ste. 600",
		"city": "London, ON",
		"postCode": "N6A 5B5",
		"contact": "Victor Savtchouk",
		"phone": "1-866-283-8737",
		"website": null
	},
	{
		"company": "Titan Mortgage Group",
		"link": "/member_directory/35450",
		"street": "13 King St. W.",
		"city": "Stoney Creek, ON",
		"postCode": "L8G 1G9",
		"contact": "Joseph Trombetta",
		"phone": "(905) 662-6221",
		"website": "http://titanmortgages.ca"
	},
	{
		"company": "TitlePLUS",
		"link": "/member_directory/34092",
		"street": "250 Yonge St. Ste. 3101, P.O. Box 3",
		"city": "Toronto, ON",
		"postCode": "M5B 2L7",
		"contact": "Lisa Weinstein",
		"phone": "(416) 598-5866",
		"website": "http://titleplus.ca"
	},
	{
		"company": "TLC Landscaping",
		"link": "/member_directory/35869",
		"street": "2026 Oxford St. E.",
		"city": "London, ON",
		"postCode": "N5V 2Z8",
		"contact": "Brad Cundy",
		"phone": "(519) 661-6895",
		"website": "http://tlc.ca"
	},
	{
		"company": "TMC Construction",
		"link": "/member_directory/34405",
		"street": "63 Given Rd., R.R. #7",
		"city": "Chatham, ON",
		"postCode": "N7M 0C7",
		"contact": "Trevor Mailloux",
		"phone": "(519) 436-1044",
		"website": null
	},
	{
		"company": "Today's Homes, Metroland Media",
		"link": "/member_directory/34093",
		"street": "580B Steven Crt.",
		"city": "Newmarket, ON",
		"postCode": "L3Y 4X1",
		"contact": "Debra Weller",
		"phone": "(905) 853-8888",
		"website": "http://yrmg.com"
	},
	{
		"company": "Tolin Enterprises Ltd.",
		"link": "/member_directory/34275",
		"street": "40 Snidercroft Rd. Unit 5",
		"city": "Vaughan, ON",
		"postCode": "L4K 0B5",
		"contact": "Anthony Gargaro",
		"phone": "(905) 669-2711",
		"website": null
	},
	{
		"company": "Tom Prentice & Son's Trucking",
		"link": "/member_directory/35285",
		"street": "P.O. Box 283",
		"city": "Minden, ON",
		"postCode": "K0M 2K0",
		"contact": "Jack Prentice",
		"phone": "(705) 286-1428",
		"website": null
	},
	{
		"company": "Tomar Custom Homes",
		"link": "/member_directory/34720",
		"street": "54 Bert G. Argue Dr.",
		"city": "Stittsville, ON",
		"postCode": "K2S 2H2",
		"contact": "Thomas Clifford",
		"phone": "(613) 836-1179",
		"website": "http://tomarcustomhomes.com"
	},
	{
		"company": "Tomarria Construction Management Ltd.",
		"link": "/member_directory/33213",
		"street": "7 Deer Run",
		"city": "Uxbridge, ON",
		"postCode": "L9P 1R4",
		"contact": "Angela Quattrocchi",
		"phone": "(416) 677-7204",
		"website": "http://tomarria.com"
	},
	{
		"company": "Tomart Tile Ltd.",
		"link": "/member_directory/34276",
		"street": "225 Bradwick Dr. Unit 4 &amp; 5",
		"city": "Concord, ON",
		"postCode": "L4K 1K7",
		"contact": "Steve Buljan",
		"phone": "(905) 738-8034",
		"website": null
	},
	{
		"company": "Tombro Trucking Ltd.",
		"link": "/member_directory/34277",
		"street": "320 Market Dr.",
		"city": "Milton, ON",
		"postCode": "L9T 5A4",
		"contact": "Mike Thomson",
		"phone": "(905) 693-1800",
		"website": null
	},
	{
		"company": "Tomlinson Environmental Services Ltd.",
		"link": "/member_directory/34953",
		"street": "970 Moodie Dr.",
		"city": "Ottawa, ON",
		"postCode": "K2R 1H3",
		"contact": "Terry Wagner",
		"phone": "(613) 820-2332",
		"website": "http://tomlinsongroup.com"
	},
	{
		"company": "Tomlinson Ready Mix Ltd.",
		"link": "/member_directory/34954",
		"street": "P.O. Box 191, 8125 Russell Rd.",
		"city": "Navan, ON",
		"postCode": "K4B 1J4",
		"contact": "Luc Brazeau",
		"phone": "(613) 835-3413",
		"website": null
	},
	{
		"company": "Tompkin Bros Landscaping and Excavating",
		"link": "/member_directory/36302",
		"street": "441 Craig Rd.",
		"city": "Belleville, ON",
		"postCode": "K8N 4Z6",
		"contact": "Sherry Tompkins",
		"phone": "(613) 962-0040",
		"website": null
	},
	{
		"company": "Tony Ferkul Construction Management Group",
		"link": "/member_directory/33214",
		"street": "1384 Londonderry Blvd.",
		"city": "Mississauga, ON",
		"postCode": "L5E 2S3",
		"contact": "Tony Ferkul",
		"phone": "(416) 706-4353",
		"website": null
	},
	{
		"company": "Toolbox Group Inc. (The)",
		"link": "/member_directory/33714",
		"street": "18 Princeton Crt.",
		"city": "Whitby, ON",
		"postCode": "L1M 2M3",
		"contact": "Andrew Galletta",
		"phone": "(416) 991-2229",
		"website": "http://thetoolbox.ca"
	},
	{
		"company": "Toolbox Strategies Inc",
		"link": "/member_directory/34868",
		"street": "2630 Bristol Circle Ste. 600",
		"city": "Oakville, ON",
		"postCode": "L6H 6Z7",
		"contact": "Cary Kokkonen",
		"phone": "(905) 829-2693",
		"website": "http://toolboxstrategies.com"
	},
	{
		"company": "Toolbox Strategies Inc.",
		"link": "/member_directory/36876",
		"street": "2630 Bristol Cricle, Suite 600",
		"city": "Oakville, ON",
		"postCode": "L6H 6Z7",
		"contact": "Cary Kokkonen",
		"phone": "(905) 507-0545",
		"website": "http://toolboxstrategies.com"
	},
	{
		"company": "Toolbox Strategies Inc.",
		"link": "/member_directory/34094",
		"street": "2630 Bristol Circle",
		"city": "Oakville, ON",
		"postCode": "L6H 6Z7",
		"contact": "Cary Kokkonen",
		"phone": "(905) 829-2693",
		"website": "http://toolboxstrategies.com"
	},
	{
		"company": "Toolbox Strategies Inc.",
		"link": "/member_directory/35548",
		"street": "2630 Bristol Circle Suite 600",
		"city": "Oakville, ON",
		"postCode": "L6H 6Z7",
		"contact": "Cary Kokkonen",
		"phone": "(905) 829-2693",
		"website": "http://toolboxstrategies.com"
	},
	{
		"company": "Top Floor Design",
		"link": "/member_directory/34533",
		"street": "78 Farncomb Cres.",
		"city": "Bowmanville, ON",
		"postCode": "L1C 4L8",
		"contact": "Bobbi Ann Brooks",
		"phone": "(905) 623-0670",
		"website": null
	},
	{
		"company": "Top Performance Cleaning & Maintenance Ltd.",
		"link": "/member_directory/34955",
		"street": "343 Preston St. 11th Flr.",
		"city": "Ottawa, ON",
		"postCode": "K1S 1N4",
		"contact": "Pierre-Luc Gagnon",
		"phone": "(613) 880-0124",
		"website": null
	},
	{
		"company": "Top Quality Exterior Design",
		"link": "/member_directory/35049",
		"street": "343 Preston St. 11th Flr.",
		"city": "Ottawa, ON",
		"postCode": "K1S 1N4",
		"contact": "Pierre-Luc Gagnon",
		"phone": "(613) 880-0124",
		"website": null
	},
	{
		"company": "Top Shop, The",
		"link": "/member_directory/35870",
		"street": "502 First St.",
		"city": "London, ON",
		"postCode": "N5V 1Z3",
		"contact": "Carole McSweeney",
		"phone": "(519) 455-9400",
		"website": "http://the-topshop.com"
	},
	{
		"company": "Torkin Manes LLP",
		"link": "/member_directory/34095",
		"street": "151 Yonge St. Ste. 1500",
		"city": "Toronto, ON",
		"postCode": "M5C 2W7",
		"contact": "Leonard Rodness",
		"phone": "(416) 777-5409",
		"website": "http://torkinmanes.com"
	},
	{
		"company": "Torlys",
		"link": "/member_directory/37057",
		"street": "1900 Derry Rd E",
		"city": "Mississauga, ON",
		"postCode": "L5S 1Y6",
		"contact": "Jon Kronemeyer",
		"phone": "905 696 2365",
		"website": null
	},
	{
		"company": "Torlys Inc.",
		"link": "/member_directory/33513",
		"street": "1900 Derry Rd. E.",
		"city": "Mississauga, ON",
		"postCode": "L5S 1Y6",
		"contact": "Cam Bowen",
		"phone": "1-800-461-2573",
		"website": "http://torlys.com"
	},
	{
		"company": "Toronto Condo Boutique",
		"link": "/member_directory/34096",
		"street": "1867 Yonge St. Ste. 100",
		"city": "Toronto, ON",
		"postCode": "M4S 1Y5",
		"contact": "Susan Toughlouian",
		"phone": "(416) 721-3670",
		"website": "http://torontocondoboutique.com"
	},
	{
		"company": "Toronto Custom Concepts Inc.",
		"link": "/member_directory/33715",
		"street": "1750 The Queensway Ste. 1101",
		"city": "Toronto, ON",
		"postCode": "M9C 5H5",
		"contact": "Dave Jurinic",
		"phone": "(416) 806-2232",
		"website": "http://torontocustomconcepts.com"
	},
	{
		"company": "Toronto Digital Imaging",
		"link": "/member_directory/36811",
		"street": "2201 Drew Rd.",
		"city": "Mississauga, ON",
		"postCode": "L5S 1E5",
		"contact": "David Snook",
		"phone": "(905) 672-9211",
		"website": "http://tdi-imaging.com"
	},
	{
		"company": "Toronto Digital Imaging",
		"link": "/member_directory/35549",
		"street": "2201 Drew Rd.",
		"city": "Mississauga, ON",
		"postCode": "L5S 1E5",
		"contact": "Dan Lethbridge",
		"phone": "(905) 672-9211",
		"website": null
	},
	{
		"company": "Toronto Digital Imaging",
		"link": "/member_directory/33514",
		"street": "2201 Drew Rd.",
		"city": "Mississauga, ON",
		"postCode": "L5S 1E5",
		"contact": "Carmine Caravaggio",
		"phone": "(905) 672-9211",
		"website": "http://tdi-imaging.com"
	},
	{
		"company": "Toronto Dominion Bank / Canada Trust",
		"link": "/member_directory/34869",
		"street": "3671 Strancherd Dr.",
		"city": "Ottawa, ON",
		"postCode": "K2J 4G8",
		"contact": "Steven Kinnari",
		"phone": "(613) 783-6119",
		"website": null
	},
	{
		"company": "Toronto Port Lands Company",
		"link": "/member_directory/33215",
		"street": "123 Front St. W. Ste. 1610",
		"city": "Toronto, ON",
		"postCode": "M5J 2M2",
		"contact": "Michael Kraljevic",
		"phone": "(416) 214-4640",
		"website": "http://tplc.ca"
	},
	{
		"company": "Toronto Star Newspapers Ltd.",
		"link": "/member_directory/34097",
		"street": "1 Yonge St. 4th Flr. Advertising",
		"city": "Toronto, ON",
		"postCode": "M5E 1E6",
		"contact": "Brian Cordingley",
		"phone": "(416) 869-4154",
		"website": "http://thestar.com"
	},
	{
		"company": "Toronto Sun",
		"link": "/member_directory/34098",
		"street": "333 King St. E.",
		"city": "Toronto, ON",
		"postCode": "M5A 3X5",
		"contact": "Jeremy Van Sickle",
		"phone": "(416) 947-2466",
		"website": "http://torontosun.ca"
	},
	{
		"company": "Toronto Sun (The)",
		"link": "/member_directory/34534",
		"street": "333 King St. E.",
		"city": "Toronto, ON",
		"postCode": "M5A 3X5",
		"contact": "Jeremy Van Sickle",
		"phone": "(416) 947-2370",
		"website": "http://torontosun.com"
	},
	{
		"company": "Toronto Tarping Corp.",
		"link": "/member_directory/34278",
		"street": "3 Browning Crt.",
		"city": "Bolton, ON",
		"postCode": "L7E 5S6",
		"contact": "David Vigliatore",
		"phone": "(905) 857-3266",
		"website": "http://torontotarping.com"
	},
	{
		"company": "Total Flame",
		"link": "/member_directory/35550",
		"street": "325 Millen Rd. Unit 2",
		"city": "Stoney Creek, ON",
		"postCode": "L8E 2H3",
		"contact": "Joe Sousa",
		"phone": "(905) 662-1160",
		"website": "http://totalflame.com"
	},
	{
		"company": "Total Home Centre",
		"link": "/member_directory/36647",
		"street": "754-B Lasalle Blvd",
		"city": "Sudbury, ON",
		"postCode": "P3A 4V4",
		"contact": "Denis Payment",
		"phone": "(705) 560-5222",
		"website": "http://totalhomecentre.com"
	},
	{
		"company": "Total Living Concepts",
		"link": "/member_directory/36408",
		"street": "464 Penetanguishene Rd, R.R.#1",
		"city": "Barrie, ON",
		"postCode": "L4M 4Y8",
		"contact": "Glen Prairie",
		"phone": "(705) 721-9148",
		"website": null
	},
	{
		"company": "Total Renovations Inc.",
		"link": "/member_directory/33716",
		"street": "381 Glen Manor Dr.",
		"city": "Toronto, ON",
		"postCode": "M4E 3Y1",
		"contact": "Mark Madigan",
		"phone": "(416) 694-2488",
		"website": "http://totalrenovations.com"
	},
	{
		"company": "Total Site Services",
		"link": "/member_directory/35286",
		"street": "6522 Gelert Rd.",
		"city": "Haliburton, ON",
		"postCode": "K0M 1S0",
		"contact": "Pat Casey",
		"phone": "(705) 457-9558",
		"website": null
	},
	{
		"company": "Touchstone Homes (Laredo Construction Inc.)",
		"link": "/member_directory/33216",
		"street": "15 Lesmill Rd. Unit 1",
		"city": "North York, ON",
		"postCode": "M3B 2T3",
		"contact": "Lorne Leibel",
		"phone": "(416) 798-7220",
		"website": null
	},
	{
		"company": "Tower Hill Development Corporation",
		"link": "/member_directory/33217",
		"street": "65 Queen St. W. Ste. 440",
		"city": "Toronto, ON",
		"postCode": "M5H 2M5",
		"contact": "Russell Masters",
		"phone": "(416) 361-1399",
		"website": null
	},
	{
		"company": "Town Media c/o Sun Media Publishing",
		"link": "/member_directory/35451",
		"street": "100 Renfrew Dr. Unit 100",
		"city": "Markham, ON",
		"postCode": "L3R 9R6",
		"contact": "Paul McNair",
		"phone": "(905) 634-8003",
		"website": "http://thehomeshow.ca"
	},
	{
		"company": "Town of Goderich",
		"link": "/member_directory/34312",
		"street": "57 W. St.",
		"city": "Goderich, ON",
		"postCode": "N7A 2K5",
		"contact": "Jason Dykstra",
		"phone": "(519) 524-8344",
		"website": null
	},
	{
		"company": "Town of Orangeville",
		"link": "/member_directory/34631",
		"street": "87 BRd.way",
		"city": "Orangeville, ON",
		"postCode": "L9W 1K2",
		"contact": "Debra Sheardown",
		"phone": "(519) 941-0440",
		"website": "http://orangeville.ca"
	},
	{
		"company": "Town of St. Marys",
		"link": "/member_directory/36573",
		"street": "P. O. Box 998 408 James St. North,",
		"city": "St. Marys,, ON",
		"postCode": "N4X 1B6",
		"contact": "Grant Brower",
		"phone": "(519) 284-2340",
		"website": null
	},
	{
		"company": "Town Square Developments Inc.",
		"link": "/member_directory/33218",
		"street": "152 Kiloran Ave.",
		"city": "Woodbridge, ON",
		"postCode": "L4L 3M3",
		"contact": "Enzo Di Fonzo",
		"phone": "(905) 850-9367",
		"website": "http://townsquaredevelopments.ca"
	},
	{
		"company": "Townsend Electric Ltd.",
		"link": "/member_directory/34603",
		"street": "767 Simcoe St. S.",
		"city": "Oshawa, ON",
		"postCode": "L1H 4K5",
		"contact": "Jack Sanders",
		"phone": "(905) 723-2343",
		"website": null
	},
	{
		"company": "Township of Southwold",
		"link": "/member_directory/37143",
		"street": "25663 Southwold Line",
		"city": "Fingal, ON",
		"postCode": "N0L 1K0",
		"contact": "Ken Loveland",
		"phone": "519 869 2010",
		"website": "http://southwold.ca"
	},
	{
		"company": "Township of Woolwich",
		"link": "/member_directory/36877",
		"street": "24 Church St. W.",
		"city": "Elmira, ON",
		"postCode": "N3B 2Z6",
		"contact": "Peter VanderBeek",
		"phone": "(519) 669-6034",
		"website": "http://woolwich.ca"
	},
	{
		"company": "Townwood Homes Inc.",
		"link": "/member_directory/33219",
		"street": "1 Bradwick Dr. Ste. 1",
		"city": "Concord, ON",
		"postCode": "L4K 2T4",
		"contact": "Anthony Guglietti",
		"phone": "(905) 669-1615",
		"website": "http://townwoodhomes.com"
	},
	{
		"company": "Towsley Construction Co. Inc.",
		"link": "/member_directory/36959",
		"street": "2090 Fasan Dr.",
		"city": "Oldcastle, ON",
		"postCode": "N0R 1L0",
		"contact": "Brian Towsley",
		"phone": "(519) 737-7260",
		"website": "http://towsleyconstruction.com"
	},
	{
		"company": "Trademark Homes",
		"link": "/member_directory/34488",
		"street": "30 Caristrap St.",
		"city": "Bowmanville, ON",
		"postCode": "L1C 3Y7",
		"contact": "Anthony Camposeo Anna Camposeo",
		"phone": "(905) 922-4175",
		"website": null
	},
	{
		"company": "Trademark Signs Inc.",
		"link": "/member_directory/33515",
		"street": "10 Strada Dr. Unit 12",
		"city": "Woodbridge, ON",
		"postCode": "L4L 5W2",
		"contact": "Lindsay Masci",
		"phone": "(905) 856-8291",
		"website": "http://trademarksigns.com"
	},
	{
		"company": "Trader Corporation",
		"link": "/member_directory/35452",
		"street": "401 The West. Mall, 5th Floor",
		"city": "Etobicoke, ON",
		"postCode": "M9C 5J5",
		"contact": "Susan Maxwell",
		"phone": "(416) 580-1654",
		"website": "http://tradercorporation.com"
	},
	{
		"company": "Traditional Door Design & Millwork Ltd.",
		"link": "/member_directory/33516",
		"street": "261 Regina Rd.",
		"city": "Woodbridge, ON",
		"postCode": "L4L 8M3",
		"contact": "Michael Marchetti",
		"phone": "(416) 747-1992",
		"website": "http://traditionaldoor.com"
	},
	{
		"company": "Traditional Styles",
		"link": "/member_directory/36089",
		"street": "362 Indian Point Rd.",
		"city": "Coboconk, ON",
		"postCode": "K0M 1K0",
		"contact": "Michael Fobert",
		"phone": "(705) 454-3759",
		"website": null
	},
	{
		"company": "Trafalgar Engineering Ltd.",
		"link": "/member_directory/34099",
		"street": "481 Morden Rd. Unit 1",
		"city": "Oakville, ON",
		"postCode": "L6K 3W6",
		"contact": "Paul Cifoni",
		"phone": "(905) 338-3366",
		"website": null
	},
	{
		"company": "Trand Kitchens Inc",
		"link": "/member_directory/36701",
		"street": "2858 Hwy 144",
		"city": "Chelmsford, ON",
		"postCode": "P0M 1L0",
		"contact": "Bernie Chartrand",
		"phone": "(705) 855-5604",
		"website": null
	},
	{
		"company": "Tranquility Home Comfort Ltd.",
		"link": "/member_directory/34604",
		"street": "2 Wessex Dr.",
		"city": "Brooklin, ON",
		"postCode": "L1M 2C4",
		"contact": "Peter Watson",
		"phone": "(905) 655-8686",
		"website": "http://tranquilityhomecomfort.com"
	},
	{
		"company": "TransCanada Wood Products",
		"link": "/member_directory/37211",
		"street": "7735 County Road 27",
		"city": "Barrie, ON",
		"postCode": "L9J 0A4",
		"contact": "David McCarthy",
		"phone": "705 721 1116",
		"website": "http://transcanadagroup.on.ca"
	},
	{
		"company": "Trashco Solutions Corp.",
		"link": "/member_directory/37131",
		"street": "15 Atomic Ave.",
		"city": "Etobicoke, ON",
		"postCode": "M8Z 5K8",
		"contact": "Brett Johston",
		"phone": "416-857-0707",
		"website": null
	},
	{
		"company": "Travelers Canada",
		"link": "/member_directory/33276",
		"street": "20 Queen St. W. Ste. 300",
		"city": "Toronto, ON",
		"postCode": "M5H 3R3",
		"contact": "Howard Friedman",
		"phone": "(416) 360-8183",
		"website": "http://travelerscanada.ca"
	},
	{
		"company": "Treasure Hill Home Corp",
		"link": "/member_directory/33220",
		"street": "1681 Langstaff Rd. Ste. 1-5",
		"city": "Vaughan, ON",
		"postCode": "L4K 5T3",
		"contact": "Nicholas Fidei",
		"phone": "(416) 987-5500",
		"website": "http://treasurehillhomes.com"
	},
	{
		"company": "Tremco Barrier Solutions",
		"link": "/member_directory/33517",
		"street": "344 Coxmill Rd.",
		"city": "Barrie, ON",
		"postCode": "L4N 8Y3",
		"contact": "Clint Lindgren",
		"phone": "1-888-786-7593",
		"website": "http://tuff-n-dri.com/canada"
	},
	{
		"company": "Trenchline & Roads Inc.",
		"link": "/member_directory/35586",
		"street": "4637A Bartlett Rd.",
		"city": "Beamsville, ON",
		"postCode": "L0R 1B0",
		"contact": "Erwin Wall",
		"phone": "(905) 563-0075",
		"website": "http://trenchline.ca"
	},
	{
		"company": "Trent Concrete Contractors",
		"link": "/member_directory/36165",
		"street": "P.O. Box 33",
		"city": "Peterborough, ON",
		"postCode": "K9J 6Y5",
		"contact": "Jim Howran",
		"phone": "(705) 876-9417",
		"website": null
	},
	{
		"company": "Trent Security Systems",
		"link": "/member_directory/36117",
		"street": "P.O. Box 2481, 480 The Parkway",
		"city": "Peterborough, ON",
		"postCode": "K9J 7Y8",
		"contact": "Mike Iammancini",
		"phone": "(705) 748-2001",
		"website": "http://trentsecurity.com"
	},
	{
		"company": "Trenton Paving Co. Ltd.",
		"link": "/member_directory/36303",
		"street": "200-257 Coleman St.",
		"city": "Belleville, ON",
		"postCode": "K8P 3H9",
		"contact": "John Lanning",
		"phone": "(613) 394-6196",
		"website": "http://trentonpaving.com"
	},
	{
		"company": "Trevisana Kitchen & Interiors",
		"link": "/member_directory/37086",
		"street": "70 Clayson Rd Unit B",
		"city": "Toronto, ON",
		"postCode": "M9M 2G7",
		"contact": "gian Luigi Ongaro",
		"phone": "547-748-8874",
		"website": null
	},
	{
		"company": "TRH Group (The)",
		"link": "/member_directory/34100",
		"street": "261 Millway Ave. Unit 1",
		"city": "Concord, ON",
		"postCode": "L4K 4K9",
		"contact": "Al Aiello",
		"phone": "(905) 669-9517",
		"website": "http://trh-group.com"
	},
	{
		"company": "Tri City Readymix Ltd.",
		"link": "/member_directory/36923",
		"street": "36 Manitou Dr.",
		"city": "Kitchener, ON",
		"postCode": "N2C 1L3",
		"contact": "Ron Esbaugh",
		"phone": "(519) 894-0900",
		"website": "http://tcrconc.ca"
	},
	{
		"company": "Tri-Canadian Energy Ltd.",
		"link": "/member_directory/36994",
		"street": "9 McFarland Drive",
		"city": "Picton, ON",
		"postCode": "K0K 2T0",
		"contact": "Steve Van Dusen",
		"phone": "613-476-8237",
		"website": "http://tricanadianenergy.com"
	},
	{
		"company": "Tri-County Brick",
		"link": "/member_directory/37046",
		"street": "320 Home Street",
		"city": "Stratford, ON",
		"postCode": "N5A 7C9",
		"contact": "Shane Rand",
		"phone": "519-723-5151",
		"website": "http://tricountybrick.com"
	},
	{
		"company": "Tri-County Brick",
		"link": "/member_directory/36600",
		"street": "320 Home St.",
		"city": "Stratford, ON",
		"postCode": "N5A 7C9",
		"contact": "Steve Martin",
		"phone": "(519) 273-5151",
		"website": null
	},
	{
		"company": "Tri-County Brick company",
		"link": "/member_directory/36052",
		"street": "320 Home St.",
		"city": "Stratford, ON",
		"postCode": "N5A 7C9",
		"contact": "Steve Martin",
		"phone": "(519) 273-5151",
		"website": null
	},
	{
		"company": "Tri-Stucco Contractors Inc.",
		"link": "/member_directory/34279",
		"street": "2359 Royal Windsor Drive Unit 6",
		"city": "Mississauga, ON",
		"postCode": "L5J 4S9",
		"contact": "John Zita",
		"phone": "905 855 0173",
		"website": "http://tristucco.com"
	},
	{
		"company": "TRI-WAY General Construction Ltd.",
		"link": "/member_directory/34617",
		"street": "RR 2 351006 17th Line",
		"city": "Orangeville, ON",
		"postCode": "L9W 2Y9",
		"contact": "Richard Kamphuis",
		"phone": "(519) 941-2123",
		"website": null
	},
	{
		"company": "Triangle West Developments Inc.",
		"link": "/member_directory/33221",
		"street": "224 York Mills Rd.",
		"city": "Toronto, ON",
		"postCode": "M2L 1L1",
		"contact": "Gary Silverberg",
		"phone": "(416) 871-2004",
		"website": "http://artcondos.ca"
	},
	{
		"company": "Tribecca Finance",
		"link": "/member_directory/37098",
		"street": "261 Sheppard Ave W",
		"city": "Toronto, ON",
		"postCode": "M2N 1N4",
		"contact": "Frank Wang",
		"phone": "416-225-6900",
		"website": null
	},
	{
		"company": "Tribute Communities",
		"link": "/member_directory/34489",
		"street": "1815 Ironstone Manor, Unit 1",
		"city": "Pickering, ON",
		"postCode": "L1W 3W9",
		"contact": "Frank MacPhee",
		"phone": "(905) 839-3500",
		"website": "http://tributecommunities.com"
	},
	{
		"company": "Tribute Communities",
		"link": "/member_directory/33222",
		"street": "1815 Ironstone Manor Unit 1",
		"city": "Pickering, ON",
		"postCode": "L1W 3W9",
		"contact": "David Speigel",
		"phone": "(905) 839-3500",
		"website": "http://tributecommunities.com"
	},
	{
		"company": "Trican Masonry Contractors Inc.",
		"link": "/member_directory/34280",
		"street": "305 Iroquois Ave.",
		"city": "Mississauga, ON",
		"postCode": "L5G 1M8",
		"contact": "Avelino Fonseca",
		"phone": "(905) 278-7800",
		"website": "http://tricanmasonry.com"
	},
	{
		"company": "Tricap Properties Inc.",
		"link": "/member_directory/33223",
		"street": "85 Valleywood Dr.",
		"city": "Markham, ON",
		"postCode": "L3R 5E5",
		"contact": "David Woods",
		"phone": "(905) 470-8777",
		"website": "http://tricapproperties.com"
	},
	{
		"company": "Tricar Group (The)",
		"link": "/member_directory/35098",
		"street": "3800 Colonel Talbot Rd.",
		"city": "London, ON",
		"postCode": "N6P 1H5",
		"contact": "Adam Carapella",
		"phone": "(519) 546-6525",
		"website": null
	},
	{
		"company": "Tricar Group (The)",
		"link": "/member_directory/36541",
		"street": "3800Colonel Talbot Rd.,",
		"city": "London,, ON",
		"postCode": "N6P 1H5",
		"contact": "Adam Carapella",
		"phone": "(519) 652-8900",
		"website": null
	},
	{
		"company": "Tricar Group, The",
		"link": "/member_directory/35720",
		"street": "3800 Colonel Talbot Rd.",
		"city": "London, ON",
		"postCode": "N6P 1H5",
		"contact": "Adam Carapella",
		"phone": "(519) 652-8900",
		"website": "http://tricar.com"
	},
	{
		"company": "Tricon Capital Group Inc.",
		"link": "/member_directory/37068",
		"street": "1067 Yonge St",
		"city": "Toronto, ON",
		"postCode": "M4W 2L2",
		"contact": "Kerry Steer",
		"phone": "416-928-4346",
		"website": null
	},
	{
		"company": "Tridel Corporation",
		"link": "/member_directory/33224",
		"street": "4800 Dufferin St.",
		"city": "Downsview, ON",
		"postCode": "M3H 5S9",
		"contact": "James Ritchie",
		"phone": "(416) 661-9290",
		"website": "http://tridel.com"
	},
	{
		"company": "Tridon Group",
		"link": "/member_directory/35721",
		"street": "598 Upper Queens St.",
		"city": "London, ON",
		"postCode": "N6C 3T9",
		"contact": "Don De Jong",
		"phone": "(519) 521-7777",
		"website": "http://tridongroup.com"
	},
	{
		"company": "Trillium Custom Homes",
		"link": "/member_directory/36310",
		"street": "470 Peppier Rd., Box 105",
		"city": "Combermere, ON",
		"postCode": "K0J 1L0",
		"contact": "Nicholas Baklinski",
		"phone": "(613) 756-1980",
		"website": null
	},
	{
		"company": "Trim Association of Ontario",
		"link": "/member_directory/34101",
		"street": "53 Woodstream Blvd. Unit 10",
		"city": "Woodbridge, ON",
		"postCode": "L4L 7Y8",
		"contact": "Carlo D&apos;Ambrosio",
		"phone": "(905) 856-1424",
		"website": "http://trimontario.ca"
	},
	{
		"company": "Trim Carpenter Supply",
		"link": "/member_directory/33518",
		"street": "170 Brockport Dr. Unit 14",
		"city": "Toronto, ON",
		"postCode": "M9W 5C8",
		"contact": "Tim Van Wart",
		"phone": "(416) 798-1994",
		"website": "http://trimsupply.ca"
	},
	{
		"company": "Trimart Corporation",
		"link": "/member_directory/34102",
		"street": "3505 Laird Rd. Ste. 2",
		"city": "Mississauga, ON",
		"postCode": "L5L 5Y7",
		"contact": "R. Lloyd Martin",
		"phone": "(905) 820-6711",
		"website": "http://trimart.ca"
	},
	{
		"company": "Trimcor",
		"link": "/member_directory/35050",
		"street": "159 Cardevco Rd.",
		"city": "Carp, ON",
		"postCode": "K0A 1L0",
		"contact": "Dave Safranski",
		"phone": "(613) 831-2169",
		"website": null
	},
	{
		"company": "Trinison Management Corporation",
		"link": "/member_directory/35344",
		"street": "8600 Dufferin St.",
		"city": "Vaughan, ON",
		"postCode": "L4K 5P5",
		"contact": "Michael Telawski",
		"phone": "(416) 798-1127",
		"website": "http://trinison.com"
	},
	{
		"company": "Trinison Management Corporation",
		"link": "/member_directory/33225",
		"street": "8600 Dufferin St.",
		"city": "Vaughan, ON",
		"postCode": "L4K 5P5",
		"contact": "Colin McGregor",
		"phone": "(416) 798-1127",
		"website": "http://trinison.com"
	},
	{
		"company": "Trinistar Corporation",
		"link": "/member_directory/33226",
		"street": "8600 Dufferin St.",
		"city": "Vaughan, ON",
		"postCode": "L4K 5P5",
		"contact": "Mike Baldassarra",
		"phone": "(416) 798-2420",
		"website": "http://trinistar.com"
	},
	{
		"company": "Tripemco Burlington Insurance Ltd.",
		"link": "/member_directory/35453",
		"street": "99 Hwy. #8",
		"city": "Stoney Creek, ON",
		"postCode": "L8G 1C1",
		"contact": "Carmine Calvise",
		"phone": "(905) 664-2266",
		"website": null
	},
	{
		"company": "Triple H Paving Stone Inc.",
		"link": "/member_directory/35906",
		"street": "1859 Crumlin Rd.",
		"city": "London, ON",
		"postCode": "N5V 3B8",
		"contact": "Garry Hansford",
		"phone": "(519) 452-1000",
		"website": "http://triplehpavingstone.com"
	},
	{
		"company": "Triple T Holdings Ltd.",
		"link": "/member_directory/36090",
		"street": "PO BOX 1079",
		"city": "Peterborough, ON",
		"postCode": "K9J 7Z9",
		"contact": "William (Bill) Turner",
		"phone": "(705) 742-3338",
		"website": "http://tttholdings.com"
	}
]