[
	{
		"company": "Peterborough Mechanical Consulting Group",
		"link": "/member_directory/36162",
		"street": "705 Rye St. Unit 1&amp;2",
		"city": "Peterborough, ON",
		"postCode": "K9J 6X1",
		"contact": "Greg Barber",
		"phone": "(705) 761-1421",
		"website": null
	},
	{
		"company": "Petersen Building Supplies",
		"link": "/member_directory/36724",
		"street": "R.R. #11, 1524 John St. Rd.",
		"city": "Thunder Bay, ON",
		"postCode": "P7B 5E2",
		"contact": "Andreas Petersen",
		"phone": "(807) 767-5165",
		"website": null
	},
	{
		"company": "Petes Plumbing",
		"link": "/member_directory/36360",
		"street": "945 Hay Crt.",
		"city": "Sarnia, ON",
		"postCode": "N7S 3G6",
		"contact": "Jamie Coenjarts",
		"phone": "(519) 383-2337",
		"website": null
	},
	{
		"company": "Peto MacCallum Ltd.",
		"link": "/member_directory/36864",
		"street": "16 Franklin St. S.",
		"city": "Kitchener, ON",
		"postCode": "N2C 1R4",
		"contact": "Shahram Ahrari",
		"phone": "(519) 893-7500",
		"website": "http://petomaccallum.com"
	},
	{
		"company": "Peto MacCallum Ltd.",
		"link": "/member_directory/35435",
		"street": "45 Burford Rd.",
		"city": "Hamilton, ON",
		"postCode": "L8E 3C6",
		"contact": "Wayne Belcourt",
		"phone": "(905) 561-2231",
		"website": "http://petomaccallum.com"
	},
	{
		"company": "Petrela, Winter & Associates",
		"link": "/member_directory/34010",
		"street": "14 Bruce Park Ave. Ste. 12",
		"city": "Toronto, ON",
		"postCode": "M4P 2S3",
		"contact": "Peter Smith",
		"phone": "(416) 488-2522",
		"website": "http://petrela.com"
	},
	{
		"company": "Petrelli Construction Inc",
		"link": "/member_directory/34766",
		"street": "#32-174 Colonnade Rd. S.",
		"city": "Ottawa, ON",
		"postCode": "K2E 7J5",
		"contact": "Dino Petrelli",
		"phone": "(613) 277-3466",
		"website": "http://petrelliconstruction.com"
	},
	{
		"company": "Petrini Construction",
		"link": "/member_directory/35283",
		"street": "1771 Wigamog Rd.",
		"city": "Haliburton, ON",
		"postCode": "K0M 1S0",
		"contact": "Nathan Petrini",
		"phone": "(705) 457-2754",
		"website": null
	},
	{
		"company": "Phelps Homes Ltd.",
		"link": "/member_directory/35938",
		"street": "166 Main St. W.",
		"city": "Grimsby, ON",
		"postCode": "L3M 1S3",
		"contact": "Paul Phelps",
		"phone": "(905) 945-5451",
		"website": "http://phelpshomes.com"
	},
	{
		"company": "Phil Groves Sewer Services Inc.",
		"link": "/member_directory/35577",
		"street": "7 Pinelands Ave.",
		"city": "Stoney Creek, ON",
		"postCode": "L8E 3A4",
		"contact": "Phil Groves",
		"phone": "(905) 662-5852",
		"website": "http://philgroves.com"
	},
	{
		"company": "Philip Bird Trucking & Excavating",
		"link": "/member_directory/36361",
		"street": "170 Samuel St.",
		"city": "Sarnia, ON",
		"postCode": "N7T 2X9",
		"contact": "Philip Bird",
		"phone": "(519) 330-7905",
		"website": null
	},
	{
		"company": "Phillips Properties (2070649 Ontario Inc.)",
		"link": "/member_directory/33126",
		"street": "213 Ridley Blvd.",
		"city": "Toronto, ON",
		"postCode": "M5M 3M5",
		"contact": "Elizabeth Geleff",
		"phone": "(416) 488-8161",
		"website": null
	},
	{
		"company": "Phoenix Homes",
		"link": "/member_directory/34702",
		"street": "18 Bentley Ave.",
		"city": "Nepean, ON",
		"postCode": "K2E 6T8",
		"contact": "Rahul Kochar",
		"phone": "(613) 723-9227",
		"website": "http://phoenixhomes.ca"
	},
	{
		"company": "Phoenix Mechanical",
		"link": "/member_directory/35032",
		"street": "1528 Startop Rd., Unit 1A",
		"city": "Ottawa, ON",
		"postCode": "K1B 3W6",
		"contact": "Daniel Duarte",
		"phone": "(613) 294-4959",
		"website": "http://phoenixmechanical.ca"
	},
	{
		"company": "Piamonte Painting & Wall Covering",
		"link": "/member_directory/35033",
		"street": "1160 Rainbow Rd.",
		"city": "Ottawa, ON",
		"postCode": "K1J 6X7",
		"contact": "Sam Piamonte",
		"phone": "(613) 744-0336",
		"website": null
	},
	{
		"company": "Pianosi Development Corporation",
		"link": "/member_directory/33127",
		"street": "3250 Bloor St. W. Ste. 118, East Tower",
		"city": "Etobicoke, ON",
		"postCode": "M8X 2X9",
		"contact": "Jim Smith",
		"phone": "(416) 231-1297",
		"website": "http://pianosi.com"
	},
	{
		"company": "PICCO Engineering",
		"link": "/member_directory/34011",
		"street": "8611 Jane St. Ste. 200",
		"city": "Concord, ON",
		"postCode": "L4K 2M6",
		"contact": "Michael Picco",
		"phone": "(905) 760-9688",
		"website": "http://picco-engineering.com"
	},
	{
		"company": "Picture Homes Millennium Inc.",
		"link": "/member_directory/34478",
		"street": "#8 - 180 Jardin Dr.",
		"city": "Concord, ON",
		"postCode": "L4K 1X8",
		"contact": "Tony Iordanis / M.Stein / L.Stein",
		"phone": "(905) 760-0404",
		"website": "http://picturehomesonline.com"
	},
	{
		"company": "Picture Homes Millennium Inc.",
		"link": "/member_directory/36081",
		"street": "180 Jardin Dr., Unit 8",
		"city": "Concord, ON",
		"postCode": "L4K 1X8",
		"contact": "Martin Stein",
		"phone": "(905) 760-0404",
		"website": null
	},
	{
		"company": "Picture Perfect Landscaping Quinte Ltd.",
		"link": "/member_directory/36295",
		"street": "622 Vermilyea Rd R.R. # 5",
		"city": "Belleville, ON",
		"postCode": "K8N 4Z5",
		"contact": "Elaine Bouma",
		"phone": "(613) 968-1940",
		"website": null
	},
	{
		"company": "Pillar to Post London",
		"link": "/member_directory/35900",
		"street": "1978 Wallingford Ave.",
		"city": "London, ON",
		"postCode": "N6G 0E9",
		"contact": "Troy Simmers-Vanhevel",
		"phone": "(519) 472-1112",
		"website": null
	},
	{
		"company": "Pina Grella, Barrister & Solicitor",
		"link": "/member_directory/34012",
		"street": "8501 Mississauga Rd. Ste. 101",
		"city": "Brampton, ON",
		"postCode": "L6Y 5G8",
		"contact": "Pina Grella",
		"phone": "(905) 453-6000",
		"website": null
	},
	{
		"company": "Pinchin Ltd",
		"link": "/member_directory/37172",
		"street": "302-850 Barry Downe Rd",
		"city": "Sudbury, ON",
		"postCode": "P3A 3T7",
		"contact": "Troy Gordon",
		"phone": "705 521 0560",
		"website": null
	},
	{
		"company": "Pine Glen General Contractors Inc.",
		"link": "/member_directory/33675",
		"street": "2345 Wyecroft Rd. Unit 4",
		"city": "Oakville, ON",
		"postCode": "L6L 6L8",
		"contact": "Eddie Jurinic",
		"phone": "(647) 770-7981",
		"website": "http://pineglen.ca"
	},
	{
		"company": "Pine Tree Homes",
		"link": "/member_directory/35709",
		"street": "2490 Main St. P.O. Box 1179",
		"city": "Lambeth, ON",
		"postCode": "N6P 1R2",
		"contact": "Antonio Abrantes",
		"phone": "(519) 521 3252",
		"website": null
	},
	{
		"company": "Pinehill Lumber",
		"link": "/member_directory/36688",
		"street": "2 Black Lake Rd.",
		"city": "Lively, ON",
		"postCode": "P3Y 1C6",
		"contact": "Trevor Ronchin",
		"phone": "(705) 692-4754",
		"website": "http://pinehilllumber.ca"
	},
	{
		"company": "Pinevest Homes Inc.",
		"link": "/member_directory/34339",
		"street": "11 Grand River St. N. P. O. Box 162",
		"city": "PARIS, ON",
		"postCode": "N3L 3E7",
		"contact": "Brad Wilson",
		"phone": "(519) 442-1786",
		"website": null
	},
	{
		"company": "Pinewood Niagara Builders",
		"link": "/member_directory/35939",
		"street": "2125 Fruitbelt Parkway",
		"city": "Niagara Falls, ON",
		"postCode": "L2E 6S4",
		"contact": "Michael Colaneri Jr.",
		"phone": "(905) 262-2222",
		"website": "http://pinewoodniagarabulders.ca"
	},
	{
		"company": "Pinnacle Environment",
		"link": "/member_directory/34246",
		"street": "595 Cityview Blvd. Unit 18",
		"city": "Woodbridge, ON",
		"postCode": "L4H 3M7",
		"contact": "Linda Cerenzia",
		"phone": "(905) 417-0111",
		"website": "http://pinnacle-environment.com"
	},
	{
		"company": "Pinnacle International / Mondiale Development Ltd.",
		"link": "/member_directory/33128",
		"street": "37 Bay St. Ste. 400, 4th Flr.",
		"city": "Toronto, ON",
		"postCode": "M5J 3B2",
		"contact": "Catherine Mitchell",
		"phone": "(416) 925-3354",
		"website": "http://pinnacleinternational.ca"
	},
	{
		"company": "Pinnacle Quality Homes",
		"link": "/member_directory/36536",
		"street": "R.R. #1, 2899 Martyn St.",
		"city": "Mitchell, ON",
		"postCode": "N0K 1N0",
		"contact": "John Meinen",
		"phone": "(519) 229-6609",
		"website": null
	},
	{
		"company": "Pinpoint Publications Ltd.",
		"link": "/member_directory/35791",
		"street": "32 Albion St.",
		"city": "London, ON",
		"postCode": "N6H 1Z2",
		"contact": "John Fyfe-Millar",
		"phone": "(519) 433-5703",
		"website": "http://pinpointpub.com"
	},
	{
		"company": "Pioneer Craftsmen Ltd.",
		"link": "/member_directory/36819",
		"street": "1510 Victoria St. N.",
		"city": "Kitchener, ON",
		"postCode": "N2B 3E2",
		"contact": "Jamie Adam",
		"phone": "(519) 743-4461",
		"website": "http://pioneercraftsmen.com"
	},
	{
		"company": "Pioneer Family Pools",
		"link": "/member_directory/35901",
		"street": "1985 Blue Heron Dr.",
		"city": "London, ON",
		"postCode": "N6H 5L8",
		"contact": "Zoltan Dobsinai",
		"phone": "(519) 657-5210",
		"website": "http://pioneerpools.com"
	},
	{
		"company": "Plan A Contracting Ltd.",
		"link": "/member_directory/33676",
		"street": "83 Pearson Ave.",
		"city": "Toronto, ON",
		"postCode": "M6R 1G4",
		"contact": "Tony Lovink",
		"phone": "(416) 873-6810",
		"website": "http://planabuilds.com"
	},
	{
		"company": "Planet Realty Inc.",
		"link": "/member_directory/35125",
		"street": "806 Gordon St. Ste. 202A",
		"city": "Guelph, ON",
		"postCode": "N1G 1Y7",
		"contact": "Karen Kessel",
		"phone": "(519) 837-0900",
		"website": null
	},
	{
		"company": "Planning Partnership (The)",
		"link": "/member_directory/34013",
		"street": "1255 Bay St. Ste. 201",
		"city": "Toronto, ON",
		"postCode": "M5R 2A9",
		"contact": "Rick Merrill",
		"phone": "(416) 975-1556",
		"website": "http://planpart.ca"
	},
	{
		"company": "planningAlliance / regionalArchitects",
		"link": "/member_directory/34014",
		"street": "110 Adelaide St. E.",
		"city": "Toronto, ON",
		"postCode": "M5C 1K9",
		"contact": "Elizabeth Wilson",
		"phone": "(416) 593-6499",
		"website": "http://planningalliance.ca"
	},
	{
		"company": "Plastcrete Mouldings Inc.",
		"link": "/member_directory/33460",
		"street": "170 Bartor Rd.",
		"city": "North York, ON",
		"postCode": "M9M 2W6",
		"contact": "Alessia Polo",
		"phone": "(416) 746-3420",
		"website": "http://plastcrete.com"
	},
	{
		"company": "Player Carpentry & Masonry",
		"link": "/member_directory/36549",
		"street": "R.R. #5",
		"city": "Stratford, ON",
		"postCode": "N5A 6S6",
		"contact": "Jim Player",
		"phone": "(519) 393-5450",
		"website": null
	},
	{
		"company": "Plazacorp Investments Ltd.",
		"link": "/member_directory/33129",
		"street": "10 Wanless Ave. Ste. 210",
		"city": "Toronto, ON",
		"postCode": "M4N 1V6",
		"contact": "Bronwyn Krog",
		"phone": "(416) 481-2222",
		"website": "http://pureplaza.com"
	},
	{
		"company": "Plomberie Seguin Plumbing Inc.",
		"link": "/member_directory/35034",
		"street": "781B Notre Dame St.",
		"city": "Embrun, ON",
		"postCode": "K0A 1W1",
		"contact": "Michel Seguin",
		"phone": "(613) 443-1116",
		"website": null
	},
	{
		"company": "Plumbtech Plumbing Inc.",
		"link": "/member_directory/36472",
		"street": "24 Ferndale Dr. N.",
		"city": "Barrie, ON",
		"postCode": "L4N 9V4",
		"contact": "Marc Benoit",
		"phone": "(705) 722-7209",
		"website": null
	},
	{
		"company": "PM Design & Marketing",
		"link": "/member_directory/34015",
		"street": "105 Vanderhoof Ave. Ste. 6",
		"city": "Toronto, ON",
		"postCode": "M4G 2H7",
		"contact": "Pavel Mirzoyan",
		"phone": "(416) 737-8390",
		"website": "http://pm-design.ca"
	},
	{
		"company": "PMA Brethour Realty Group",
		"link": "/member_directory/34856",
		"street": "1150 Morrison Dr., Suite 203",
		"city": "Ottawa, ON",
		"postCode": "K2H 8S9",
		"contact": "Patrick Meeds",
		"phone": "(613) 747-6766",
		"website": "http://pmabrethour.com"
	},
	{
		"company": "PMA Brethour Realty Group",
		"link": "/member_directory/34016",
		"street": "8980 Woodbine Ave.",
		"city": "Markham, ON",
		"postCode": "L3R 0J7",
		"contact": "Andrew Brethour",
		"phone": "(905) 415-2720",
		"website": "http://pmabrethour.com"
	},
	{
		"company": "PMA Brethour Realty Group",
		"link": "/member_directory/34530",
		"street": "8980 Woodbine Ave.",
		"city": "Markham, ON",
		"postCode": "L3R 0J7",
		"contact": "Andrew Brethour",
		"phone": "(905) 415-2720",
		"website": "http://pmabrethour.com"
	},
	{
		"company": "PMC Specialist Recruitment Solutions",
		"link": "/member_directory/34017",
		"street": "20 Bay St. Ste. 1100",
		"city": "Toronto, ON",
		"postCode": "M5J 2N8",
		"contact": "Phillip Coffey",
		"phone": "(416) 216-4630",
		"website": "http://pmcrecruitment.ca"
	},
	{
		"company": "Podium Development",
		"link": "/member_directory/35616",
		"street": "202-3 Bridgman Ave.",
		"city": "Toronto, ON",
		"postCode": "M5R 3V4",
		"contact": "Oskar Johansson",
		"phone": "(416) 792-6114",
		"website": null
	},
	{
		"company": "Podium Developments",
		"link": "/member_directory/37149",
		"street": "205-3 Bridgman Ave",
		"city": "Toronto, ON",
		"postCode": "M5R 3V4",
		"contact": "Bernard Luttmer",
		"phone": "888-411-7685",
		"website": "http://podiumdevelopments.com"
	},
	{
		"company": "Poetry Living",
		"link": "/member_directory/33130",
		"street": "71 Buttermill Ave.",
		"city": "Vaughan, ON",
		"postCode": "L4K 3X2",
		"contact": "Michael Ferri",
		"phone": "(905) 738-8640",
		"website": "http://poetryliving.com"
	},
	{
		"company": "Pol Quality Homes Inc.",
		"link": "/member_directory/36537",
		"street": "R. R. #3, #4905 Line 32",
		"city": "Stratford, ON",
		"postCode": "N5A 6S4",
		"contact": "Jim Pol",
		"phone": "(519) 393-5200",
		"website": null
	},
	{
		"company": "Policella Homes",
		"link": "/member_directory/35940",
		"street": "945 Pelham St.",
		"city": "Welland, ON",
		"postCode": "L3C 3E2",
		"contact": "Vince Policella",
		"phone": "(905) 892-9897",
		"website": "http://policellahomes.com"
	},
	{
		"company": "Pollard Windows",
		"link": "/member_directory/35149",
		"street": "1217 King Rd. Box 507",
		"city": "Burlington, ON",
		"postCode": "L7R 3Y3",
		"contact": "Jim Griffiths",
		"phone": "1-800-585-5561",
		"website": null
	},
	{
		"company": "Pollard Windows & Doors Inc.",
		"link": "/member_directory/34572",
		"street": "Toronto Display Centre 939 Eglinton Avenue",
		"city": "Toronto, ON",
		"postCode": "M4G 4E8",
		"contact": "Tarmo Holland",
		"phone": "(416) 696-6716",
		"website": "http://pollardwindows.com"
	},
	{
		"company": "Pollard Windows Inc.",
		"link": "/member_directory/35856",
		"street": "1217 King Rd.",
		"city": "Burlington, ON",
		"postCode": "L7R 3Y3",
		"contact": "Bill Ransom",
		"phone": "1-800-263-6616",
		"website": "http://pollardwindows.com"
	},
	{
		"company": "Pollard Windows Inc.",
		"link": "/member_directory/36912",
		"street": "P.O. Box 507",
		"city": "Burlington, ON",
		"postCode": "L7R 3Y3",
		"contact": "Bert Vanderwoerd",
		"phone": "1-800-263-6616",
		"website": "http://pollardwindows.com"
	},
	{
		"company": "Pollard Windows Inc.",
		"link": "/member_directory/36453",
		"street": "1217 King Rd. P.O. Box 507",
		"city": "Burlington, ON",
		"postCode": "L7R 3Y3",
		"contact": "Ken Offless",
		"phone": "1-800-263-6616",
		"website": null
	},
	{
		"company": "Pollard Windows Inc.",
		"link": "/member_directory/36976",
		"street": "P.O. Box 507, 1217 King Rd.",
		"city": "Burlington, ON",
		"postCode": "L7R 3Y3",
		"contact": "Bill Ransom",
		"phone": "1-800-263-6616",
		"website": "http://pollardwindows.com"
	},
	{
		"company": "Pollard Windows Inc.",
		"link": "/member_directory/36001",
		"street": "1217 King Rd.,Box 507",
		"city": "Burlington, ON",
		"postCode": "L7R 3Y3",
		"contact": "Jim Griffiths",
		"phone": "(905) 634-2365",
		"website": "http://pollardwindows.com"
	},
	{
		"company": "Pollard Windows Inc.",
		"link": "/member_directory/33461",
		"street": "1217 King Rd. P.O. Box 507",
		"city": "Burlington, ON",
		"postCode": "L7R 3Y3",
		"contact": "Jim Griffiths",
		"phone": "905 634 2365",
		"website": "http://pollardwindows.com"
	},
	{
		"company": "Polocorp Inc.",
		"link": "/member_directory/36773",
		"street": "379 Queen St. S. Coach House",
		"city": "Kitchener, ON",
		"postCode": "N2G 1W6",
		"contact": "Paul Puopolo",
		"phone": "(519) 745-3249",
		"website": "http://polocorpinc.com"
	},
	{
		"company": "Poly-Mor Canada Inc.",
		"link": "/member_directory/35902",
		"street": "1111 Flint Rd. Unit 6",
		"city": "Toronto, ON",
		"postCode": "M3J 3C7",
		"contact": "Andy Moncrieff",
		"phone": "(905) 738-6698",
		"website": "http://poly-mor.ca"
	},
	{
		"company": "Porky's BBQ & Leisure",
		"link": "/member_directory/35903",
		"street": "1075 Sarnia Rd., Unit A2",
		"city": "London, ON",
		"postCode": "N6H 5J9",
		"contact": "George Giesen",
		"phone": "(519) 657-5000",
		"website": "http://porkys.ca"
	},
	{
		"company": "Portside Developments Inc. (Greensborough)",
		"link": "/member_directory/33131",
		"street": "495 Deerhurst Dr.",
		"city": "Brampton, ON",
		"postCode": "L6T 5K3",
		"contact": "Daniel Montagner",
		"phone": "(905) 792-2718",
		"website": "http://portsidedevelopments.ca"
	},
	{
		"company": "Post Media Network Niagara",
		"link": "/member_directory/35976",
		"street": "4424 Queen St.",
		"city": "St. Catharines, ON",
		"postCode": "L2E 2L3",
		"contact": "Leanne Cressman",
		"phone": "(905) 684-7251",
		"website": null
	},
	{
		"company": "Postech Metal Foundations",
		"link": "/member_directory/34937",
		"street": "2226 Old Montreal Rd.",
		"city": "Ottawa, ON",
		"postCode": "K4C 1G5",
		"contact": "Rene Corbeil",
		"phone": "(613) 297-1990",
		"website": "http://postech-foundations.com"
	},
	{
		"company": "Postech North",
		"link": "/member_directory/36689",
		"street": "103 Notre Dame Ave.",
		"city": "Azilda, ON",
		"postCode": "P0M 1B0",
		"contact": "Phil Paquette",
		"phone": "(705) 983-2379",
		"website": "http://postech-foundations.com"
	},
	{
		"company": "Postech Screw Pilings",
		"link": "/member_directory/37187",
		"street": "1120 Elfirede Dr",
		"city": "Windsor, ON",
		"postCode": "N8X A1",
		"contact": "Carmine Aquino",
		"phone": "519-551-5581",
		"website": null
	},
	{
		"company": "Postma Custom Building Ltd.",
		"link": "/member_directory/34299",
		"street": "30 Erie St.",
		"city": "Clinton, ON",
		"postCode": "N0M 1L0",
		"contact": "Jeff Postma",
		"phone": "(519) 482-1770",
		"website": "http://postmacustombuilding.ca"
	},
	{
		"company": "Poulos & Chung Ltd",
		"link": "/member_directory/37064",
		"street": "535 Bur Oak Ave",
		"city": "Markham, ON",
		"postCode": "L6C 2S5",
		"contact": "Nick Poulos",
		"phone": "905 479 7942",
		"website": null
	},
	{
		"company": "Powell Jones Chartered Accountants",
		"link": "/member_directory/36427",
		"street": "121 Anne St. S.",
		"city": "Barrie, ON",
		"postCode": "L4N 7B6",
		"contact": "Alan Priest CA",
		"phone": "(705) 728-7461",
		"website": null
	},
	{
		"company": "Power Stream Energy Services Inc",
		"link": "/member_directory/37082",
		"street": "161 Cityview Blvd",
		"city": "Vaughan, ON",
		"postCode": "L4H 0A9",
		"contact": "Andy Cartwright",
		"phone": "905 532 4479",
		"website": null
	},
	{
		"company": "Pratt Development Inc.",
		"link": "/member_directory/33132",
		"street": "27 Clapperton St. Ste. 300",
		"city": "Barrie, ON",
		"postCode": "L4M 3E6",
		"contact": "Don Pratt",
		"phone": "(705) 722-4500",
		"website": null
	},
	{
		"company": "Pratt Hansen Group Inc.",
		"link": "/member_directory/36403",
		"street": "301 King St.",
		"city": "Barrie, ON",
		"postCode": "L4N 6B5",
		"contact": "Heljar Hansen",
		"phone": "(705) 792-3883",
		"website": null
	},
	{
		"company": "Praztek Construction",
		"link": "/member_directory/36637",
		"street": "Box 1125",
		"city": "Timmins, ON",
		"postCode": "P4N 7J3",
		"contact": "Pete Beaucage",
		"phone": "(705) 264-7729",
		"website": "http://praztek.com"
	},
	{
		"company": "Precision Plumbing",
		"link": "/member_directory/35578",
		"street": "271 E. 11th St.",
		"city": "Hamilton, ON",
		"postCode": "L9A 3T8",
		"contact": "Jeff Gaylord",
		"phone": "(905) 389-8343",
		"website": null
	},
	{
		"company": "Preferred Insurance Group",
		"link": "/member_directory/35792",
		"street": "778 Wharncliffe Rd. S.",
		"city": "London, ON",
		"postCode": "N6J 2N4",
		"contact": "Sean Dilamarter",
		"phone": "(519) 661-0200",
		"website": "http://preferred-ins.com"
	},
	{
		"company": "Premier Quality Renovations Inc.",
		"link": "/member_directory/33677",
		"street": "1750 The Queensway Ste. 301",
		"city": "Toronto, ON",
		"postCode": "M9C 5H5",
		"contact": "Peter Glaw",
		"phone": "(905) 286-0303",
		"website": "http://premier-renovations.com"
	},
	{
		"company": "Premium Building Group",
		"link": "/member_directory/35941",
		"street": "275 Fourth Ave., PO Box 30087",
		"city": "St. Catharines, ON",
		"postCode": "L2S 4A1",
		"contact": "Anthony Continelli",
		"phone": "(905) 988-1085",
		"website": "http://pbggroup.ca"
	},
	{
		"company": "Prep 'n Sell",
		"link": "/member_directory/33678",
		"street": "3135 Universal  Dr. Unit 6",
		"city": "Mississauga, ON",
		"postCode": "L4X 2E6",
		"contact": "David Collier",
		"phone": "(416) 201-1010",
		"website": "http://prepnsell.com"
	},
	{
		"company": "Prestige Exteriors Inc.",
		"link": "/member_directory/34247",
		"street": "178 Pennsylvania Ave. Unit 7",
		"city": "Concord, ON",
		"postCode": "L4K 4B1",
		"contact": "Mark Macri",
		"phone": "(905) 738-4690",
		"website": "http://prestigeexteriors.com"
	},
	{
		"company": "Prestige Fence",
		"link": "/member_directory/35035",
		"street": "163 Cardevco Rd., R.R.#2",
		"city": "Carp, ON",
		"postCode": "K0A 1L0",
		"contact": "Vito Maraventano",
		"phone": "(613) 831-2073",
		"website": "http://prestigefence.ca"
	},
	{
		"company": "Presto Cleaning Services",
		"link": "/member_directory/37039",
		"street": "46 Rosemore Road",
		"city": "St. Catharines ON, Ontario",
		"postCode": "L2S 1B2",
		"contact": "Lori Page",
		"phone": "905 359 3278",
		"website": "http://prestocleaning.net"
	},
	{
		"company": "Preston Group",
		"link": "/member_directory/33133",
		"street": "330 New Huntington Rd. Ste. 201",
		"city": "Woodbridge, ON",
		"postCode": "L4H 4C9",
		"contact": "Edward Goldstein",
		"phone": "(905) 856-7774",
		"website": "http://prestongroup.ca"
	},
	{
		"company": "Preston Hardware (1980) Ltd.",
		"link": "/member_directory/34938",
		"street": "248 Preston St.",
		"city": "Ottawa, ON",
		"postCode": "K1R 7R4",
		"contact": "Mike Lagace",
		"phone": "(613) 230-7166",
		"website": "http://prestonhardware.com"
	},
	{
		"company": "Prestonvale Heights Ltd.",
		"link": "/member_directory/34479",
		"street": "11 Curity Ave.",
		"city": "Toronto, ON",
		"postCode": "M4B 1X4",
		"contact": "Eddy Goldstein",
		"phone": "(416) 429-0969",
		"website": null
	},
	{
		"company": "Previn Court Homes",
		"link": "/member_directory/36404",
		"street": "265 King St. N.",
		"city": "Alliston, ON",
		"postCode": "L9R 1N3",
		"contact": "Nisio Rizzardo",
		"phone": "(705) 436-5712",
		"website": null
	},
	{
		"company": "Previn Court Homes",
		"link": "/member_directory/33134",
		"street": "265 King St. N. Unit 3",
		"city": "Alliston, ON",
		"postCode": "L9R 1N3",
		"contact": "Nisio Rizzardo",
		"phone": "(705) 435-5712",
		"website": "http://previncourt.com"
	},
	{
		"company": "PricewaterhouseCoopers LLP",
		"link": "/member_directory/34018",
		"street": "18 York St. Ste. 2600",
		"city": "Toronto, ON",
		"postCode": "M5J 0B2",
		"contact": "Chris Potter",
		"phone": "(416) 869-2494",
		"website": "http://pwc.com"
	},
	{
		"company": "Pride Homes By Fred Hendriks Inc.",
		"link": "/member_directory/35942",
		"street": "4593 Lincoln Ave.",
		"city": "Beamsville, ON",
		"postCode": "L0R 1B3",
		"contact": "Fred Hendriks",
		"phone": "(905) 563-0999",
		"website": "http://pridehomes.ca"
	},
	{
		"company": "Prima Air Ltd.",
		"link": "/member_directory/34248",
		"street": "150 Connie Cres. Unit 16",
		"city": "Concord, ON",
		"postCode": "L4K 1L9",
		"contact": "Chuck Paglialunga",
		"phone": "(905) 677-8277",
		"website": "http://primaair.ca"
	},
	{
		"company": "Prime Lighting Design",
		"link": "/member_directory/37194",
		"street": "1641 Provincial RD",
		"city": "Windsor, ON",
		"postCode": "N8W 5V7",
		"contact": "Jessica Guglietti",
		"phone": "519-969-0002",
		"website": null
	},
	{
		"company": "Prime Metal Service Centre",
		"link": "/member_directory/36913",
		"street": "520 Conestogo Rd. Unit B",
		"city": "Waterloo, ON",
		"postCode": "N2L 4E2",
		"contact": "Scott Witmer",
		"phone": "(519) 885-7221",
		"website": "http://primemetal.com"
	},
	{
		"company": "Prime Time Financial",
		"link": "/member_directory/36428",
		"street": "22 Cynthia Crt.",
		"city": "Barrie, ON",
		"postCode": "L4M 2X4",
		"contact": "Wayne Hissa,  CFP",
		"phone": "(705) 739-8802",
		"website": null
	},
	{
		"company": "Primont Homes",
		"link": "/member_directory/33135",
		"street": "9130 Leslie St. Ste. 301",
		"city": "Richmond Hill, ON",
		"postCode": "L4B 0B9",
		"contact": "Joe Montesano",
		"phone": "(905) 770-7002",
		"website": "http://primonthomes.com"
	},
	{
		"company": "Princess Group Inc. (The)",
		"link": "/member_directory/33136",
		"street": "25 Sable St.",
		"city": "Toronto, ON",
		"postCode": "M6M 3K8",
		"contact": "Jacqueline Storino",
		"phone": "(416) 787-6633",
		"website": "http://theprincessgroup.com"
	},
	{
		"company": "Principle Contracting Inc.",
		"link": "/member_directory/36638",
		"street": "2310 Greenwood Dr.",
		"city": "Sudbury, ON",
		"postCode": "P3B 4G4",
		"contact": "Cary McGlade",
		"phone": "(705) 566-0400",
		"website": "http://principlecontracting.com"
	},
	{
		"company": "Prinston Homes",
		"link": "/member_directory/36082",
		"street": "619 Dobbin Ave.",
		"city": "Peterborough, ON",
		"postCode": "K9J 6X4",
		"contact": "Ed Prins",
		"phone": "(705) 749-6363",
		"website": null
	},
	{
		"company": "Pristine Homes",
		"link": "/member_directory/33137",
		"street": "242 Applewood Cres. Unit 2",
		"city": "Concord, ON",
		"postCode": "L4K 4E5",
		"contact": "Michael Cortellucci",
		"phone": "(905) 738-4994",
		"website": "http://pristinehomes.ca"
	},
	{
		"company": "Pristine Printing",
		"link": "/member_directory/35529",
		"street": "3 Bestobell Rd.",
		"city": "Toronto, ON",
		"postCode": "M8W 4H2",
		"contact": "Fred Pristine",
		"phone": "(416) 259-1621",
		"website": null
	},
	{
		"company": "Pristine Printing Inc.",
		"link": "/member_directory/35530",
		"street": "3 Bestobell Rd.",
		"city": "Toronto, ON",
		"postCode": "M8W 4H2",
		"contact": "Fred Pristine",
		"phone": "(416) 259-1621",
		"website": "http://pristineprinting.com"
	},
	{
		"company": "Pro Air Duct Cleaning",
		"link": "/member_directory/34249",
		"street": "1095 O&apos;Connor Dr. P.O. Box 99525",
		"city": "Toronto, ON",
		"postCode": "M4B 3M9",
		"contact": "Don Skewis",
		"phone": "(905) 814-1755",
		"website": null
	},
	{
		"company": "Pro Electric Inc.",
		"link": "/member_directory/35904",
		"street": "347 Sovereign Rd.",
		"city": "London, ON",
		"postCode": "N6M 1A6",
		"contact": "Brenda Blue",
		"phone": "(519) 451-8740",
		"website": null
	},
	{
		"company": "Pro ICF Inc.",
		"link": "/member_directory/34250",
		"street": "57 Atomic Ave.",
		"city": "Toronto, ON",
		"postCode": "M8Z 5K8",
		"contact": "Chris Johnson",
		"phone": "(647) 838-7372",
		"website": "http://proicf.com"
	},
	{
		"company": "Pro-Land Landscape Construction Inc.",
		"link": "/member_directory/34251",
		"street": "19 Kenview Blvd. Ste. 58",
		"city": "Brampton, ON",
		"postCode": "L6T 5G6",
		"contact": "John D&apos;Ambrosio",
		"phone": "(905) 799-6100",
		"website": "http://proland.ca"
	},
	{
		"company": "Pro-Tec-Vent Ltd.",
		"link": "/member_directory/33462",
		"street": "8611 Jane St. Ste. 200",
		"city": "Concord, ON",
		"postCode": "L4K 2M6",
		"contact": "Michael Picco",
		"phone": "(905) 532-0722",
		"website": "http://protecvent.com"
	},
	{
		"company": "PROBUILT",
		"link": "/member_directory/33679",
		"street": "81A King St. W.",
		"city": "Bolton, ON",
		"postCode": "L7E 1A2",
		"contact": "Michael Upshall",
		"phone": "(905) 880-8100",
		"website": "http://probuilt.ca"
	},
	{
		"company": "Professional Choice Cleaning Services Inc.",
		"link": "/member_directory/34252",
		"street": "111 Zenway Blvd. Unit 22",
		"city": "Woodbridge, ON",
		"postCode": "L4H 3H9",
		"contact": "Michael Grist",
		"phone": "(905) 850-8009",
		"website": "http://pcchome.com"
	},
	{
		"company": "Profile Custom Homes",
		"link": "/member_directory/33138",
		"street": "2624 Royal Windsor Dr. Unit 1",
		"city": "Mississauga, ON",
		"postCode": "L5J 1K7",
		"contact": "Joel Atkinson",
		"phone": "(905) 822-7070",
		"website": "http://profilecustomhomes.com"
	},
	{
		"company": "Profit for Contractors",
		"link": "/member_directory/34857",
		"street": "37 Moore St.",
		"city": "Richmond, ON",
		"postCode": "K0A 2Z0",
		"contact": "Andrew Houston",
		"phone": "(613) 838-3000",
		"website": "http://profitforcontractors.com"
	},
	{
		"company": "Profit Maximizer Associates Canada",
		"link": "/member_directory/34019",
		"street": "2275 Upper Middle Rd. Ste. 101",
		"city": "Oakville, ON",
		"postCode": "L6H 0C3",
		"contact": "Angeli Anand",
		"phone": "(905) 257-8689",
		"website": "http://profitmaxcanada.com"
	},
	{
		"company": "Progress Aluminum & Insulation Ltd.",
		"link": "/member_directory/36620",
		"street": "309 Lorne Ave. E., R.R. #3",
		"city": "Stratford, ON",
		"postCode": "N5A 6S4",
		"contact": "Gary Lingard",
		"phone": "(519) 273-0296",
		"website": null
	},
	{
		"company": "Progressive Countertop Systems",
		"link": "/member_directory/35857",
		"street": "70 Canaan St.",
		"city": "Strathroy, ON",
		"postCode": "N7G 1L8",
		"contact": "Howard Wilton",
		"phone": "(519) 245-0019",
		"website": "http://progressivecountertop.com"
	},
	{
		"company": "Progressive Reno & Contracting",
		"link": "/member_directory/33680",
		"street": "67 Treeview Dr.",
		"city": "Toronto, ON",
		"postCode": "M8W 4C1",
		"contact": "Armindo Amaro",
		"phone": "(416) 831-6717",
		"website": null
	},
	{
		"company": "Progressive Waste Solutions",
		"link": "/member_directory/34939",
		"street": "P.O. Box 8077, Station T 1152 Canesten St.",
		"city": "Ottawa, ON",
		"postCode": "K1G 3H6",
		"contact": "Mike Savard",
		"phone": "(613) 740-3276",
		"website": "http://bficanada.com"
	},
	{
		"company": "Promark Aluminum Ltd.",
		"link": "/member_directory/34253",
		"street": "77 Pillsworth Rd. Unit 4",
		"city": "Bolton, ON",
		"postCode": "L7E 4G4",
		"contact": "Kamar Kuyumju",
		"phone": "(905) 857-5692",
		"website": "http://promarkaluminum.com"
	},
	{
		"company": "Prominent Homes Inc.",
		"link": "/member_directory/35183",
		"street": "363 Ireland Rd., R.R. #5",
		"city": "Simcoe, ON",
		"postCode": "N3Y 4K4",
		"contact": "Brian Bunting",
		"phone": "(519) 426-9186",
		"website": "http://prominenthomesont.com"
	},
	{
		"company": "Promopays Inc.",
		"link": "/member_directory/33463",
		"street": "2576 Dunwin Dr. Unit 8",
		"city": "Mississauga, ON",
		"postCode": "L5L 5P6",
		"contact": "Julie Serpa",
		"phone": "(905) 569-1999",
		"website": "http://promopays.com"
	},
	{
		"company": "Proof Positive Real Estate Research",
		"link": "/member_directory/34020",
		"street": "56 Mcauley St. N. P.O. Box 5",
		"city": "Thornbury, ON",
		"postCode": "N0H 2P0",
		"contact": "Terri Kimball",
		"phone": "(416) 526-4234",
		"website": null
	},
	{
		"company": "PropertyGuys.com",
		"link": "/member_directory/36658",
		"street": "1527 Paris St. Ste. 2",
		"city": "Sudbury, ON",
		"postCode": "P3E 3B7",
		"contact": "Michael Perras",
		"phone": "(705) 222-7653",
		"website": "http://propertyguys.com"
	},
	{
		"company": "Prospect'In Builder Software Tools",
		"link": "/member_directory/34021",
		"street": "1134 Clapp Lane P.O. Box 498",
		"city": "Manotick, ON",
		"postCode": "K4M 1A5",
		"contact": "Rick Wright",
		"phone": "1-877-788-9988",
		"website": "http://buildersoftwaretools.com"
	},
	{
		"company": "Protect Your Boundaries",
		"link": "/member_directory/34022",
		"street": "1137 Centre St. Ste. 104",
		"city": "Thornhill, ON",
		"postCode": "L4J 3M6",
		"contact": "Maja Krcmar",
		"phone": "1-877-392-2662",
		"website": "http://protectyourboundaries.ca"
	},
	{
		"company": "Provident Energy Management Inc.",
		"link": "/member_directory/34023",
		"street": "100 Supertest Rd.",
		"city": "Toronto, ON",
		"postCode": "M3J 2M2",
		"contact": "David Hamilton",
		"phone": "(416) 736-0630",
		"website": "http://pemi.com"
	},
	{
		"company": "Provincial Construction (Niagara Falls) Ltd.",
		"link": "/member_directory/37197",
		"street": "4382 Montrose Road",
		"city": "Niagara Falls, ON",
		"postCode": "L2H 1K2",
		"contact": "Justin Skovron",
		"phone": "905 56 5899",
		"website": null
	},
	{
		"company": "Prudential Ronan Realty Brokerage",
		"link": "/member_directory/34627",
		"street": "119 BRd.way, Unit 2",
		"city": "Orangeville, ON",
		"postCode": "L9W 1K2",
		"contact": "Paula Carney",
		"phone": "(519) 943-0860",
		"website": null
	},
	{
		"company": "Prycon Custom Building and Renovations Inc.",
		"link": "/member_directory/36405",
		"street": "36 Morrow Rd. Ste. 100",
		"city": "Barrie, ON",
		"postCode": "L4N 3V8",
		"contact": "Matt Pryce",
		"phone": "(705) 739-0023",
		"website": null
	},
	{
		"company": "Pryer's Construction Ltd.",
		"link": "/member_directory/35617",
		"street": "6404 Concession 6",
		"city": "Addison, ON",
		"postCode": "K0E 1A0",
		"contact": "Steve Pryer",
		"phone": "(613) 802-1981",
		"website": "http://pryers.ca"
	},
	{
		"company": "Publow's Plumbing Ltd.",
		"link": "/member_directory/35656",
		"street": "57 Beckwith St. E.",
		"city": "Perth, ON",
		"postCode": "K7H 1B8",
		"contact": "Patrick Publow",
		"phone": "(613) 267-5456",
		"website": null
	},
	{
		"company": "Pump Shop (The)",
		"link": "/member_directory/35272",
		"street": "Box 1054",
		"city": "Haliburton, ON",
		"postCode": "K0M 1S0",
		"contact": "Wade Woodward",
		"phone": "(705) 457-2638",
		"website": null
	},
	{
		"company": "Pure Reno Inc.",
		"link": "/member_directory/34767",
		"street": "49 Roundhay Dr.",
		"city": "Nepean, ON",
		"postCode": "K2G 1B6",
		"contact": "Peppi LaRiccia",
		"phone": "(613) 851-0907",
		"website": "http://purereno.com"
	},
	{
		"company": "Pure White Design",
		"link": "/member_directory/35793",
		"street": "224 Riverside Dr.",
		"city": "London, ON",
		"postCode": "N6H 1E6",
		"contact": "Danielle Murphy",
		"phone": "(226) 688-8526",
		"website": "http://purewhitedesign.ca"
	},
	{
		"company": "Pure White Design Inc",
		"link": "/member_directory/37182",
		"street": "224 Riverside Dr",
		"city": "London, ON",
		"postCode": "N6H 1E6",
		"contact": "Rebecca Khori",
		"phone": "226 688 8526",
		"website": null
	},
	{
		"company": "Purser's Putty & Drywall",
		"link": "/member_directory/34326",
		"street": "181 Mary St.",
		"city": "Goderich, ON",
		"postCode": "N7A 3A7",
		"contact": "Barney Purser",
		"phone": "(519) 524-2241",
		"website": null
	},
	{
		"company": "PV Technical Services Inc",
		"link": "/member_directory/37147",
		"street": "187 Glen Morris Road E",
		"city": "St George, ON",
		"postCode": "N0E 1N0",
		"contact": "Katherine Zhou",
		"phone": "647 968 2980",
		"website": null
	},
	{
		"company": "Pym & Cooper Custom Homes Inc.",
		"link": "/member_directory/35943",
		"street": "330 Vansickle Rd., Unit #9",
		"city": "St. Catharines, ON",
		"postCode": "L2S 0B4",
		"contact": "Brent Pym",
		"phone": "(905) 682-3777",
		"website": "http://pymandcooper.ca"
	},
	{
		"company": "Pym & Cooper Custom Homes Inc.",
		"link": "/member_directory/35710",
		"street": "1072 William Street",
		"city": "London, ON",
		"postCode": "N5Y 2T3",
		"contact": "Scott Pym",
		"phone": "(519) 472-2243",
		"website": "http://pymandcooper.com"
	},
	{
		"company": "Q4 Architects",
		"link": "/member_directory/34024",
		"street": "2171 Ave. Rd. Ste. 302",
		"city": "Toronto, ON",
		"postCode": "M5M 4B4",
		"contact": "Matt Brown",
		"phone": "(416) 322-6334",
		"website": "http://quadradesignstudios.com"
	},
	{
		"company": "Quadrangle Architects Ltd.",
		"link": "/member_directory/34025",
		"street": "901 King St. W. Ste. 701",
		"city": "Toronto, ON",
		"postCode": "M5V 3H5",
		"contact": "Richard Witt",
		"phone": "(416) 598-1240",
		"website": "http://quadrangle.ca"
	},
	{
		"company": "Quality Construction Services",
		"link": "/member_directory/36371",
		"street": "Box 215,",
		"city": "Kincardine, ON",
		"postCode": "N2Z 2Y7",
		"contact": "Jeff Aubrey",
		"phone": "1-888-481-1095",
		"website": "http://qualityconstruction.ca"
	},
	{
		"company": "Quality Engineered Homes Ltd",
		"link": "/member_directory/36372",
		"street": "RR2",
		"city": "Kenilworth, ON",
		"postCode": "N0G 2E0",
		"contact": "J Combe",
		"phone": "(519) 323-4208",
		"website": "http://qualityhomes.ca"
	},
	{
		"company": "Quality Exteriors",
		"link": "/member_directory/36010",
		"street": "17 Neilson St.",
		"city": "St. Catharines, ON",
		"postCode": "L2M 5V9",
		"contact": "Manny DeMelo",
		"phone": "(905) 935-7571",
		"website": "http://wwwqualityexteriors.ca"
	},
	{
		"company": "Quality Rugs of Canada Ltd.",
		"link": "/member_directory/34573",
		"street": "20 E. Beaver Creek",
		"city": "Richmond Hill, ON",
		"postCode": "L4B 1G6",
		"contact": "John Bugeja",
		"phone": "(905) 731-4443",
		"website": null
	},
	{
		"company": "Quality Sterling Group",
		"link": "/member_directory/34254",
		"street": "505 Cityview Blvd. Unit 1",
		"city": "Vaughan, ON",
		"postCode": "L4H 0L8",
		"contact": "Joe Pacione",
		"phone": "(905) 585-4800",
		"website": "http://sterlingflooring.ca"
	},
	{
		"company": "Quantum Contracting Ltd.",
		"link": "/member_directory/34509",
		"street": "54 Brunswick St.",
		"city": "Oshawa, ON",
		"postCode": "L1H 6P3",
		"contact": "Andy Wilson",
		"phone": "(905) 433-2186",
		"website": "http://quantumcontracting.ca"
	},
	{
		"company": "Queen's Bush Construction",
		"link": "/member_directory/36373",
		"street": "R.R. #1",
		"city": "Gorrie, ON",
		"postCode": "N0G 1X0",
		"contact": "Tim Bunker",
		"phone": "(519) 335-3189",
		"website": null
	},
	{
		"company": "Queenscorp Group",
		"link": "/member_directory/33139",
		"street": "2 Queen Elizabeth Blvd.",
		"city": "Toronto, ON",
		"postCode": "M8Z 1L8",
		"contact": "Mark Bozzo",
		"phone": "(416) 253-6909",
		"website": "http://queenscorp.com"
	},
	{
		"company": "Queensgate Developments",
		"link": "/member_directory/36774",
		"street": "3800 Steeles Ave. W., Suite 201W",
		"city": "Woodbridge, ON",
		"postCode": "L4L 4G9",
		"contact": "Bruno Suppa",
		"phone": "(905) 266-0756",
		"website": "http://queensgatehomes.com"
	},
	{
		"company": "Queensgate Homes Inc.",
		"link": "/member_directory/33140",
		"street": "3800 Steeles Ave. W. Ste. 400W",
		"city": "Woodbridge, ON",
		"postCode": "L4L 4G9",
		"contact": "Lauren Palombo",
		"phone": "(905) 264-0600",
		"website": "http://queensgatehomes.com"
	},
	{
		"company": "Quinn & Quinn Inc.",
		"link": "/member_directory/36213",
		"street": "P.O. Box 270",
		"city": "Frankford, ON",
		"postCode": "K0K 2C0",
		"contact": "Michael Quinn",
		"phone": "1-888-261-7543",
		"website": null
	},
	{
		"company": "Quinte Broadcasting Ltd.",
		"link": "/member_directory/36214",
		"street": "10 S. Front St.",
		"city": "Belleville, ON",
		"postCode": "K8N 5B2",
		"contact": "Kerry Patrick",
		"phone": "(613) 969-5555",
		"website": "http://mix97.com"
	},
	{
		"company": "Quinte Design Centre",
		"link": "/member_directory/36993",
		"street": "45 Dundas St E",
		"city": "Belleville, ON",
		"postCode": "K8N 1B7",
		"contact": "Ryan Bax",
		"phone": "613-967-2111",
		"website": "http://quintedesigncentre.ca"
	},
	{
		"company": "Quinte Paint & Wallpaper Inc.",
		"link": "/member_directory/36263",
		"street": "366 N. Front St.",
		"city": "Belleville, ON",
		"postCode": "K8P 5E6",
		"contact": "B.J. McLeod",
		"phone": "(613) 969-9521",
		"website": "http://quintepaint.reach.net"
	},
	{
		"company": "Quintessa Homes Corporation",
		"link": "/member_directory/33141",
		"street": "8201 W.on Rd. Unit 6",
		"city": "Vaughan, ON",
		"postCode": "L4L 1A6",
		"contact": "Julie DeCicco",
		"phone": "(905) 850-8181",
		"website": "http://quintessa.ca"
	},
	{
		"company": "Quintessential Credit Union",
		"link": "/member_directory/36215",
		"street": "293 Sidney St.",
		"city": "Belleville, ON",
		"postCode": "K8P 3Z4",
		"contact": "Greg Rupnow",
		"phone": "(613) 966-4111",
		"website": null
	},
	{
		"company": "R & D Development Group Inc.",
		"link": "/member_directory/36565",
		"street": "80 Linton Ave., Unit A",
		"city": "Stratford, ON",
		"postCode": "N5A 0B1",
		"contact": "Rob DeGroot",
		"phone": "(519) 271-2211",
		"website": null
	},
	{
		"company": "R & M Smith Contracting Ltd.",
		"link": "/member_directory/36083",
		"street": "113 Chandler Cres.",
		"city": "Peterborough, ON",
		"postCode": "K9J 0C3",
		"contact": "Randy Smith",
		"phone": "(705) 761-0464",
		"website": "http://rmsmithcontracting.com"
	},
	{
		"company": "R. Gour Landscaping Ltd.",
		"link": "/member_directory/35036",
		"street": "P.O. Box 34",
		"city": "Plantagenet, ON",
		"postCode": "K0B 1L0",
		"contact": "Roger Gour",
		"phone": "(613) 673-4868",
		"website": null
	},
	{
		"company": "R. J. Burnside & Associates Ltd.",
		"link": "/member_directory/36566",
		"street": "332 Lorne Ave. E.",
		"city": "Stratford, ON",
		"postCode": "N5A 6S4",
		"contact": "Paul MacIntyre",
		"phone": "(519) 271-5111",
		"website": null
	},
	{
		"company": "R. McCowan Masonry Inc.",
		"link": "/member_directory/35037",
		"street": "3741 Indian Creek Rd.",
		"city": "Cheney, ON",
		"postCode": "K0A 2A0",
		"contact": "Ricky McCowan",
		"phone": "(613) 487-3889",
		"website": null
	},
	{
		"company": "R. Moore Homes",
		"link": "/member_directory/36084",
		"street": "8 Callaghan Rd.",
		"city": "Lindsay, ON",
		"postCode": "K9V 4R4",
		"contact": "Rick Moore",
		"phone": "(705) 328-2992",
		"website": "http://rmoorehomes.com"
	},
	{
		"company": "R. T. Warwick Contractors & Designers",
		"link": "/member_directory/35641",
		"street": "R.R. #5",
		"city": "Perth, ON",
		"postCode": "K7H 3C7",
		"contact": "Randy Warwick",
		"phone": "(613) 267-6241",
		"website": "http://rtwarwickconstruction.com"
	},
	{
		"company": "R. Vaughan Services Ltd.",
		"link": "/member_directory/35255",
		"street": "Box 724",
		"city": "Minden, ON",
		"postCode": "K0M 2K0",
		"contact": "Robert Vaughan",
		"phone": "(705) 286-2083",
		"website": null
	},
	{
		"company": "R.A.N.D. Engineering Corporation",
		"link": "/member_directory/34026",
		"street": "5285 Solar Dr.",
		"city": "Mississauga, ON",
		"postCode": "L4W 5B8",
		"contact": "Vito Cavallo",
		"phone": "(905) 625-9500",
		"website": "http://randengineering.ca"
	},
	{
		"company": "R.E. Mann Brokers Ltd.",
		"link": "/member_directory/35200",
		"street": "49 Norfolk St. N.",
		"city": "Simcoe, ON",
		"postCode": "N3Y 3N6",
		"contact": "Ron Mann",
		"phone": "(519) 426-2031",
		"website": null
	},
	{
		"company": "R.E. Millward & Associates Ltd.",
		"link": "/member_directory/34027",
		"street": "1235 Bay St. Ste. 400",
		"city": "Toronto, ON",
		"postCode": "M5R 3K4",
		"contact": "Robert Millward",
		"phone": "(416) 304-0457",
		"website": "http://remillward.com"
	},
	{
		"company": "R.H. Drywall",
		"link": "/member_directory/36056",
		"street": "1 Wendy Clader Place",
		"city": "Woodstock, ON",
		"postCode": "N4T 1T4",
		"contact": "Richard Noncoop",
		"phone": "(519) 539-8916",
		"website": null
	},
	{
		"company": "R.J. Burnside & Associates",
		"link": "/member_directory/34628",
		"street": "15 Townline",
		"city": "Orangeville, ON",
		"postCode": "L9W 3R4",
		"contact": "Peter Bruce",
		"phone": "(519) 941-5331",
		"website": "http://rjburnside.com"
	},
	{
		"company": "R.J. Burnside & Associates Ltd.",
		"link": "/member_directory/34310",
		"street": "P.O. Box 449 Josephine St.",
		"city": "Wingham, ON",
		"postCode": "N0G 2W0",
		"contact": "Jeff Dickson",
		"phone": "(519) 357-1521",
		"website": "http://rjburnside.com"
	},
	{
		"company": "R.J. Burnside & Associates Ltd.",
		"link": "/member_directory/34028",
		"street": "6990 Creditview Rd. Unit 2",
		"city": "Mississauga, ON",
		"postCode": "L5N 8R9",
		"contact": "Ian Drever",
		"phone": "(905) 821-1800",
		"website": "http://rjburnside.com"
	},
	{
		"company": "R.V. Anderson Associates Ltd.",
		"link": "/member_directory/34029",
		"street": "2001 Sheppard Ave. E. Ste. 400",
		"city": "Toronto, ON",
		"postCode": "M2J 4Z8",
		"contact": "Steve DeFaria",
		"phone": "(416) 497-8600",
		"website": "http://rvanderson.com"
	},
	{
		"company": "Race Mechanical Systems",
		"link": "/member_directory/34599",
		"street": "9 Cobbledick St. Unit I, PO Box 157",
		"city": "Orono, ON",
		"postCode": "L0B 1M0",
		"contact": "Steve DeBoer",
		"phone": "(905) 983-9800",
		"website": "http://racemechanical.com"
	},
	{
		"company": "Radey's Renovation and Construction",
		"link": "/member_directory/36646",
		"street": "51 Prevost St. Box 1395",
		"city": "Azilda, ON",
		"postCode": "P0M 1B0",
		"contact": "Kevin Radey",
		"phone": "(705) 665-6445",
		"website": null
	},
	{
		"company": "Ragno Electric Ltd.",
		"link": "/member_directory/34255",
		"street": "21 Kenview Blvd. Unit 7 &amp; 8",
		"city": "Brampton, ON",
		"postCode": "L6T 5G7",
		"contact": "Joe Lombardo",
		"phone": "(905) 793-4663",
		"website": "http://ragnoelectric.com"
	},
	{
		"company": "Rainbow Concrete",
		"link": "/member_directory/36028",
		"street": "2477 Maley Dr.",
		"city": "Sudbury, ON",
		"postCode": "P3A 4R7",
		"contact": "Harvey Mallette",
		"phone": "(705) 566-1740",
		"website": null
	},
	{
		"company": "Rainbow Concrete Industries Ltd.",
		"link": "/member_directory/36690",
		"street": "2477 Maley Dr.",
		"city": "Sudbury, ON",
		"postCode": "P3A 4R7",
		"contact": "Damir Brujic",
		"phone": "(705) 566-1740",
		"website": "http://rainbow-concrete.ca"
	},
	{
		"company": "Rainer's Siding & Installation Ltd.",
		"link": "/member_directory/36473",
		"street": "67 Patterson Rd.",
		"city": "Barrie, ON",
		"postCode": "L4N 3V9",
		"contact": "Mike Saarela",
		"phone": "(705) 726-1092",
		"website": null
	},
	{
		"company": "Ram Contracting Ltd.",
		"link": "/member_directory/33681",
		"street": "457 Sunset Beach Rd.",
		"city": "Richmond Hill, ON",
		"postCode": "L4E 3J3",
		"contact": "Sandra Marzilli",
		"phone": "(905) 773-0507",
		"website": "http://ramcon.ca"
	},
	{
		"company": "Rambri Management Inc.",
		"link": "/member_directory/37000",
		"street": "59 Lorne Ave E Unit A",
		"city": "Stratford, ON",
		"postCode": "N5A 6S4",
		"contact": "Nancy Orr",
		"phone": "519-271-9117",
		"website": null
	},
	{
		"company": "Rambri Management Inc.",
		"link": "/member_directory/37049",
		"street": "59 Lorne Ave E Unit A",
		"city": "Stratford, ON",
		"postCode": "N5A 6S4",
		"contact": "Nancy Orr",
		"phone": "519-271-9117",
		"website": "http://rambri.com"
	},
	{
		"company": "Rammik Construction",
		"link": "/member_directory/35107",
		"street": "23 Hickory St.",
		"city": "Guelph, ON",
		"postCode": "N1G 2X2",
		"contact": "Mark Hofstee",
		"phone": "(519) 821-3497",
		"website": null
	},
	{
		"company": "Randy McMahon Insulation",
		"link": "/member_directory/36713",
		"street": "164 Silpaa St.",
		"city": "Sudbury, ON",
		"postCode": "P3B 3E6",
		"contact": "Randy McMahon",
		"phone": "(705) 969-9789",
		"website": "http://randymcmahoninsulation.con"
	},
	{
		"company": "Rashotte Home Building Centre",
		"link": "/member_directory/36296",
		"street": "P.O. Box 220 36 Metcalfe St.",
		"city": "Tweed, ON",
		"postCode": "K0K 3J0",
		"contact": "Chris Rashotte",
		"phone": "(613) 438-0652",
		"website": "http://rashottehomebuilder.ca"
	},
	{
		"company": "Raw Design",
		"link": "/member_directory/34030",
		"street": "317 Adelaide St. W. Ste. 405",
		"city": "Toronto, ON",
		"postCode": "M5V 1P9",
		"contact": "Roland Rom Colthoff",
		"phone": "(416) 599-9729",
		"website": "http://rawdesign.ca"
	},
	{
		"company": "Ray Belanger Builders Ltd.",
		"link": "/member_directory/36955",
		"street": "468 Mei-lin Cres.",
		"city": "St. Clair Beach, ON",
		"postCode": "N8N 4V8",
		"contact": "Tim Belanger",
		"phone": "(519) 979-2244",
		"website": "http://buildbelanger.com"
	},
	{
		"company": "Ray Lenos Construction",
		"link": "/member_directory/35184",
		"street": "R.R. #4",
		"city": "Simcoe, ON",
		"postCode": "N3Y 4K3",
		"contact": "Ray Lenos",
		"phone": "(519) 428-3688",
		"website": null
	},
	{
		"company": "Ray Robertson Electrical Ltd.",
		"link": "/member_directory/36297",
		"street": "27 Moira Lea Crt.",
		"city": "Belleville, ON",
		"postCode": "K8N 4Z5",
		"contact": "Ray Robertson",
		"phone": "(613) 849-7460",
		"website": "http://rayrobertsonelectric.com"
	},
	{
		"company": "Ray Rochon Construction",
		"link": "/member_directory/36022",
		"street": "2570 Connaught Ave.",
		"city": "North Bay, ON",
		"postCode": "P1B 9V7",
		"contact": "Ray Rochon",
		"phone": "(705) 476-4398",
		"website": null
	},
	{
		"company": "Ray Williamson Development Inc.",
		"link": "/member_directory/36717",
		"street": "194 Wolverine Cres.",
		"city": "Thunder Bay, ON",
		"postCode": "P7C 5Z2",
		"contact": "Ray Williamson",
		"phone": "(807) 624-8909",
		"website": null
	},
	{
		"company": "Ray-Jans Construction",
		"link": "/member_directory/36382",
		"street": "840 Campbell St.",
		"city": "Cornwall, ON",
		"postCode": "K6H 6L7",
		"contact": "Gary Jans",
		"phone": "(613) 932-1571",
		"website": null
	},
	{
		"company": "Raymar Building Contractors Ltd.",
		"link": "/member_directory/36163",
		"street": "1599 Moore Dr., R.R. #1",
		"city": "Cavan, ON",
		"postCode": "L0A 1C0",
		"contact": "Trevor Lubsen",
		"phone": "(705) 939-2472",
		"website": null
	},
	{
		"company": "Raymar Concrete Forming & Pumping",
		"link": "/member_directory/34600",
		"street": "1599 Moore Dr. RR # 1",
		"city": "Cavan, ON",
		"postCode": "L0A 1C0",
		"contact": "Trevor Lubsen",
		"phone": "(705) 939-2472",
		"website": "http://raymargroup.com"
	},
	{
		"company": "Raymore Exteriors Corporation",
		"link": "/member_directory/34256",
		"street": "2327 Wildwood Cres.",
		"city": "Pickering, ON",
		"postCode": "L1X 2N1",
		"contact": "Veena Rao",
		"phone": "(905) 426-2010",
		"website": "http://raymoreexteriors.com"
	},
	{
		"company": "Raywal Kitchens",
		"link": "/member_directory/36914",
		"street": "45 Sportworld Dr Unit 18",
		"city": "Kitchener, ON",
		"postCode": "N2P 2J5",
		"contact": "Ruqya Zaman",
		"phone": "(519) 725-1403",
		"website": "http://raywal.com"
	},
	{
		"company": "Raywal Ltd.",
		"link": "/member_directory/33464",
		"street": "68 Green Lane",
		"city": "Thornhill, ON",
		"postCode": "L3T 6K8",
		"contact": "Alan Moore",
		"phone": "(905) 889-6243",
		"website": "http://raywal.com"
	},
	{
		"company": "RBC",
		"link": "/member_directory/36114",
		"street": "401 George St. N.",
		"city": "Peterborough, ON",
		"postCode": "K9H 3R4",
		"contact": "Scott Mancini",
		"phone": "(705) 876-3536",
		"website": "http://rbc.com"
	},
	{
		"company": "RBC Financial Group",
		"link": "/member_directory/36489",
		"street": "38 First Ave.",
		"city": "St. Thomas, ON",
		"postCode": "N5R 4M8",
		"contact": "Kari Wilson",
		"phone": "(519) 637-7283",
		"website": null
	},
	{
		"company": "RBC Royal Bank",
		"link": "/member_directory/36429",
		"street": "1501 Innisfil Beach Rd.",
		"city": "Innisfil, ON",
		"postCode": "L9S 4B2",
		"contact": "Grace Doiron",
		"phone": "(705) 719-7216",
		"website": null
	},
	{
		"company": "RBC Royal Bank",
		"link": "/member_directory/35734",
		"street": "6880 Financial Dr.",
		"city": "Mississauga, ON",
		"postCode": "L5N 7Y5",
		"contact": "Paul Keizer",
		"phone": "(519) 472-7736",
		"website": "http://royalbank.com"
	},
	{
		"company": "RBC Royal Bank",
		"link": "/member_directory/36795",
		"street": "801 Mohawk Rd W",
		"city": "Hamilton, ON",
		"postCode": "L9C 6C2",
		"contact": "Angella Tsangarakis",
		"phone": "289 439 7077",
		"website": "http://rbc.com"
	},
	{
		"company": "RBC Royal Bank",
		"link": "/member_directory/33272",
		"street": "6880 Financial Dr. Tower 2, 6th Flr.",
		"city": "Mississauga, ON",
		"postCode": "L5N 7Y5",
		"contact": "Reza Shohreh",
		"phone": "(647) 967-9815",
		"website": "http://royalbank.com"
	},
	{
		"company": "Re/Max a-b Realty Ltd.",
		"link": "/member_directory/36567",
		"street": "88 Wellington St.",
		"city": "Stratford, ON",
		"postCode": "N5A 2L2",
		"contact": "John Wolfe",
		"phone": "(519) 273-2821",
		"website": null
	},
	{
		"company": "Re/Max Erie Shores Realty",
		"link": "/member_directory/35201",
		"street": "103 Queensway E.",
		"city": "Simcoe, ON",
		"postCode": "N3Y 4M5",
		"contact": "Brian Holden",
		"phone": "(519) 426-0081",
		"website": null
	},
	{
		"company": "RE/MAX Escarpment Realty Inc.",
		"link": "/member_directory/35436",
		"street": "860 Queenston Rd.",
		"city": "Stoney Creek, ON",
		"postCode": "L8G 4A8",
		"contact": "Conrad Zurini",
		"phone": "(905) 545-1188",
		"website": "http://houseplus.com"
	},
	{
		"company": "Re/Max Professionals Inc",
		"link": "/member_directory/37017",
		"street": "1 East Mall Cres",
		"city": "Toronto, ON",
		"postCode": "M9B 6G8",
		"contact": "Edward Frezza",
		"phone": "416-252-8880",
		"website": null
	},
	{
		"company": "RE/MAX Solid Gold Realty (II) Ltd., Brokerage",
		"link": "/member_directory/36865",
		"street": "180 Weber St. S.",
		"city": "Waterloo, ON",
		"postCode": "N2J 2B2",
		"contact": "Mark Van Dongen",
		"phone": "(519) 888-7110",
		"website": "http://homewithmark.ca"
	},
	{
		"company": "Read Jones Christoffersen Ltd.",
		"link": "/member_directory/34031",
		"street": "144 Front St. W. Ste. 500",
		"city": "Toronto, ON",
		"postCode": "M5J 2L7",
		"contact": "Mike Moffatt",
		"phone": "(416) 977-5335",
		"website": "http://rjc.ca"
	},
	{
		"company": "Real Estate Book (The)",
		"link": "/member_directory/36866",
		"street": "251 Blackhorne Dr",
		"city": "Kitchener, ON",
		"postCode": "N2E 1Z2",
		"contact": "Heather Melrose",
		"phone": "(519) 954-8732",
		"website": "http://realestatebook.com"
	},
	{
		"company": "Real Estate Talk Show (The)",
		"link": "/member_directory/34032",
		"street": "100 King St. W. Ste. 5600",
		"city": "Toronto, ON",
		"postCode": "M5X 1C9",
		"contact": "Aaron Rook",
		"phone": "(416) 366-9090",
		"website": "http://realestatetalkshow.ca"
	},
	{
		"company": "RealNet Canada Inc.",
		"link": "/member_directory/35126",
		"street": "220 King St W 4th Flr.",
		"city": "Toronto, ON",
		"postCode": "M5H 1K4",
		"contact": "Phong Ngo",
		"phone": "(416) 596-7676",
		"website": null
	},
	{
		"company": "RealNet Canada Inc.",
		"link": "/member_directory/36430",
		"street": "220 King St. W. - 4th Floor",
		"city": "Toronto, ON",
		"postCode": "M5H 1K4",
		"contact": "Phong Ngo",
		"phone": "(416) 596-7676",
		"website": "http://realnet.ca"
	},
	{
		"company": "RealNet Canada Inc.",
		"link": "/member_directory/35437",
		"street": "220 King St. W., 4th Floor",
		"city": "Toronto, ON",
		"postCode": "M5H 1K4",
		"contact": "Phong Ngo",
		"phone": "(416) 596-7676",
		"website": "http://realnet.ca"
	},
	{
		"company": "RealProperty Transaction Centres Inc.",
		"link": "/member_directory/34034",
		"street": "170 Wilkinson Rd. Unit 18",
		"city": "Brampton, ON",
		"postCode": "L6T 4Z5",
		"contact": "James Vlachos",
		"phone": "(905) 454-5411",
		"website": "http://realproperty.ca"
	},
	{
		"company": "Realty 1 Strategic Real Estate Services",
		"link": "/member_directory/37168",
		"street": "37 Hydro St",
		"city": "London, ON",
		"postCode": "N5Z 2H5",
		"contact": "Nadia Halunga-Jorge",
		"phone": "519-601-7011",
		"website": null
	},
	{
		"company": "Rebate4U Inc.",
		"link": "/member_directory/34035",
		"street": "153 Strathallan Blvd.",
		"city": "Toronto, ON",
		"postCode": "M5N 1S9",
		"contact": "Idan Mizrahi",
		"phone": "(416) 858-0640",
		"website": "http://rebate4u.ca"
	},
	{
		"company": "Red Design + Build",
		"link": "/member_directory/33682",
		"street": "5 Springbrook Gardens",
		"city": "Toronto, ON",
		"postCode": "M8Z 3B2",
		"contact": "Derrick Robinson",
		"phone": "(416) 628-8225",
		"website": "http://myredcity.com"
	},
	{
		"company": "Red Fort Developments",
		"link": "/member_directory/37140",
		"street": "1100 Central Parkway West Unit B Lower Level",
		"city": "Mississauga, ON",
		"postCode": "L5C 4E5",
		"contact": "Muhammad Pirani",
		"phone": "905 896 4177",
		"website": null
	},
	{
		"company": "Red Leaf Real Estate Ltd.",
		"link": "/member_directory/34036",
		"street": "3660 Hurontario St. 2nd Flr.",
		"city": "Mississauga, ON",
		"postCode": "L5B 3C4",
		"contact": "Colin DeCunha",
		"phone": "(905) 949-5107",
		"website": null
	},
	{
		"company": "Red Line Groundskeeping Corporation",
		"link": "/member_directory/34257",
		"street": "9200 W.on Rd. Ste. 92067",
		"city": "Woodbridge, ON",
		"postCode": "L4H 2P8",
		"contact": "Valerie Dell&apos;Elce",
		"phone": "(905) 760-7577",
		"website": "http://rlgc.ca"
	},
	{
		"company": "RED NGEN",
		"link": "/member_directory/34037",
		"street": "545 N. Rivermede Rd. Unit 201",
		"city": "Vaughan, ON",
		"postCode": "L4K 4H1",
		"contact": "Joe Grasso",
		"phone": "(905) 761-6436",
		"website": "http://redngen.com"
	},
	{
		"company": "Redmond / Williams Distributing",
		"link": "/member_directory/33465",
		"street": "5190 Timberlea Blvd.",
		"city": "Mississauga, ON",
		"postCode": "L4W 2S5",
		"contact": "Chris Redmond",
		"phone": "1-888-571-2627",
		"website": "http://redmondwilliams.com"
	},
	{
		"company": "RedPin.com Realty (The)",
		"link": "/member_directory/34038",
		"street": "5 Church St.",
		"city": "Toronto, ON",
		"postCode": "M5E 1M2",
		"contact": "Tarik Gidamy",
		"phone": "(416) 800-0812",
		"website": "http://theredpin.com"
	},
	{
		"company": "Regal Construction & Renovations Co. Ltd.",
		"link": "/member_directory/33683",
		"street": "57 Cartwright Ave.",
		"city": "Toronto, ON",
		"postCode": "M6A 1V1",
		"contact": "Luigi Fontana",
		"phone": "(416) 994-8183",
		"website": "http://regalconstruction.ca"
	},
	{
		"company": "Regal Crest Homes",
		"link": "/member_directory/33142",
		"street": "171 Basaltic Rd. Unit 1",
		"city": "Concord, ON",
		"postCode": "L4K 1G4",
		"contact": "Derrick Atamanchuk",
		"phone": "(905) 669-5003",
		"website": "http://regalcresthomes.com"
	},
	{
		"company": "RegalCraft Homes Inc. (M-Struct Management Inc.)",
		"link": "/member_directory/33143",
		"street": "10 Falconer Dr. Unit 3",
		"city": "Mississauga, ON",
		"postCode": "L5N 3L8",
		"contact": "Rekha Sharma",
		"phone": "(905) 814-9800",
		"website": "http://regalcrafthomes.com"
	},
	{
		"company": "Regency Heights Homes",
		"link": "/member_directory/33144",
		"street": "151 Spinnaker Way Unit 5",
		"city": "Concord, ON",
		"postCode": "L4K 4C3",
		"contact": "David Goyo",
		"phone": "(905) 738-4709",
		"website": "http://regencyheightshomes.com"
	},
	{
		"company": "Regional Doors & Hardware",
		"link": "/member_directory/36002",
		"street": "44 Scott St. W.",
		"city": "St. Catharines, ON",
		"postCode": "L2R 1C9",
		"contact": "Jim Dove",
		"phone": "(905) 684-8161",
		"website": "http://regionaldoors.com"
	},
	{
		"company": "Regional Group of Companies Inc.",
		"link": "/member_directory/34703",
		"street": "1737 Woodward Dr., 2nd floor",
		"city": "Ottawa, ON",
		"postCode": "K2C 0P9",
		"contact": "Josh Kardish",
		"phone": "(613) 230-2100",
		"website": "http://regionalgroup.com"
	},
	{
		"company": "Regional Municipality of Waterloo, Planning, Housing & Community Services",
		"link": "/member_directory/36868",
		"street": "150 Frederick St., 5th Floor",
		"city": "Kitchener, ON",
		"postCode": "N2G 4J3",
		"contact": "Rob Horne",
		"phone": "(519) 575-4001",
		"website": "http://regionofwaterloo.ca"
	},
	{
		"company": "Rehill Building Supplies",
		"link": "/member_directory/36147",
		"street": "921 High St. P.O. Box 202",
		"city": "Peterborough, ON",
		"postCode": "K9J 6Y8",
		"contact": "Shane Whitman",
		"phone": "(705) 742-5428",
		"website": null
	},
	{
		"company": "Reid / Foster Associates",
		"link": "/member_directory/34858",
		"street": "386 Ravenhill Ave.",
		"city": "Ottawa, ON",
		"postCode": "K2A 0J6",
		"contact": "Vib Reid",
		"phone": "(613) 725-5047",
		"website": null
	},
	{
		"company": "Reid Homes",
		"link": "/member_directory/35089",
		"street": "2781 Townline Rd. RR#21",
		"city": "Guelph, ON",
		"postCode": "N3C 2V3",
		"contact": "Grant Worton",
		"phone": "(519) 223-1037",
		"website": null
	},
	{
		"company": "Reid's Heritage Group",
		"link": "/member_directory/35090",
		"street": "6783 Wellington Rd. 34",
		"city": "Cambridge, ON",
		"postCode": "N3C 2V4",
		"contact": "Scott Reid",
		"phone": "(519) 658-2723",
		"website": null
	},
	{
		"company": "Reid's Heritage Group",
		"link": "/member_directory/36775",
		"street": "6783 Wellington Rd., Unit 34",
		"city": "Cambridge, ON",
		"postCode": "N3C 2V4",
		"contact": "Tim Blevins",
		"phone": "(519) 658-6656",
		"website": "http://reidsheritagegroup.com"
	},
	{
		"company": "Reid's Insulating",
		"link": "/member_directory/36298",
		"street": "407A Farnham Rd.",
		"city": "Belleville, ON",
		"postCode": "K8N 4Z5",
		"contact": "Delbert Reid",
		"phone": "(613) 966-9935",
		"website": "http://reidsinsulating.ca"
	},
	{
		"company": "Rejean Guindon Construction Corp.",
		"link": "/member_directory/35038",
		"street": "3305 Dunning Rd.",
		"city": "Sarsfield, ON",
		"postCode": "K0A 3E0",
		"contact": "Kevin Dupuis",
		"phone": "(613) 835-2150",
		"website": "http://rgcorp.ca"
	},
	{
		"company": "Reliable Painters & Decorators Ltd.",
		"link": "/member_directory/34258",
		"street": "2233 Argentia Rd. Ste. 101",
		"city": "Mississauga, ON",
		"postCode": "L5N 2X7",
		"contact": "John Myszko",
		"phone": "(905) 814-8629",
		"website": null
	},
	{
		"company": "Reliance Home Comfort",
		"link": "/member_directory/36362",
		"street": "1143 Confederation St., Unit C",
		"city": "Sarnia, ON",
		"postCode": "N7S 3Y5",
		"contact": "Peter Williams",
		"phone": "(519) 344-6210",
		"website": "http://reliancehomecomfort.com"
	},
	{
		"company": "Reliance Home Comfort",
		"link": "/member_directory/34574",
		"street": "PO Box 2305",
		"city": "Oshawa, ON",
		"postCode": "L1H 7V5",
		"contact": "Sue Cerilli",
		"phone": "1 866 214 9576",
		"website": "http://reliancehomecomfort.com"
	},
	{
		"company": "Reliance Home Comfort",
		"link": "/member_directory/35858",
		"street": "2 Lansing Floor",
		"city": "Toronto, ON",
		"postCode": "M2J 4P8",
		"contact": "Shari Pryce",
		"phone": "(519) 572-7535",
		"website": "http://reliancehomecomfort.com"
	},
	{
		"company": "Reliance Home Comfort",
		"link": "/member_directory/36915",
		"street": "600 Jamieson Parkway, Unit 4",
		"city": "Cambridge, ON",
		"postCode": "N3C 0A6",
		"contact": null,
		"phone": "(519) 572-7535",
		"website": "http://reliancehomecomfort.com"
	},
	{
		"company": "Reliance Home Comfort",
		"link": "/member_directory/35150",
		"street": "539-A Collier MacMillan Dr.",
		"city": "Cambridge, ON",
		"postCode": "N1R 7P3",
		"contact": "Pete Williams",
		"phone": "(519) 572-7535",
		"website": null
	},
	{
		"company": "Reliance Home Comfort",
		"link": "/member_directory/34384",
		"street": "830 Harrington Crt., Suite A",
		"city": "Burlington, ON",
		"postCode": "L7N 3N4",
		"contact": "Carla Agostino",
		"phone": "1-866-330-9640",
		"website": "http://reliancecomfort.com"
	},
	{
		"company": "Reliance Home Comfort",
		"link": "/member_directory/36691",
		"street": "955 Cambrian Heights",
		"city": "Sudbury, ON",
		"postCode": "P3C 5M6",
		"contact": "Michael MacWilliam",
		"phone": "(705) 524-5033",
		"website": "http://reliancehomecomfort.com"
	},
	{
		"company": "Reliance Home Comfort",
		"link": "/member_directory/36454",
		"street": "2 Lansing Square, 12th Floor",
		"city": "North York, ON",
		"postCode": "M2J 4P8",
		"contact": "Eric Byle",
		"phone": "(647) 280-2284",
		"website": null
	},
	{
		"company": "Reliance Home Comfort",
		"link": "/member_directory/36977",
		"street": "1045 Hargrieve Rd.",
		"city": "London, ON",
		"postCode": "N6E 1P6",
		"contact": "Shari Pryce",
		"phone": "(905) 330-7169",
		"website": "http://reliancehomecomfort.com"
	},
	{
		"company": "Reliance Home Comfort",
		"link": "/member_directory/35221",
		"street": "37A Mortn Ave. E.",
		"city": "Brantford, ON",
		"postCode": "N3R 7J5",
		"contact": "Darren Watson",
		"phone": "(519) 759-1453",
		"website": null
	},
	{
		"company": "Reliance Home Comfort",
		"link": "/member_directory/33441",
		"street": "2 Lansing Sq 12th Flr",
		"city": "Toronto, ON",
		"postCode": "M2J 4P8",
		"contact": "Eric Byle",
		"phone": "855 330 3093",
		"website": null
	},
	{
		"company": "Reliance Home Comfort",
		"link": "/member_directory/36264",
		"street": "200-1600 Laperriere Ave.",
		"city": "Ottawa, ON",
		"postCode": "K1Z 1B7",
		"contact": null,
		"phone": "(613) 224-0074",
		"website": null
	},
	{
		"company": "Reliance Home Comfort",
		"link": "/member_directory/36011",
		"street": "830 Harrington Crt., Site A",
		"city": "Burlington, ON",
		"postCode": "L7N 3N4",
		"contact": "Carla Agostino",
		"phone": "1-866-330-7169",
		"website": "http://unionenergy.com"
	},
	{
		"company": "Reliance Home Comfort",
		"link": "/member_directory/33466",
		"street": "2 Lansing Square 12th Flr.",
		"city": "Toronto, ON",
		"postCode": "M2J 4P8",
		"contact": "Greg Ranson",
		"phone": "(416) 490-5989",
		"website": "http://reliancehomecomfort.com"
	},
	{
		"company": "Reliance Home Comfort",
		"link": "/member_directory/35532",
		"street": "830 Harrington Crt. Suite A",
		"city": "Burlington, ON",
		"postCode": "L7N 3N4",
		"contact": "Carla Agostino",
		"phone": "(905) 330-7169",
		"website": "http://reliancehomecomfort.com"
	},
	{
		"company": "Reliance Home Comfort - Ottawa",
		"link": "/member_directory/34940",
		"street": "1050 Baxter Rd., Unit 5",
		"city": "Ottawa, ON",
		"postCode": "K2C 3P1",
		"contact": "Greg Ranson",
		"phone": "(416) 490-7313",
		"website": "http://reliancehomecomfort.com"
	},
	{
		"company": "Reliance Home Comfort LP",
		"link": "/member_directory/36500",
		"street": "Unit A 1045 Hargrieve Road",
		"city": "London, ON",
		"postCode": "N6E 1P6",
		"contact": "Peter Williams",
		"phone": "(519) 572-7535",
		"website": null
	},
	{
		"company": "Reliance Security Alarms",
		"link": "/member_directory/35533",
		"street": "6 Embassy Dr.",
		"city": "Hamilton, ON",
		"postCode": "L8T 4Z8",
		"contact": "Silvio Sozio",
		"phone": "(905) 387-2222",
		"website": null
	},
	{
		"company": "Reliance Windows Inc.",
		"link": "/member_directory/33467",
		"street": "111 Carluren Rd.",
		"city": "Woodbridge, ON",
		"postCode": "L4L 8A8",
		"contact": "Lou DeLellis",
		"phone": "(905) 889-0358",
		"website": null
	},
	{
		"company": "Reliance Worldwide Corporation (Canada) Inc.",
		"link": "/member_directory/33468",
		"street": "74 Alex Ave.",
		"city": "Vaughan, ON",
		"postCode": "L4L 5X1",
		"contact": "David Succurro",
		"phone": "(905) 265-2792",
		"website": "http://rwc.ca"
	},
	{
		"company": "ReMax Escarpment Realty Inc",
		"link": "/member_directory/35973",
		"street": "860 Queenston Rd.",
		"city": "Stoney Creek, ON",
		"postCode": "L8G 4A8",
		"contact": "Mark Silenzi",
		"phone": "(905) 545-1188",
		"website": null
	},
	{
		"company": "Rembrandt Homes",
		"link": "/member_directory/35711",
		"street": "1560 N. Routledge Park",
		"city": "London, ON",
		"postCode": "N6H 0H6",
		"contact": "John Westgate",
		"phone": "(519) 657-1200",
		"website": "http://rembrandthomes.ca"
	},
	{
		"company": "Rembrandt Homes Inc.",
		"link": "/member_directory/36040",
		"street": "1560 N. Routledge Park",
		"city": "London, ON",
		"postCode": "N6H 5L6",
		"contact": "John Westgate",
		"phone": "(519) 657-1200",
		"website": null
	},
	{
		"company": "Remington Homes",
		"link": "/member_directory/33145",
		"street": "7501 Keele St. Ste. 100",
		"city": "Vaughan, ON",
		"postCode": "L4K 1Y2",
		"contact": "Matthew Bratty",
		"phone": "(416) 798-7196",
		"website": "http://remingtonhomes.com"
	},
	{
		"company": "Renaissance Landscape Group",
		"link": "/member_directory/35166",
		"street": "4541 Concession 11 RR #1",
		"city": "Puslinch, ON",
		"postCode": "N0B 2J0",
		"contact": "Andrew Mulder",
		"phone": "(519) 822-8668",
		"website": null
	},
	{
		"company": "Renditions Design Build Ltd.",
		"link": "/member_directory/33684",
		"street": "5024 Winston Churchill Blvd.",
		"city": "Terra Cotta, ON",
		"postCode": "L0P 1N0",
		"contact": "Leslie Vito",
		"phone": "(416) 606-9954",
		"website": "http://renditionsdesignbuild.com"
	},
	{
		"company": "RenewABILITY Energy Inc.",
		"link": "/member_directory/34359",
		"street": "136 Ottawa St. S., Unit 3",
		"city": "Kitchener, ON",
		"postCode": "N2G 3S9",
		"contact": "Rod Buchalter",
		"phone": "(519) 885-0283",
		"website": null
	},
	{
		"company": "RenewABILITY Energy Inc.",
		"link": "/member_directory/33469",
		"street": "136 Ottawa St. Ste. 3",
		"city": "Kitchener, ON",
		"postCode": "N2G 3S9",
		"contact": "Gerald Van Decker",
		"phone": "(519) 885-0283",
		"website": "http://renewability.com"
	},
	{
		"company": "Reno King Contracting Ltd.",
		"link": "/member_directory/33685",
		"street": "12 Garrick Rd.",
		"city": "Scarborough, ON",
		"postCode": "M1M 1S5",
		"contact": "David Wyse",
		"phone": "(416) 821-9376",
		"website": "http://renokingcontracting.ca"
	},
	{
		"company": "Reno Rescue (Ottawa) Ltd",
		"link": "/member_directory/34768",
		"street": "2680B Moncton Rd.",
		"city": "Ottawa, ON",
		"postCode": "K2B 7W1",
		"contact": "Hugh Trueman",
		"phone": "(613) 296-9645",
		"website": "http://renosottawa.ca"
	},
	{
		"company": "Renoco Group",
		"link": "/member_directory/37016",
		"street": "73 Raymond Ave",
		"city": "Toronto, ON",
		"postCode": "M6S 2B1",
		"contact": "Kenzie Campbell",
		"phone": "416-402-4843",
		"website": null
	},
	{
		"company": "RENOMii Corporation",
		"link": "/member_directory/37083",
		"street": "305 King St W Suite 504",
		"city": "Kitchener, ON",
		"postCode": "N2G 1B9",
		"contact": "Kara Smith",
		"phone": "844-736-6644",
		"website": null
	},
	{
		"company": "Renovantage Inc.",
		"link": "/member_directory/34039",
		"street": "19-1250 Marlborough Crt.",
		"city": "Oakville, ON",
		"postCode": "L6H 2W7",
		"contact": "Greg Peterson",
		"phone": "(416) 840-6566",
		"website": "http://renovantage.com"
	},
	{
		"company": "Renovation Experts/Basement Experts",
		"link": "/member_directory/33686",
		"street": "10212 Yonge St. Ste. 208",
		"city": "Richmond Hill, ON",
		"postCode": "L4C 3B6",
		"contact": "Stan Boigon",
		"phone": "(905) 884-8585",
		"website": "http://renoexperts.ca"
	},
	{
		"company": "Renovations By Rodgers",
		"link": "/member_directory/36406",
		"street": "P.O. Box 92",
		"city": "Barrie, ON",
		"postCode": "L4M 4S9",
		"contact": "Allan McLellan",
		"phone": "(705) 739-7720",
		"website": null
	},
	{
		"company": "Renway Heating & Cooling",
		"link": "/member_directory/34393",
		"street": "56 Henry St.",
		"city": "Brantford, ON",
		"postCode": "N3S 7S4",
		"contact": "Marc Villamere",
		"phone": "(519) 752-6777",
		"website": null
	},
	{
		"company": "Rescon Financial Corporation",
		"link": "/member_directory/33273",
		"street": "3300 Highway 7 Ste. 801",
		"city": "Vaughan, ON",
		"postCode": "L4K 4M3",
		"contact": "Adam Sparks",
		"phone": "(905) 760-5500",
		"website": "http://rescon.ca"
	},
	{
		"company": "Reserve Properties Ltd.",
		"link": "/member_directory/33146",
		"street": "161 Eglinton Ave. E. Ste. 600",
		"city": "Toronto, ON",
		"postCode": "M4P 1J5",
		"contact": "Shane Fenton",
		"phone": "(416) 440-2904",
		"website": null
	},
	{
		"company": "Residential Framing Contractors Association of Metro Toronto/Vicinity Inc.",
		"link": "/member_directory/34040",
		"street": "160 Applewood Cres. Unit 31",
		"city": "Concord, ON",
		"postCode": "L4K 4H2",
		"contact": "Zlatko Marci",
		"phone": "(905) 669-2119",
		"website": null
	},
	{
		"company": "Restauri Homes",
		"link": "/member_directory/35329",
		"street": "154 Fortissimo Dr.",
		"city": "Hamilton, ON",
		"postCode": "L9C 0B8",
		"contact": "Michael Restauri",
		"phone": "(905) 667-4798",
		"website": null
	},
	{
		"company": "Retreats Inc.",
		"link": "/member_directory/33687",
		"street": "28 Arborglen Dr.",
		"city": "Georgetown, ON",
		"postCode": "L7G 6L2",
		"contact": "Greg Moffatt",
		"phone": "(647) 237-3878",
		"website": "http://homeretreats.ca"
	},
	{
		"company": "Revelstoke Developments Corp.",
		"link": "/member_directory/34704",
		"street": "209 Pretoria Ave.",
		"city": "Ottawa, ON",
		"postCode": "K1S 1X1",
		"contact": "Claudio Falsetto",
		"phone": "(613) 234-5571",
		"website": "http://revelstokedevelopments.com"
	},
	{
		"company": "RGB Construction Ltd.",
		"link": "/member_directory/34705",
		"street": "277 Kirchoffer Ave.",
		"city": "Ottawa, ON",
		"postCode": "K2A 1Y1",
		"contact": "Rolf G. Baumann",
		"phone": "(613) 265-2700",
		"website": "http://rgb-group.com"
	},
	{
		"company": "Rheem Canada",
		"link": "/member_directory/33470",
		"street": "125 Edgeware Rd. Unit 1",
		"city": "Brampton, ON",
		"postCode": "L6Y 0P5",
		"contact": "Nic Gabura",
		"phone": "(416) 720-6445",
		"website": "http://rheem.on.ca"
	},
	{
		"company": "Rheem Canada Ltd.",
		"link": "/member_directory/35534",
		"street": "125 Edgeware Rd. Unit 1",
		"city": "Brampton, ON",
		"postCode": "L6Y 0P5",
		"contact": "Mick Gallagher",
		"phone": "(905) 527-9194",
		"website": "http://rheem.com"
	},
	{
		"company": "Rice Development",
		"link": "/member_directory/34480",
		"street": "17 Dean St.",
		"city": "Brampton, ON",
		"postCode": "L6W 1M7",
		"contact": "David Rice",
		"phone": "(905) 796-3630",
		"website": "http://ricedevelopment.ca"
	},
	{
		"company": "Rice Development Corp",
		"link": "/member_directory/35712",
		"street": "77 Main St. E. P.O. Box 1155",
		"city": "Grand Bend, ON",
		"postCode": "N0M 1T0",
		"contact": "Christie Allen",
		"phone": "(519) 238-6436",
		"website": "http://ricedevelopmentcorp.ca"
	},
	{
		"company": "Richard Northey Custom Carpentry",
		"link": "/member_directory/36096",
		"street": "1981 13th Line, R.R. #3",
		"city": "Lakefield, ON",
		"postCode": "K0L 2H0",
		"contact": "Richard Northey",
		"phone": "(705) 657-9600",
		"website": "http://richardnorthey.com"
	},
	{
		"company": "Richard Wengle Architect Inc.",
		"link": "/member_directory/34041",
		"street": "102 Ave. Rd.",
		"city": "Toronto, ON",
		"postCode": "M5R 2H3",
		"contact": "Richard Wengle",
		"phone": "(416) 787-7575",
		"website": null
	},
	{
		"company": "Richcraft Homes Ltd.",
		"link": "/member_directory/34706",
		"street": "201-2280 St. Laurent Blvd.",
		"city": "Ottawa, ON",
		"postCode": "K1G 4K1",
		"contact": "Kevin Yemm",
		"phone": "(613) 739-7111",
		"website": "http://richcraft.com"
	},
	{
		"company": "Richmond Architects Ltd.",
		"link": "/member_directory/34042",
		"street": "243 College St. 2nd Flr.",
		"city": "Toronto, ON",
		"postCode": "M5T 1R5",
		"contact": "Sal Vitiello",
		"phone": "(416) 961-1567",
		"website": null
	},
	{
		"company": "Ricks Carpet Norwich",
		"link": "/member_directory/35222",
		"street": "25 Main St. W., Box 928",
		"city": "Norwich, ON",
		"postCode": "N0J 1P0",
		"contact": "John Timmermans",
		"phone": "(519) 863-5300",
		"website": null
	},
	{
		"company": "Ricor Engineering Ltd.",
		"link": "/member_directory/35794",
		"street": "531 Talbot St.",
		"city": "London, ON",
		"postCode": "N6A 2S5",
		"contact": "Rick Dykstra",
		"phone": "(519) 963-0531",
		"website": null
	},
	{
		"company": "Riddoch Lumber Ltd.",
		"link": "/member_directory/35223",
		"street": "292 Leamon St.",
		"city": "Waterford, ON",
		"postCode": "N0E 1Y0",
		"contact": "Jim Kalar",
		"phone": "(519) 443-8613",
		"website": null
	},
	{
		"company": "Rideau Pipe & Drilling Supplies Ltd.",
		"link": "/member_directory/35657",
		"street": "P.O Box 354, Lanark Rd.",
		"city": "Perth, ON",
		"postCode": "K7H 3E4",
		"contact": "John Fournier",
		"phone": "(613) 267-5880",
		"website": null
	},
	{
		"company": "Ridgestone Construction Inc.",
		"link": "/member_directory/33688",
		"street": "4300 Steeles Ave. W. Unit 15",
		"city": "Woodbridge, ON",
		"postCode": "L4L 4C2",
		"contact": "Ernesto Arduini",
		"phone": "(905) 264-7880",
		"website": "http://ridgestonehomes.co"
	},
	{
		"company": "Ridgeview Homes Inc.",
		"link": "/member_directory/36776",
		"street": "299 Manitou Drive Unit A",
		"city": "Kitchener, ON",
		"postCode": "N2C 1L3",
		"contact": "George Mouradian",
		"phone": "(519) 748-0087",
		"website": "http://ridgeviewhomes.com"
	},
	{
		"company": "Ridley Windows & Doors",
		"link": "/member_directory/36916",
		"street": "2675 Reid SideRd., PO Box 97",
		"city": "Campbellville, ON",
		"postCode": "L0P 1B0",
		"contact": "Larry Le Gal",
		"phone": "(905) 854-2228",
		"website": "http://ridley-windows.com"
	},
	{
		"company": "Ridley Windows and Doors",
		"link": "/member_directory/35535",
		"street": "2675 Reid SideRd. PO Box 97",
		"city": "Campbellville, ON",
		"postCode": "L0P 1B0",
		"contact": "Paul Merritt",
		"phone": "1-800-668-5156",
		"website": "http://ridleywindows.com"
	},
	{
		"company": "Riel Homes",
		"link": "/member_directory/36085",
		"street": "381 7th Line of Douro, R.R. #9",
		"city": "Peterborough, ON",
		"postCode": "K9J 6Y1",
		"contact": "Bryan Riel",
		"phone": "(705) 876-9412",
		"website": null
	},
	{
		"company": "Riley Painting Corp.",
		"link": "/member_directory/36917",
		"street": "27 Evening Star Lane",
		"city": "Conestogo, ON",
		"postCode": "N0B 1N0",
		"contact": "Dennis McMahon",
		"phone": "(519) 664-1453",
		"website": "http://rileypainting.com"
	},
	{
		"company": "Rimikon",
		"link": "/member_directory/34941",
		"street": "1275 Leeds Ave. Ste. 800",
		"city": "Ottawa, ON",
		"postCode": "K1B 3W2",
		"contact": "Michel St-Jacques",
		"phone": "(613) 746-9961",
		"website": "http://rimikon.com"
	},
	{
		"company": "Rinaldi Homes (Niagara) Inc.",
		"link": "/member_directory/35944",
		"street": "P.O. Box 1655",
		"city": "St. Catharines, ON",
		"postCode": "L2R 7K1",
		"contact": "Jerry Rinaldi",
		"phone": "(905) 688-1283",
		"website": "http://rinaldihomes.com"
	},
	{
		"company": "Rinnai America Corp.",
		"link": "/member_directory/34859",
		"street": "44 McQueen Dr.",
		"city": "Paris, ON",
		"postCode": "N3L 0A5",
		"contact": "Andrew Arneaud",
		"phone": "(519) 442-1924",
		"website": "http://rinnai.us"
	},
	{
		"company": "Rinnai America Corporation",
		"link": "/member_directory/33471",
		"street": "103 International Dr.",
		"city": "Peachtree City",
		"postCode": "30269",
		"contact": "Andrew Arneaud",
		"phone": "(678) 829-1700",
		"website": "http://rinnai.us"
	},
	{
		"company": "Rintala Construction Co. Ltd.",
		"link": "/member_directory/36692",
		"street": "377 Black Lake Rd.",
		"city": "Lively, ON",
		"postCode": "P3Y 1H8",
		"contact": "Richard Rintala",
		"phone": "(705) 692-3648",
		"website": null
	},
	{
		"company": "RioCan Real Estate Investment Trust",
		"link": "/member_directory/33147",
		"street": "2300 Yonge St. Ste. 500",
		"city": "Toronto, ON",
		"postCode": "M4P 1E4",
		"contact": "Melissa Cristofoli",
		"phone": "(416) 866-3033",
		"website": "http://riocan.com"
	},
	{
		"company": "Ristic Homes Inc.",
		"link": "/member_directory/33148",
		"street": "6 McKelvey Dr.",
		"city": "Thornhill, ON",
		"postCode": "L3T 5X7",
		"contact": "Carl Ristic",
		"phone": "(905) 886-8707",
		"website": "http://ristichomes.com"
	},
	{
		"company": "Ritchie Insulation and General Contracting",
		"link": "/member_directory/36524",
		"street": "43853 S.dale Line R. R. Unit2",
		"city": "St. Thomas, ON",
		"postCode": "N5P 3S6",
		"contact": "Murrey Ritchie",
		"phone": "(519) 633-3461",
		"website": "http://ritchieinsulationandcontracting.ca"
	},
	{
		"company": "Ritesco Enterprises Inc.",
		"link": "/member_directory/35039",
		"street": "4543 S.clark Place",
		"city": "Gloucester, ON",
		"postCode": "K1T 3V2",
		"contact": "Ken McCormack",
		"phone": "(613) 822-1750",
		"website": null
	},
	{
		"company": "Riva Plumbing Ltd.",
		"link": "/member_directory/34259",
		"street": "498 Markland St. Unit 3",
		"city": "Markham, ON",
		"postCode": "L6C 1Z6",
		"contact": "Luca Montanaro",
		"phone": "(905) 888-1900",
		"website": null
	},
	{
		"company": "Rivard Mechanical Plumbing Contractors",
		"link": "/member_directory/35040",
		"street": "1455 Youville Dr., Suite 202",
		"city": "Orleans, ON",
		"postCode": "K1C 6Z7",
		"contact": "Michel Rivard",
		"phone": "(613) 837-2600",
		"website": null
	},
	{
		"company": "River Oaks Homes",
		"link": "/member_directory/33149",
		"street": "23 Lesmill Rd. Ste. 401",
		"city": "North York, ON",
		"postCode": "M3B 3P6",
		"contact": "Stacy Malul",
		"phone": "(416) 445-6900",
		"website": null
	},
	{
		"company": "Riverside Construction",
		"link": "/member_directory/35762",
		"street": "65 Cavendish Cres.",
		"city": "London, ON",
		"postCode": "N6H 1A3",
		"contact": "Greg Hassall",
		"phone": "(519) 614-9044",
		"website": "http://rsclondon.com"
	},
	{
		"company": "Riverside Door & Trim Inc.",
		"link": "/member_directory/36918",
		"street": "520 Conestoga Rd.",
		"city": "Waterloo, ON",
		"postCode": "N2L 4E2",
		"contact": "Mario Gianniotis",
		"phone": "(519) 578-3265",
		"website": "http://riversidedoorandtrim.com"
	},
	{
		"company": "Riverside Door and Trim Inc.",
		"link": "/member_directory/35536",
		"street": "520 Conestogo Rd.",
		"city": "Waterloo, ON",
		"postCode": "N2L 4E2",
		"contact": "Brett Morrison",
		"phone": "(519) 578-3265",
		"website": "http://riversidedoorandtrim.com"
	},
	{
		"company": "Riverstone Design & Build Inc.",
		"link": "/member_directory/36538",
		"street": "14742 Fifteen Mile Rd., R.R. #2",
		"city": "Denfield, ON",
		"postCode": "N0M 1P0",
		"contact": "Mike Loyens",
		"phone": "(519) 666-3537",
		"website": null
	},
	{
		"company": "Rivet Development Corp.",
		"link": "/member_directory/33689",
		"street": "8 Durie St.",
		"city": "Toronto, ON",
		"postCode": "M6S 3E6",
		"contact": "Fred Dyer",
		"phone": "(416) 464-2748",
		"website": "http://rivetdevelopment.com"
	},
	{
		"company": "RJC Cox Construction",
		"link": "/member_directory/34616",
		"street": "85 Elizabeth St.",
		"city": "Orangeville, ON",
		"postCode": "L9W 1C7",
		"contact": "Robert Cox",
		"phone": "(519) 941-7360",
		"website": "http://rjcconstruction.ca"
	},
	{
		"company": "RJM Construction",
		"link": "/member_directory/36012",
		"street": "610-380 Vansickle Rd.",
		"city": "St. Catharines, ON",
		"postCode": "L2S 0B5",
		"contact": "Jean-Marc Marquis",
		"phone": "(905) 682-1313",
		"website": null
	},
	{
		"company": "RK Porter General Contracting Inc.",
		"link": "/member_directory/35642",
		"street": "46 Industrial Rd.",
		"city": "Perth, ON",
		"postCode": "K7H 3P2",
		"contact": "Randy Porter",
		"phone": "(613) 264-8343",
		"website": null
	},
	{
		"company": "RL General Contractor - Construction Renovation",
		"link": "/member_directory/37202",
		"street": "1333 Normandy Cr",
		"city": "Ottawa, ON",
		"postCode": "K2C 0N2",
		"contact": "Reggie Langlois",
		"phone": "613 301 0492",
		"website": null
	},
	{
		"company": "RLB LLP",
		"link": "/member_directory/36796",
		"street": "15 Lewis Rd.",
		"city": "Guelph, ON",
		"postCode": "N1H 1E9",
		"contact": "Dave McEllistrum",
		"phone": "(519) 822-9933",
		"website": "http://rlb.ca"
	},
	{
		"company": "RM Carpentry",
		"link": "/member_directory/35256",
		"street": "1009 Tiffany Lane",
		"city": "Minden, ON",
		"postCode": "K0M2K0",
		"contact": "Ritchie Mills",
		"phone": "(705) 286-2649",
		"website": null
	},
	{
		"company": "RN Design Ltd.",
		"link": "/member_directory/34043",
		"street": "8395 Jane St. Ste. 203",
		"city": "Concord, ON",
		"postCode": "L4K 5Y2",
		"contact": "Robert Nicolucci",
		"phone": "(905) 738-3177",
		"website": "http://rndesign.com"
	},
	{
		"company": "RND Construction",
		"link": "/member_directory/34707",
		"street": "203 Balmoral Place",
		"city": "Ottawa, ON",
		"postCode": "K1H 1B2",
		"contact": "Roy Nandram",
		"phone": "(613) 523-8598",
		"website": "http://rndconstruction.ca"
	},
	{
		"company": "Robdel Roofing Inc. a DeLuca Group Company",
		"link": "/member_directory/35382",
		"street": "1038 Cooke Blvd. Unit #4",
		"city": "Burlington, ON",
		"postCode": "L7T 4A8",
		"contact": "Rob DeLuca",
		"phone": "(905) 631-0961",
		"website": "http://delucaroofing.ca"
	},
	{
		"company": "Robert B. Somerville",
		"link": "/member_directory/34942",
		"street": "2510 Delzotto Ave.",
		"city": "Gloucester, ON",
		"postCode": "K1T 3V7",
		"contact": "Chris Young",
		"phone": "(613) 822-7112",
		"website": "http://rbsomerville.com"
	},
	{
		"company": "Robert Excavating",
		"link": "/member_directory/35041",
		"street": "P.O. Box 1290  1482 St. Jacques St.",
		"city": "Embrun, ON",
		"postCode": "K0A 1W0",
		"contact": "Robert Bourdeau",
		"phone": "(613) 443-2311",
		"website": "http://robertx.ca"
	},
	{
		"company": "Robert Miller Contracting Ltd.",
		"link": "/member_directory/36023",
		"street": "1390 Main St. N. PO Box 460",
		"city": "Callander, ON",
		"postCode": "P0H 1P0",
		"contact": "Robert Miller",
		"phone": "(705) 752-2666",
		"website": null
	},
	{
		"company": "Robert Pauhl - Realtor",
		"link": "/member_directory/34860",
		"street": "61 McGibbon Dr.",
		"city": "Kanata, ON",
		"postCode": "K2L 4A6",
		"contact": "Robert Pauhl",
		"phone": "(613) 218-9883",
		"website": "http://robertpauhl.yourkwagent.com"
	},
	{
		"company": "Robert Russell Planning Consultants Inc.",
		"link": "/member_directory/34044",
		"street": "32 Albert St.",
		"city": "Georgetown, ON",
		"postCode": "L7G 2B3",
		"contact": "Rob Russell",
		"phone": "(647) 460-5511",
		"website": "http://russellplanning.com"
	},
	{
		"company": "Robert Shelley Construction Ltd.",
		"link": "/member_directory/35330",
		"street": "12-173 Wilson St. W.",
		"city": "Ancaster, ON",
		"postCode": "L9G 1N4",
		"contact": "Bob Shelley",
		"phone": "(905) 648-0421",
		"website": null
	},
	{
		"company": "Robins Appleby LLP",
		"link": "/member_directory/34045",
		"street": "120 Adelaide St. W. Ste. 2600",
		"city": "Toronto, ON",
		"postCode": "M5H 1T1",
		"contact": "Leor Margulies",
		"phone": "(416) 360-3372",
		"website": "http://robinsappleby.com"
	},
	{
		"company": "Robinson Contracting (Lindsay) Ltd.",
		"link": "/member_directory/36086",
		"street": "4 Fieldside Rd.",
		"city": "Lindsay, ON",
		"postCode": "K9V 4R5",
		"contact": "John Robinson",
		"phone": "(705) 328-1092",
		"website": "http://robinsoncontracting.ca"
	},
	{
		"company": "Robinson Electric Ltd.",
		"link": "/member_directory/35579",
		"street": "633 Enfield Rd. Unit 6",
		"city": "Burlington, ON",
		"postCode": "L7T 2X9",
		"contact": "David Robinson",
		"phone": "(905) 631-5555",
		"website": null
	},
	{
		"company": "Robinson Enterprises",
		"link": "/member_directory/36474",
		"street": "5170 County Rd. 27, R.R. #1",
		"city": "Cookstown, ON",
		"postCode": "L0L 1L0",
		"contact": "Bill Robinson",
		"phone": "(705) 458-1522",
		"website": null
	},
	{
		"company": "Robinson Lott & Brohman LLP Chartered Accountants & Business Advisors",
		"link": "/member_directory/35127",
		"street": "15 Lewis Rd.",
		"city": "Guelph, ON",
		"postCode": "N1H 1E9",
		"contact": "Heather Burke",
		"phone": "(519) 822-9933",
		"website": null
	},
	{
		"company": "Robson Carpenter LLP",
		"link": "/member_directory/36869",
		"street": "10 N.umberland St.",
		"city": "Ayr, ON",
		"postCode": "N0B 1E0",
		"contact": "Craig Robson",
		"phone": "(519) 632-1327",
		"website": "http://rcllp.ca"
	},
	{
		"company": "Roca Homes / Builder of Exclusive Custom Homes",
		"link": "/member_directory/34708",
		"street": "24 George St. W.",
		"city": "Ottawa, ON",
		"postCode": "K1S 3J2",
		"contact": "Roberto Campagna",
		"phone": "(613) 422-3737",
		"website": "http://rocahomes.ca"
	},
	{
		"company": "Rock Advisors Inc., Brokerage",
		"link": "/member_directory/34046",
		"street": "5100 S. Service Rd. Ste. 51",
		"city": "Burlington, ON",
		"postCode": "L7L 6A5",
		"contact": "Derek Lobo",
		"phone": "(905) 331-5700",
		"website": "http://rockadvisors.ca"
	},
	{
		"company": "Rockett Lumber (KW) Ltd.",
		"link": "/member_directory/35537",
		"street": "1125 Rife Rd.",
		"city": "Cambridge, ON",
		"postCode": "N1R 5S3",
		"contact": "Glen Law",
		"phone": "(519) 623-1200",
		"website": "http://rockettlumber.com"
	},
	{
		"company": "Rockhaven Homes",
		"link": "/member_directory/35091",
		"street": "13106 22nd Side Rd.",
		"city": "Georgetown, ON",
		"postCode": "L7G 4S4",
		"contact": "Albert Grin",
		"phone": "(905) 873-1582",
		"website": null
	},
	{
		"company": "Rockmount Homes Inc.",
		"link": "/member_directory/35713",
		"street": "1093 Brydges St.",
		"city": "London, ON",
		"postCode": "N5W 2B5",
		"contact": "Margaret Carville",
		"phone": "(519) 455-4946",
		"website": "http://rockmounthomes.com"
	},
	{
		"company": "Rockport Group (The)",
		"link": "/member_directory/33150",
		"street": "170 The Donway W. Ste. 307",
		"city": "Don Mills, ON",
		"postCode": "M3C 2G3",
		"contact": "Jack Winberg",
		"phone": "(416) 444-7391",
		"website": "http://rockportgroup.net"
	},
	{
		"company": "Rocpal Custom Cabinets",
		"link": "/member_directory/34601",
		"street": "486 Waterloo Crt.",
		"city": "Oshawa, ON",
		"postCode": "L1H 3X1",
		"contact": "Fernando Rocchetta",
		"phone": "(905) 432-2066",
		"website": "http://rocpal.com"
	},
	{
		"company": "Rodco Enterprises",
		"link": "/member_directory/35257",
		"street": "Box 1005",
		"city": "Haliburton, ON",
		"postCode": "K0M 1S0",
		"contact": "Rod Thurston",
		"phone": "(705) 457-1224",
		"website": null
	},
	{
		"company": "Rodeo Fine Homes Inc.",
		"link": "/member_directory/33151",
		"street": "70 Gibson Dr. Unit 13",
		"city": "Markham, ON",
		"postCode": "L3R 4C2",
		"contact": "Vince Naccarato",
		"phone": "(905) 475-7893",
		"website": "http://rodeofinehomes.com"
	},
	{
		"company": "Roestenberg Welding Ltd.",
		"link": "/member_directory/35905",
		"street": "R.R. # 3",
		"city": "Lucan, ON",
		"postCode": "N0M 2J0",
		"contact": "Jason Bear",
		"phone": "(519) 227-4646",
		"website": "http://rostenbergwelding.com"
	},
	{
		"company": "Roger Biddle",
		"link": "/member_directory/37199",
		"street": "1285 Wellington St W",
		"city": "Ottawa, ON",
		"postCode": "K1Y 3A8",
		"contact": "Roger Biddle",
		"phone": "613 699 2066",
		"website": null
	},
	{
		"company": "Roger Lanthier Insulation Ltd.",
		"link": "/member_directory/35042",
		"street": "123 Clement St.",
		"city": "Vars, ON",
		"postCode": "K0A 3H0",
		"contact": "Roger Lanthier",
		"phone": "(613) 443-4609",
		"website": null
	},
	{
		"company": "Rogers .",
		"link": "/member_directory/36919",
		"street": "85 Grand Crest Place, P.O. Box 488",
		"city": "Kitchener, ON",
		"postCode": "N2G 4A8",
		"contact": "Jim Dowdall",
		"phone": "(519) 572-4642",
		"website": "http://rogers.com"
	},
	{
		"company": "Rogers Cable",
		"link": "/member_directory/34385",
		"street": "800 York St. P.O. Box 5800",
		"city": "London, ON",
		"postCode": "N6A 5B1",
		"contact": "Jim Dowdall",
		"phone": "1-866-300-5460",
		"website": null
	},
	{
		"company": "Rogers Cable",
		"link": "/member_directory/33472",
		"street": "855 York Mills Rd.",
		"city": "Don Mills, ON",
		"postCode": "M3B 1Z1",
		"contact": "Nick Solomos",
		"phone": "(416) 446-7193",
		"website": "http://rogers.com/cma"
	},
	{
		"company": "Rogers Communications",
		"link": "/member_directory/34943",
		"street": "475 Richmond Rd.",
		"city": "Ottawa, ON",
		"postCode": "K2A 3Y8",
		"contact": "Shawn Cation",
		"phone": "(613) 759-8639",
		"website": "http://rogers.com"
	},
	{
		"company": "Rogers Communications Inc.",
		"link": "/member_directory/34575",
		"street": "301 Marwood Dr.",
		"city": "Oshawa, ON",
		"postCode": "L1H 1J4",
		"contact": "Joy Sisnett",
		"phone": "(905) 436-4175",
		"website": "http://rogers.com/cma"
	},
	{
		"company": "Rogers Communications Inc.",
		"link": "/member_directory/35859",
		"street": "800 York St.",
		"city": "London, ON",
		"postCode": "N6A 5B1",
		"contact": "Jim Dowdall",
		"phone": "(519) 895-3289",
		"website": "http://rogers.com"
	},
	{
		"company": "Rogers Communications Inc.",
		"link": "/member_directory/35128",
		"street": "800 York St., Box 5800",
		"city": "London, ON",
		"postCode": "N6A 5B1",
		"contact": "Jim Dowdall",
		"phone": "(519) 895-3289",
		"website": null
	},
	{
		"company": "Rogers Communications Inc.",
		"link": "/member_directory/36501",
		"street": "85 Grand Crest Place POBox 488",
		"city": "Kitchener, ON",
		"postCode": "N2G 4A8",
		"contact": "Jim Dowdall",
		"phone": "(519) 895-3289",
		"website": "http://rogers.com"
	},
	{
		"company": "Rolling Meadows Land Development Corporation",
		"link": "/member_directory/35945",
		"street": "P.O. Box 477",
		"city": "Fonthill, ON",
		"postCode": "L0S 1E0",
		"contact": "Glen Gordon",
		"phone": "(905) 658-6276",
		"website": "http://neighbourhoodsofrollingmeadows.com"
	},
	{
		"company": "Roma Fence Ltd.",
		"link": "/member_directory/33473",
		"street": "24 Cadetta Rd.",
		"city": "Brampton, ON",
		"postCode": "L6P 0X4",
		"contact": "Christina Marra",
		"phone": "(905) 794-0416",
		"website": "http://romafence.com"
	},
	{
		"company": "Rome Flooring Ltd",
		"link": "/member_directory/37203",
		"street": "4-58 Antares Dr",
		"city": "Nepean, ON",
		"postCode": "K2E 7W6",
		"contact": "Michael Cama",
		"phone": "613- 225-2262",
		"website": null
	},
	{
		"company": "Romspen Mortgage Investment Fund",
		"link": "/member_directory/33274",
		"street": "162 Cumberland St. Ste. 300",
		"city": "Toronto, ON",
		"postCode": "M5R 3N5",
		"contact": "Richard Weldon",
		"phone": "(416) 928-4810",
		"website": "http://romspen.com"
	},
	{
		"company": "Ron Custom Homes",
		"link": "/member_directory/33152",
		"street": "4576 Yonge St. Ste. 511",
		"city": "Toronto, ON",
		"postCode": "M2N 6N4",
		"contact": "Safa Safapour",
		"phone": "(416) 471-3706",
		"website": "http://roncustomhomes.com"
	},
	{
		"company": "Rona",
		"link": "/member_directory/35151",
		"street": "55 Dawson Rd.",
		"city": "Guelph, ON",
		"postCode": "N1H 1B1",
		"contact": "Wayne Filsinger",
		"phone": "(519) 821-5744",
		"website": null
	},
	{
		"company": "Rona",
		"link": "/member_directory/33474",
		"street": "1170 Martin Grove Rd.",
		"city": "Etobicoke, ON",
		"postCode": "M9W 4X1",
		"contact": "Shayne Arthey",
		"phone": "(416) 241-8844",
		"website": "http://rona.ca"
	},
	{
		"company": "Rona  Building Centre Belleville",
		"link": "/member_directory/36265",
		"street": "P.O. Box 974, 260 Bell Blvd.",
		"city": "Belleville, ON",
		"postCode": "K8P 4V2",
		"contact": "Dave Hadler",
		"phone": "(613) 967-8080",
		"website": null
	},
	{
		"company": "Rona  Building Centre Trenton",
		"link": "/member_directory/36266",
		"street": "P.O. Box 640, 234 Glen Miller Rd.",
		"city": "Trenton, ON",
		"postCode": "K8V 5W6",
		"contact": "Kim Wight",
		"phone": "(613) 394-3351",
		"website": null
	},
	{
		"company": "Rona Building Centre",
		"link": "/member_directory/36978",
		"street": "7350 Catherine St.",
		"city": "Windsor, ON",
		"postCode": "N8T 3P9",
		"contact": "Matt McKay",
		"phone": "(519) 253-3517",
		"website": null
	},
	{
		"company": "Rona Cashway",
		"link": "/member_directory/34436",
		"street": "65 Colborne St.",
		"city": "Chatham, ON",
		"postCode": "N7M 3L7",
		"contact": "Ron Blue",
		"phone": "(519) 352-0130",
		"website": null
	},
	{
		"company": "Rona Cashway",
		"link": "/member_directory/36029",
		"street": "P.O. Box 216",
		"city": "North Bay, ON",
		"postCode": "P1B 8H2",
		"contact": "Roger Guillemette",
		"phone": "(705) 474-4400",
		"website": null
	},
	{
		"company": "Rona Cashway",
		"link": "/member_directory/36320",
		"street": "P.O.Box 520, 16 Forest Valley Lane",
		"city": "Pembroke, ON",
		"postCode": "K8A 6X7",
		"contact": "Nicole Elliot-Maahs",
		"phone": "(613) 735-0695",
		"website": null
	},
	{
		"company": "Rona Cashway Building Centre",
		"link": "/member_directory/35224",
		"street": "10 Davis St. P.O. Box 590",
		"city": "Simcoe, ON",
		"postCode": "N3Y 4N5",
		"contact": "Pat Schmitke",
		"phone": "(519) 426-2740",
		"website": null
	},
	{
		"company": "Rona Goderich",
		"link": "/member_directory/34316",
		"street": "155 Anglesea St.",
		"city": "Goderich, ON",
		"postCode": "N7A 1V5",
		"contact": "Murray Leis",
		"phone": "(519) 524-1778",
		"website": null
	},
	{
		"company": "Rona Inc.",
		"link": "/member_directory/34576",
		"street": "1279 Simcoe St. N.",
		"city": "Oshawa, ON",
		"postCode": "L1G 4X1",
		"contact": "Mike DiPalo Jim Carroll",
		"phone": "(905) 728-6200",
		"website": "http://millworkhome.com"
	},
	{
		"company": "Rona Lansing Burlington",
		"link": "/member_directory/35538",
		"street": "1830 Ironstone Dr.",
		"city": "Burlington, ON",
		"postCode": "L7L 5V3",
		"contact": "Bill Millward",
		"phone": "(905) 332-8868",
		"website": "http://rona.ca"
	},
	{
		"company": "Rona Ontario Inc.",
		"link": "/member_directory/36455",
		"street": "61 Mapleview Dr. E.",
		"city": "Barrie, ON",
		"postCode": "L4N 9H5",
		"contact": "Dan Key",
		"phone": "(705) 792-6670",
		"website": null
	},
	{
		"company": "Ronald S. Sisson Builders",
		"link": "/member_directory/35258",
		"street": "1207 Pine Lake Rd.",
		"city": "Haliburton, ON",
		"postCode": "K0M 1S0",
		"contact": "Shane Sisson",
		"phone": "(705) 754-3036",
		"website": null
	},
	{
		"company": "Roni Excavating Ltd.",
		"link": "/member_directory/34260",
		"street": "100 MacIntosh Blvd.",
		"city": "Concord, ON",
		"postCode": "L4K 4P3",
		"contact": "Giocondo Niro",
		"phone": "(905) 738-6655",
		"website": "http://roniexcavating.com"
	},
	{
		"company": "Roof Over Head Developments",
		"link": "/member_directory/34709",
		"street": "197 Preston St.",
		"city": "Ottawa, ON",
		"postCode": "K1R 7P8",
		"contact": "Anthony Cava",
		"phone": "(613) 227-3448",
		"website": "http://roofoverhead.ca"
	},
	{
		"company": "Roof Trusses & Components",
		"link": "/member_directory/35152",
		"street": "R.R. #5",
		"city": "Rockwood, ON",
		"postCode": "N0B 2K0",
		"contact": "Paul Dudnick",
		"phone": "(519) 856-4623",
		"website": null
	},
	{
		"company": "Roofing Done Right",
		"link": "/member_directory/36693",
		"street": "125 Magill St. Unit B",
		"city": "Lively, ON",
		"postCode": "P5Y 1K6",
		"contact": "Michael Giles",
		"phone": "(705) 561-8480",
		"website": "http://roofingdoneright.ca"
	},
	{
		"company": "Roofing Plus",
		"link": "/member_directory/36299",
		"street": "538 Bird Rd.",
		"city": "Stirling, ON",
		"postCode": "K0K 3E0",
		"contact": "Steve Treverton",
		"phone": "(613) 698-6363",
		"website": null
	},
	{
		"company": "Rosati Group",
		"link": "/member_directory/36956",
		"street": "6555 Malden Rd.",
		"city": "LaSalle, ON",
		"postCode": "N9H 1T5",
		"contact": "Tony Rosati",
		"phone": "(519) 734-6511",
		"website": "http://rosatigroup.com"
	},
	{
		"company": "Rose Sun Motor Tech Ltd",
		"link": "/member_directory/37084",
		"street": "8888 Keel St Unit 4",
		"city": "Concord, ON",
		"postCode": "L4K 2N2",
		"contact": "Leo Liao",
		"phone": null,
		"website": null
	},
	{
		"company": "Rose Wood Flooring Inc.",
		"link": "/member_directory/34261",
		"street": "49 Bakersfield St.",
		"city": "Toronto, ON",
		"postCode": "M3J 1Z4",
		"contact": "Mary DeCaria",
		"phone": "(416) 633-5757",
		"website": "http://rosewoodflooring.com"
	},
	{
		"company": "Rosehaven Homes",
		"link": "/member_directory/35946",
		"street": "145 Reynolds St.",
		"city": "Oakville, ON",
		"postCode": "L6J 0A7",
		"contact": "Marco Guglietti",
		"phone": "(905) 849-1166",
		"website": "http://rosehavenhomes.com"
	},
	{
		"company": "Rosehaven Homes Ltd.",
		"link": "/member_directory/35331",
		"street": "145 Reynolds St. Suite 300",
		"city": "Oakville, ON",
		"postCode": "L6J 3K8",
		"contact": "Joe Laronga",
		"phone": "(905) 849-1166",
		"website": "http://rosehavenhomes.com"
	},
	{
		"company": "Rosehaven Homes Ltd.",
		"link": "/member_directory/33153",
		"street": "145 Reynolds St. Ste. 300",
		"city": "Oakville, ON",
		"postCode": "L6J 0A7",
		"contact": "Marco Guglietti",
		"phone": "(905) 849-1166",
		"website": "http://rosehavenhomes.com"
	},
	{
		"company": "Rosehill Wine Cellars Inc.",
		"link": "/member_directory/33690",
		"street": "1686 Mattawa Ave.",
		"city": "Mississauga, ON",
		"postCode": "L4X 1K2",
		"contact": "Gary LaRose",
		"phone": "(905) 275-0979",
		"website": "http://rosehillwinecellars.com"
	},
	{
		"company": "Rosemar Construction & Excavating Ltd.",
		"link": "/member_directory/34262",
		"street": "200 Healey Rd.",
		"city": "Bolton, ON",
		"postCode": "L7E 5B1",
		"contact": "Daniel Martellacci",
		"phone": "(416) 675-6356",
		"website": null
	},
	{
		"company": "Rosemont Homes Inc.",
		"link": "/member_directory/35332",
		"street": "145 Christopher Dr.",
		"city": "Hamilton, ON",
		"postCode": "L9B 1G6",
		"contact": "Joe Chiarelli",
		"phone": "(905) 574-7790",
		"website": "http://rosemonthomes.ca"
	},
	{
		"company": "Rosenswig McRae Thorpe LLP",
		"link": "/member_directory/34047",
		"street": "655 Bay St. Ste. 1101",
		"city": "Toronto, ON",
		"postCode": "M5G 2K4",
		"contact": "Tony Rosso",
		"phone": "(416) 977-6600",
		"website": "http://rmtca.ca"
	},
	{
		"company": "Ross Windows & Doors",
		"link": "/member_directory/36694",
		"street": "475 Buchanan St.",
		"city": "Sudbury, ON",
		"postCode": "P3C 1E4",
		"contact": "Garry Spry",
		"phone": "(705) 671-9449",
		"website": "http://rosswindowsanddoors.com"
	},
	{
		"company": "Roswell Construction Inc.",
		"link": "/member_directory/33691",
		"street": "186 Dupont St.",
		"city": "Toronto, ON",
		"postCode": "M5R 2E6",
		"contact": "Sergio Rosa",
		"phone": "(416) 621-3286",
		"website": "http://roswellconstruction.net"
	},
	{
		"company": "Roussel Eavestrough",
		"link": "/member_directory/34602",
		"street": "121 Nugget Ave.",
		"city": "Scarborough, ON",
		"postCode": "M1S 3B1",
		"contact": "Jason Roussel",
		"phone": "(416) 438-4344",
		"website": "http://rousseleavestrough.com"
	},
	{
		"company": "Roussel Eavestrough Distributors Ltd.",
		"link": "/member_directory/34263",
		"street": "121 Nugget Ave.",
		"city": "Scarborough, ON",
		"postCode": "M1S 3B1",
		"contact": "Jason Roussel",
		"phone": "(416) 438-4344",
		"website": "http://rousseleavestrough.com"
	},
	{
		"company": "Roxul Inc.",
		"link": "/member_directory/33475",
		"street": "8024 Esquesing Line",
		"city": "Milton, ON",
		"postCode": "L9T 6W3",
		"contact": "Trudy Puls",
		"phone": "(905) 878-8474",
		"website": "http://roxul.com"
	},
	{
		"company": "Royal Bank",
		"link": "/member_directory/34346",
		"street": "6880 Financial Dr. Tower 2, 6th Flr.",
		"city": "Mississauga, ON",
		"postCode": "L5N 7Y5",
		"contact": "Paul Keizer",
		"phone": "(519) 400-3729",
		"website": "http://rbc.com"
	},
	{
		"company": "Royal Bank",
		"link": "/member_directory/36216",
		"street": "246 N. Front St.",
		"city": "Belleville, ON",
		"postCode": "K8P 3C2",
		"contact": "Barry Rivers",
		"phone": "(613) 969-6133",
		"website": null
	},
	{
		"company": "Royal Bank",
		"link": "/member_directory/34495",
		"street": "800 Taunton Rd. E.",
		"city": "Oshawa, ON",
		"postCode": "L1H 7K5",
		"contact": "Linda Binns Regional Manager",
		"phone": "(905) 213-3638",
		"website": "http://rbc.com"
	},
	{
		"company": "Royal Bank of Canada",
		"link": "/member_directory/35103",
		"street": "987 Gordon St.",
		"city": "Guelph, ON",
		"postCode": "N1G 4W3",
		"contact": "Paul Keizer",
		"phone": "(519) 821-5312",
		"website": null
	},
	{
		"company": "Royal Bank of Canada",
		"link": "/member_directory/34861",
		"street": "360 March Rd.",
		"city": "Kanata, ON",
		"postCode": "K2K 2T5",
		"contact": "Cathy Corner",
		"phone": "(613) 614-2268",
		"website": "http://rbcroyalbank.com"
	},
	{
		"company": "Royal Bank of Canada",
		"link": "/member_directory/35438",
		"street": "3405 Harvester Rd. Suite 200",
		"city": "Burlington, ON",
		"postCode": "L7N 3N1",
		"contact": "Marion Richardson",
		"phone": "(905) 628-1778",
		"website": "http://rbc.com"
	},
	{
		"company": "Royal Bank of Canada, Real Estate Markets Group, Home Builder Finance",
		"link": "/member_directory/34496",
		"street": "20 King St. W. 2nd Floor",
		"city": "Toronto, ON",
		"postCode": "M5H 1C4",
		"contact": "Sean McIlveen",
		"phone": "(416) 974-6910",
		"website": "http://rbc.com"
	},
	{
		"company": "Royal Building Products",
		"link": "/member_directory/35860",
		"street": "3886 Commerce Rd.",
		"city": "London, ON",
		"postCode": "N6N 1P8",
		"contact": "Greg Birmingham",
		"phone": "(519) 644-0440",
		"website": "http://royalbuildingproducts.com/"
	},
	{
		"company": "Royal Building Products",
		"link": "/member_directory/33476",
		"street": "91 Royal Group Cres.",
		"city": "Woodbridge, ON",
		"postCode": "L4H 1X9",
		"contact": "Peter Buskermolen",
		"phone": "(905) 850-9700",
		"website": "http://royalbuildingproducts.com"
	},
	{
		"company": "Royal Building Solutions",
		"link": "/member_directory/34944",
		"street": "1750 Bantree St.",
		"city": "Ottawa, ON",
		"postCode": "K1B 3W4",
		"contact": "Eric Lavoie",
		"phone": "(613) 744-1121",
		"website": "http://royalbuildingproducts.com"
	},
	{
		"company": "Royal Crown Aluminum Railing & Fencing Manufacturers",
		"link": "/member_directory/34264",
		"street": "73 Galaxy Blvd. Ste. 8",
		"city": "Toronto, ON",
		"postCode": "M9W 5T4",
		"contact": "Blair Karamani",
		"phone": "(416) 213-1772",
		"website": "http://royalcrownaluminum.com"
	},
	{
		"company": "Royal Home Improvements",
		"link": "/member_directory/33692",
		"street": "4229 Dundas St. W.",
		"city": "Toronto, ON",
		"postCode": "M8X 1Y3",
		"contact": "Lupo Cinco",
		"phone": "(416) 236-4400",
		"website": "http://royalhomeimprovements.ca"
	},
	{
		"company": "Royal Homes Minden",
		"link": "/member_directory/35259",
		"street": "Box 395",
		"city": "Minden, ON",
		"postCode": "K0M 2K0",
		"contact": "Mike Boisvert",
		"phone": "(705) 286-6992",
		"website": null
	},
	{
		"company": "Royal Indevco Properties Inc.",
		"link": "/member_directory/34048",
		"street": "1721 Flint Rd.",
		"city": "Toronto, ON",
		"postCode": "M3J 2W8",
		"contact": "Orvin Zendel",
		"phone": "(416) 785-4572",
		"website": null
	},
	{
		"company": "Royal Interior Design Ltd.",
		"link": "/member_directory/34049",
		"street": "111 Lake Woods Dr.",
		"city": "Stouffville, ON",
		"postCode": "L4A 1P1",
		"contact": "Catherine-Lucie Horber",
		"phone": "(416) 573-5378",
		"website": "http://royalinteriordesign.ca"
	},
	{
		"company": "Royal Lane Homes",
		"link": "/member_directory/33154",
		"street": "620 Wilson Ave. Ste. 202",
		"city": "Toronto, ON",
		"postCode": "M3K 1Z3",
		"contact": "Frank Carinci",
		"phone": "(416) 630-5263",
		"website": "http://royallanehomes.com"
	},
	{
		"company": "Royal LePage Brown Realty",
		"link": "/member_directory/35202",
		"street": "63 Queensway W. PO Box 642",
		"city": "Simcoe, ON",
		"postCode": "N3Y 4T2",
		"contact": "Bob Ferguson",
		"phone": "(519) 426-7187",
		"website": null
	},
	{
		"company": "Royal LePage Estate Realty, Brokerage",
		"link": "/member_directory/34050",
		"street": "2301 Queen St. E.",
		"city": "Toronto, ON",
		"postCode": "M4E 1G7",
		"contact": "Desmond Brown",
		"phone": "(416) 690-5100",
		"website": "http://desmondbrown.ca"
	},
	{
		"company": "Royal LePage RCR Realty",
		"link": "/member_directory/34629",
		"street": "75 First St.",
		"city": "Orangeville, ON",
		"postCode": "L9W 3Z9",
		"contact": "Andrew Wildeboer",
		"phone": "(519) 941-5151",
		"website": "http://royallepage.ca"
	},
	{
		"company": "Royal LePage Real Estate Ltd.,",
		"link": "/member_directory/36217",
		"street": "357 Front St. Empire Square",
		"city": "Belleville, ON",
		"postCode": "K8N 2Z9",
		"contact": "John-Ross Parks",
		"phone": "(613) 966-6060",
		"website": null
	},
	{
		"company": "Royal Lepage Royal City Realty-David Halls",
		"link": "/member_directory/35129",
		"street": "25 Waterloo Ave.",
		"city": "Guelph, ON",
		"postCode": "N1H 3H4",
		"contact": "David Halls",
		"phone": "(519) 824-9050",
		"website": null
	},
	{
		"company": "Royal LePage State Realty",
		"link": "/member_directory/35439",
		"street": "115 Highway No. 8",
		"city": "Stoney Creek, ON",
		"postCode": "L8G 1C1",
		"contact": "Tony Chiarella",
		"phone": "(905) 662-6666",
		"website": "http://royallepagestate.ca"
	},
	{
		"company": "Royal LePage Terrequity",
		"link": "/member_directory/34051",
		"street": "63 Johnson St.",
		"city": "Thornhill, ON",
		"postCode": "L3T 2N9",
		"contact": "Pierre Boiron",
		"phone": "(905) 882-8800",
		"website": "http://boirongroup.ca"
	},
	{
		"company": "Royal LePage Your Community Realty",
		"link": "/member_directory/34052",
		"street": "8854 Yonge St.",
		"city": "Richmond Hill, ON",
		"postCode": "L4C 0T4",
		"contact": "Vivian Risi",
		"phone": "(905) 731-2000",
		"website": "http://yourcommunityrealty.com"
	},
	{
		"company": "Royal LePage Your Community Realty (Bruno Vono)",
		"link": "/member_directory/34053",
		"street": "9411 Jane St. Unit 1",
		"city": "Vaughan, ON",
		"postCode": "L6A 9J3",
		"contact": "Bruno Vono",
		"phone": "(905) 832-6656",
		"website": "http://brunovono.com"
	},
	{
		"company": "Royal Oak Railing & Stair Ltd.",
		"link": "/member_directory/33477",
		"street": "1131 Gorham St. Unit 13",
		"city": "Newmarket, ON",
		"postCode": "L3Y 8X9",
		"contact": "Troy Girard",
		"phone": "(905) 853-5727",
		"website": "http://royaloakstair.ca"
	},
	{
		"company": "Royal Park Homes",
		"link": "/member_directory/33155",
		"street": "65 Royalpark Way",
		"city": "Woodbridge, ON",
		"postCode": "L4H 1J5",
		"contact": "Marco DeSimone",
		"phone": "(416) 736-8635",
		"website": "http://royalpark.com"
	},
	{
		"company": "Royal Pine Homes Ltd.",
		"link": "/member_directory/33156",
		"street": "3550 Langstaff Rd. Ste. 200",
		"city": "Woodbridge, ON",
		"postCode": "L4L 9G3",
		"contact": "Steve Carogioiello",
		"phone": "(905) 856-2150",
		"website": "http://royalpinehomes.com"
	},
	{
		"company": "Royalcliff Homes Inc.",
		"link": "/member_directory/33157",
		"street": "100 Regina Rd. Ste. 3",
		"city": "Woodbridge, ON",
		"postCode": "L4L 8M7",
		"contact": "Gianni Del Degan",
		"phone": "(905) 265-1611",
		"website": "http://royalcliffhomes.com"
	},
	{
		"company": "RPM Promotions",
		"link": "/member_directory/34311",
		"street": "99 Erie St., Box 1083",
		"city": "Clinton, ON",
		"postCode": "N0M 1L0",
		"contact": "Ron Plasschart",
		"phone": "(519) 606-6000",
		"website": "http://rpmpromo.ca"
	},
	{
		"company": "RRJ Disposal and Demolition Services",
		"link": "/member_directory/34265",
		"street": "300 John St. P.O. Box 87595",
		"city": "Thornhill, ON",
		"postCode": "L3T 7R3",
		"contact": "Rocco Congiusti",
		"phone": "(416) 315-2324",
		"website": "http://rrjdisposaldemolition.ca"
	},
	{
		"company": "RS Homes a division of LSI Engineering Ltd.",
		"link": "/member_directory/33158",
		"street": "23 Lesmill Rd. Ste. 110",
		"city": "Toronto, ON",
		"postCode": "M3B 3P6",
		"contact": "Neda Azarmipour",
		"phone": "(416) 480-0282",
		"website": "http://rshomes.ca"
	},
	{
		"company": "RTG Systems Inc.",
		"link": "/member_directory/34054",
		"street": "3518 Mainway Dr. Ste. 201",
		"city": "Burlington, ON",
		"postCode": "L7M 1A8",
		"contact": "Mark Gayowsky",
		"phone": "(905) 335-4470",
		"website": "http://rtgsystems.com"
	},
	{
		"company": "RTG Systems Inc.",
		"link": "/member_directory/35440",
		"street": "3518 Mainway Suite 203",
		"city": "Burlington, ON",
		"postCode": "L7M 1A8",
		"contact": "Mark Gayowsky",
		"phone": "(905) 335-4470",
		"website": "http://rtgsystems.com"
	},
	{
		"company": "Rueter Scargall Bennett LLP",
		"link": "/member_directory/34055",
		"street": "250 Yonge St. Ste. 2200",
		"city": "Toronto, ON",
		"postCode": "M5B 2L7",
		"contact": "Paul Scargall",
		"phone": "(416) 869-3417",
		"website": "http://rslawyers.com"
	},
	{
		"company": "Ruetz Construction",
		"link": "/member_directory/36374",
		"street": "RR#3",
		"city": "Mildmay, ON",
		"postCode": "N0G 2J0",
		"contact": "David Ruetz",
		"phone": "(519) 367-2706",
		"website": null
	},
	{
		"company": "Rulestone Renovations Inc.",
		"link": "/member_directory/33693",
		"street": "9 Woodland Park Rd.",
		"city": "Toronto, ON",
		"postCode": "M1N 2X5",
		"contact": "Dave Andresen",
		"phone": "(416) 694-6016",
		"website": null
	},
	{
		"company": "Rumble Homes",
		"link": "/member_directory/34404",
		"street": "5756 Middle Line",
		"city": "Merlin, ON",
		"postCode": "N0P 1W0",
		"contact": "Jeff Rumble",
		"phone": "(519) 689-4002",
		"website": null
	},
	{
		"company": "Russo Home Renovations Inc.",
		"link": "/member_directory/36820",
		"street": "391 Hagen Crt.",
		"city": "Waterloo, ON",
		"postCode": "N2K 4A8",
		"contact": "Peter Russo",
		"phone": "(519) 591-2002",
		"website": "http://russohomerenovations.com"
	},
	{
		"company": "RV Anderson Associates Ltd.",
		"link": "/member_directory/36659",
		"street": "436 W.mount Ave., #6",
		"city": "Sudbury, ON",
		"postCode": "P3A 5Z8",
		"contact": "Candice Green",
		"phone": "(705) 560-5555",
		"website": "http://rvanderson.com"
	},
	{
		"company": "RW Framing Contractors",
		"link": "/member_directory/34266",
		"street": "7500 Highway 27 Unit 15",
		"city": "Woodbridge, ON",
		"postCode": "L4H 0J2",
		"contact": "Marcelo Pena",
		"phone": "(905) 663-6060",
		"website": null
	},
	{
		"company": "S & S Bolton Group",
		"link": "/member_directory/35043",
		"street": "5411 Canotek Rd.",
		"city": "Gloucester, ON",
		"postCode": "K1J 9M3",
		"contact": "Brian Doxtator",
		"phone": "(613) 748-0432",
		"website": "http://ssbolton.com"
	},
	{
		"company": "S & S Construction",
		"link": "/member_directory/35260",
		"street": "1130 Buckslide Rd.",
		"city": "Algonquin Highlands, ON",
		"postCode": "K0M1J2",
		"contact": "Scott Doan",
		"phone": "(705) 489-3515",
		"website": null
	},
	{
		"company": "S. Clark Homes Ltd.",
		"link": "/member_directory/35618",
		"street": "49A Grant Timmins Dr.",
		"city": "Kingston, ON",
		"postCode": "K7M 8N3",
		"contact": "Denise Petel-Clark",
		"phone": "(613) 384-1096",
		"website": "http://sclarkhomes.com"
	},
	{
		"company": "S. Llewellyn & Associates Ltd.",
		"link": "/member_directory/35441",
		"street": "3228 S. Service Rd. Suite 105",
		"city": "Burlington, ON",
		"postCode": "L7N 3H8",
		"contact": "Steven Frankovich",
		"phone": "(905) 631-6978",
		"website": null
	},
	{
		"company": "S.T.R. Builders Ltd.",
		"link": "/member_directory/36718",
		"street": "Box 32023 572 Arthur St., W.",
		"city": "Thunder Bay, ON",
		"postCode": "P7E 0A1",
		"contact": "Tim Prosdocimo",
		"phone": "(807) 622-5996",
		"website": null
	},
	{
		"company": "S2e Technologies",
		"link": "/member_directory/35795",
		"street": "111 Horton St.",
		"city": "London, ON",
		"postCode": "N6A 4H6",
		"contact": "Derek Satnik",
		"phone": "(519) 664-3636",
		"website": "http://s2etech.com"
	},
	{
		"company": "Saberwood Homes (1250259 Ontario Inc.)",
		"link": "/member_directory/33159",
		"street": "40 Snidercroft Rd. Unit 11",
		"city": "Concord, ON",
		"postCode": "L4K 0B5",
		"contact": "Jennifer Bartos",
		"phone": "(905) 761-8690",
		"website": "http://saberwoodhomes.com"
	},
	{
		"company": "Sabourin Kimble & Associates",
		"link": "/member_directory/34056",
		"street": "110 Old Kingston Rd.",
		"city": "Ajax, ON",
		"postCode": "L1T 2Z9",
		"contact": "Richard Sabourin",
		"phone": "(905) 426-9451",
		"website": "http://skaengineering.com"
	},
	{
		"company": "Sabrina Albanese Design Inc.",
		"link": "/member_directory/37129",
		"street": "2 Jackes Ave",
		"city": "Toronto, ON",
		"postCode": "M4T 0A1",
		"contact": "Sabrina Albanese",
		"phone": "416 962 0101",
		"website": null
	},
	{
		"company": "Sacco Steel Ltd.",
		"link": "/member_directory/33478",
		"street": "P. O. Box 329",
		"city": "Caledon, ON",
		"postCode": "L7E 5T3",
		"contact": "Angelo Sacco",
		"phone": "(905) 857-2702",
		"website": null
	},
	{
		"company": "SacWal Flooring Centres",
		"link": "/member_directory/35861",
		"street": "2200 Wharncliffe Rd. S.",
		"city": "London, ON",
		"postCode": "N6P 1L1",
		"contact": "John Verhey",
		"phone": "(519) 652-0023",
		"website": "http://sacwalflooringcentres.com"
	},
	{
		"company": "Saddlebrook Management Consultants Inc.",
		"link": "/member_directory/33160",
		"street": "40 Snidercroft Rd. Ste. 1",
		"city": "Concord, ON",
		"postCode": "L4K 0B5",
		"contact": "Brian Skinner",
		"phone": "(416) 398-8222",
		"website": "http://smc1991.com"
	},
	{
		"company": "Safety Pro",
		"link": "/member_directory/37013",
		"street": "205 Highland Cres Unit 8",
		"city": "Kitchener, ON",
		"postCode": "N2M 5L6",
		"contact": "Russell David Bampton",
		"phone": "519-496-2475",
		"website": "http://safetyprosolutions.com"
	},
	{
		"company": "Sage Living Toronto",
		"link": "/member_directory/37096",
		"street": "78 Balmoral Ave",
		"city": "Toronto, ON",
		"postCode": "M4V 1J4",
		"contact": "Bettina Hoar",
		"phone": "416-272-8295",
		"website": null
	},
	{
		"company": "Salerno Custom Homes",
		"link": "/member_directory/33161",
		"street": "5080 Timberlea Blvd. Unit 10",
		"city": "Mississauga, ON",
		"postCode": "L4W 4M2",
		"contact": "Peter Di Scola",
		"phone": "(905) 602-8611",
		"website": "http://salerno.ca"
	},
	{
		"company": "Salesfacts Marketing Group",
		"link": "/member_directory/36870",
		"street": "70 E. Beaver Creek Rd., Suite 1",
		"city": "Richmond Hill, ON",
		"postCode": "L4B 3B2",
		"contact": "Sue Stephenson",
		"phone": "(519) 579-9450",
		"website": "http://salesfacts.ca"
	},
	{
		"company": "Salesfax Marketing Group",
		"link": "/member_directory/34057",
		"street": "70 E. Beaver Creek Rd. Ste. 1",
		"city": "Richmond Hill, ON",
		"postCode": "L4B 3B2",
		"contact": "Barry Racippo",
		"phone": "(905) 764-6423",
		"website": null
	},
	{
		"company": "Salit Steel",
		"link": "/member_directory/34577",
		"street": "222 Baseline Rd. E.",
		"city": "Bowmanville, ON",
		"postCode": "L1C 1A4",
		"contact": "Bob Cameron",
		"phone": "(905) 623-5544",
		"website": "http://salitsteel.com"
	},
	{
		"company": "Salit Steel",
		"link": "/member_directory/36148",
		"street": "222 Baseline Rd. E.",
		"city": "Bowmanville, ON",
		"postCode": "L1C 1A4",
		"contact": "Michael Cohen",
		"phone": "(905) 623-5544",
		"website": "http://salitsteel.com"
	},
	{
		"company": "Sam Holding Inc.",
		"link": "/member_directory/37065",
		"street": "2035 Kennedy Road",
		"city": "Toronto, ON",
		"postCode": "M1T 3G2",
		"contact": "Mark Bales",
		"phone": "416 754 6952",
		"website": null
	},
	{
		"company": "Sandbank Homes",
		"link": "/member_directory/36185",
		"street": "14 Empire Blvd.",
		"city": "Wellington, ON",
		"postCode": "K0K 3L0",
		"contact": "Graham Shannon",
		"phone": "(613) 399-1499",
		"website": null
	},
	{
		"company": "SandCherry Homes",
		"link": "/member_directory/33162",
		"street": "52 Wilderness Trail",
		"city": "Gormley, ON",
		"postCode": "L0H 1G0",
		"contact": "Rick D&apos;Andrea",
		"phone": "(905) 887-7751",
		"website": null
	},
	{
		"company": "Sandgate Construction Inc.",
		"link": "/member_directory/33694",
		"street": "4 Vata Crt. Ste. 17",
		"city": "Aurora, ON",
		"postCode": "L4G 4B6",
		"contact": "Wendy Sue Wagner",
		"phone": "(905) 841-6440",
		"website": "http://sandgateconstruction.com"
	},
	{
		"company": "SanDiego Homes Inc.",
		"link": "/member_directory/33163",
		"street": "1585 Kale Dr.",
		"city": "Innisfil, ON",
		"postCode": "L9S 1X2",
		"contact": "Diego Rizzardo",
		"phone": "(705) 436-5775",
		"website": "http://sandiego-homes.ca"
	},
	{
		"company": "Sandler Training Hamilton/Endurance Partners Inc.",
		"link": "/member_directory/35443",
		"street": "461 Green Rd. Unit 11",
		"city": "Stoney Creek, ON",
		"postCode": "L8E 5B4",
		"contact": "Lisa Von Massow",
		"phone": "(905) 963-1339",
		"website": "http://endurancepartners.sandler.com"
	},
	{
		"company": "Sandy Cook Marketing & Design",
		"link": "/member_directory/34531",
		"street": "1028 Highbrooke Crt.",
		"city": "Oshawa, ON",
		"postCode": "L1K 2K6",
		"contact": "Sandy Cook",
		"phone": "(905) 432-6803",
		"website": "http://sandycookdesign.com"
	},
	{
		"company": "Sandy Hill Construction Ltd.",
		"link": "/member_directory/34769",
		"street": "130 Wren Rd.., R.R. #1",
		"city": "Ottawa, ON",
		"postCode": "K0A 1T0",
		"contact": "John Wenuk",
		"phone": "(613) 832-1717",
		"website": "http://sandyhill.ca"
	},
	{
		"company": "Santerra Stonecraft",
		"link": "/member_directory/36979",
		"street": "5155 Rhodes Drive",
		"city": "Windsor, ON",
		"postCode": "N8W 5T1",
		"contact": "Roch Barrette",
		"phone": "519-796-2526",
		"website": "http://santsar.com"
	},
	{
		"company": "Santerra Stonecraft",
		"link": "/member_directory/34437",
		"street": "7885 Howard Ave., Box 444",
		"city": "McGregor, ON",
		"postCode": "N0P 1J0",
		"contact": "Joe Santarossa",
		"phone": "(519) 726-5444",
		"website": "http://santerrastonecraft.com"
	},
	{
		"company": "Saratoga Homes Inc.",
		"link": "/member_directory/35714",
		"street": "1535 Hyde Park Rd.",
		"city": "London, ON",
		"postCode": "N6H 5L4",
		"contact": "Doug Durnin",
		"phone": "(519) 657-2800",
		"website": "http://saratogahomes.ca"
	},
	{
		"company": "Sarjeant (The) Company Ltd.",
		"link": "/member_directory/36475",
		"street": "Box 277 15 Sarjeant Dr.",
		"city": "Barrie, ON",
		"postCode": "L4M 4T2",
		"contact": "Walter Marshall",
		"phone": "(705) 728-2460",
		"website": null
	},
	{
		"company": "Sarmazian Bros. Ltd.",
		"link": "/member_directory/35153",
		"street": "575 Woodlawn Rd. W.",
		"city": "Guelph, ON",
		"postCode": "N1K 1E9",
		"contact": "Jack Sarmazian",
		"phone": "(519) 837-2120",
		"website": null
	},
	{
		"company": "Sarmazian Brothers Ltd.",
		"link": "/member_directory/36920",
		"street": "575 Woodlawn Rd. W.",
		"city": "Guelph, ON",
		"postCode": "N1K 1E9",
		"contact": "Garo Sarmazian",
		"phone": "(519) 837-2120",
		"website": "http://sarmazian.com"
	},
	{
		"company": "Sarmazian Brothers Ltd.",
		"link": "/member_directory/35539",
		"street": "575 Woodlawn Rd. W.",
		"city": "Guelph, ON",
		"postCode": "N1K 1E9",
		"contact": "Shant Sarmazian",
		"phone": "(519) 837-2120",
		"website": null
	},
	{
		"company": "Sarmazian Brothers Ltd.",
		"link": "/member_directory/35540",
		"street": "575 Woodlawn Rd. W.",
		"city": "Guelph, ON",
		"postCode": "N1K 1E9",
		"contact": "Shant Sarmazian",
		"phone": "(519) 837-2120",
		"website": "http://sarmazian.com"
	},
	{
		"company": "Sarnia Concrete Products",
		"link": "/member_directory/36348",
		"street": "166 Devine St.",
		"city": "Sarnia, ON",
		"postCode": "N7S 5N2",
		"contact": "Alex Botma",
		"phone": "(519) 336-0100",
		"website": "http://sarniaconcrete.com"
	},
	{
		"company": "Sarnia Drywall",
		"link": "/member_directory/37154",
		"street": "1781 London Line",
		"city": "Sarnia, ON",
		"postCode": "N7T 7H2",
		"contact": "Trudy Portiss",
		"phone": "519 542 8646",
		"website": null
	},
	{
		"company": "Satin Finish Hardwood Flooring Ltd.",
		"link": "/member_directory/33479",
		"street": "15 Fenmar Dr.",
		"city": "Toronto, ON",
		"postCode": "M9L 1L4",
		"contact": "Lou Novelli",
		"phone": "(416) 747-9924",
		"website": "http://satinfinish.com"
	},
	{
		"company": "Savanta Inc.",
		"link": "/member_directory/34058",
		"street": "37 Bellevue Terrace",
		"city": "St. Catharines, ON",
		"postCode": "L2S 1P4",
		"contact": "Tom Hilditch",
		"phone": "(905) 704-4447",
		"website": "http://savanta.ca"
	},
	{
		"company": "Savaria Sales Installation and Service",
		"link": "/member_directory/33480",
		"street": "2 Walker Dr.",
		"city": "Brampton, ON",
		"postCode": "L6T 5E1",
		"contact": "Kevin Wells",
		"phone": "(905) 450-7010",
		"website": "http://savaria.com"
	},
	{
		"company": "Savile Pool & Spa",
		"link": "/member_directory/36621",
		"street": "456 Erie St.",
		"city": "Stratford, ON",
		"postCode": "N5A 2N5",
		"contact": "Josh Savile",
		"phone": "(519) 271-3787",
		"website": null
	},
	{
		"company": "Savvy Custom Builder Ltd.",
		"link": "/member_directory/34710",
		"street": "4 Foothills Dr.",
		"city": "Ottawa, ON, ON",
		"postCode": "K2H 6K3",
		"contact": "Charles Savides",
		"phone": "(613) 860-9895",
		"website": "http://savvybuilder.com"
	},
	{
		"company": "Scarfone, Hawkins, LLP",
		"link": "/member_directory/35444",
		"street": "1 James St. S., 14th Floor",
		"city": "Hamilton, ON",
		"postCode": "L8N 3P9",
		"contact": "Donald Hawkins",
		"phone": "(905) 523-1333",
		"website": "http://scarfonehawkinsllp.com"
	},
	{
		"company": "Scarlett Homes Ltd.",
		"link": "/member_directory/35333",
		"street": "2171 W. Oak Trails Blvd.",
		"city": "Oakville, ON",
		"postCode": "L6M 3L3",
		"contact": "John Chun",
		"phone": "(905) 304-3707",
		"website": "http://scarletthomes.com"
	},
	{
		"company": "Scava Construction",
		"link": "/member_directory/35044",
		"street": "3411 - 36 Paul Anka Dr.",
		"city": "Ottawa, ON",
		"postCode": "K1V 9R8",
		"contact": "Maria Segreto",
		"phone": "(613) 262-6013",
		"website": "http://scavaconstruction.ca"
	},
	{
		"company": "Schaeffer & Associates Ltd.",
		"link": "/member_directory/34059",
		"street": "6 Ronrose Dr.",
		"city": "Vaughan, ON",
		"postCode": "L4K 4R3",
		"contact": "Allan Steedman",
		"phone": "(905) 738-6100",
		"website": "http://schaeffers.com"
	},
	{
		"company": "Scherba's Great Floors",
		"link": "/member_directory/35862",
		"street": "28420 Centre Rd.",
		"city": "Strathroy, ON",
		"postCode": "N7G 3H6",
		"contact": "Jeremy Scherba",
		"phone": "(519) 245-2415",
		"website": null
	},
	{
		"company": "Schickedanz Brothers Ltd.",
		"link": "/member_directory/33164",
		"street": "3311 Bayview Ave. Ste. 105",
		"city": "Willowdale, ON",
		"postCode": "M2K 1G4",
		"contact": "Donna Shames",
		"phone": "(416) 223-0710",
		"website": "http://schickedanzbros.com"
	},
	{
		"company": "Schlage",
		"link": "/member_directory/36809",
		"street": "1076 Lakeshore Rd. E.",
		"city": "Mississauga, ON",
		"postCode": "L5E 1X4",
		"contact": "James Reece",
		"phone": "(647) 393-1800",
		"website": "http://schlage.com"
	},
	{
		"company": "Schlage - A Division of Allegion Corporation",
		"link": "/member_directory/35863",
		"street": "1076 Lakeshore Rd. E.",
		"city": "Mississauga, ON",
		"postCode": "L5E 1E4",
		"contact": "Jim Reese",
		"phone": "(647) 393-1800",
		"website": "http://schlage.com"
	},
	{
		"company": "Schlage - A Division of Ingersoll Rand Security Technologies",
		"link": "/member_directory/35541",
		"street": "1076 Lakeshore Rd. E.",
		"city": "Mississauga, ON",
		"postCode": "L5E 1E4",
		"contact": "Jason Disher",
		"phone": "(416) 201-1916",
		"website": "http://schlage.com"
	},
	{
		"company": "Schlage Allegion Canada Inc",
		"link": "/member_directory/36003",
		"street": "8 Stonegate Dr,",
		"city": "St. Catharines, ON",
		"postCode": "L2P 3L1",
		"contact": "Jason Disher",
		"phone": "(905) 302-2451",
		"website": null
	},
	{
		"company": "Schlage Hardware",
		"link": "/member_directory/36456",
		"street": "1076 Lakeshore Rd. E.",
		"city": "Mississauga, ON",
		"postCode": "L5E 1E4",
		"contact": "Jason Disher",
		"phone": "(905) 302-2451",
		"website": "http://schlage.com"
	},
	{
		"company": "Schlegel Urban Development Inc.",
		"link": "/member_directory/36777",
		"street": "325 Max Becker Dr., Suite 201",
		"city": "Kitchener, ON",
		"postCode": "N2E 4H5",
		"contact": "Vaughn Bender",
		"phone": "(519) 571-1873",
		"website": "http://schlegelurban.com"
	},
	{
		"company": "Schleiss Development Company Ltd.",
		"link": "/member_directory/34481",
		"street": "931 Swiss Heights Dr.",
		"city": "Oshawa, ON",
		"postCode": "L1K 2A7",
		"contact": "Gina Lavender",
		"phone": "(905) 725-7227",
		"website": null
	},
	{
		"company": "Schluter - Systems",
		"link": "/member_directory/33481",
		"street": "21100 Ch. Ste-Marie",
		"city": "Ste. Anne-de-Bellevue, Quebec",
		"postCode": "H9X 3Y8",
		"contact": "Tod Valickis",
		"phone": "1-800-667-8746",
		"website": "http://schluter.com"
	},
	{
		"company": "Schnarr Craftsmen Inc.",
		"link": "/member_directory/36821",
		"street": "2 - 215 Bathurst Dr.",
		"city": "Waterloo, ON",
		"postCode": "N2V 2B2",
		"contact": "Greg Schnarr",
		"phone": "(519) 725-0411",
		"website": "http://schnarrcraftsmen.com"
	},
	{
		"company": "Schneider Construction Co. Ltd.",
		"link": "/member_directory/35947",
		"street": "3399 Notre Dame Crt.",
		"city": "Niagara Falls, ON",
		"postCode": "L2H 2X3",
		"contact": "George Schneider",
		"phone": "(905) 354-4984",
		"website": "http://schneiderhomes.ca"
	},
	{
		"company": "Schneider Electric Canada",
		"link": "/member_directory/33482",
		"street": "5985 McLaughlin Rd.",
		"city": "Mississauga, ON",
		"postCode": "L5R 1B8",
		"contact": "Lorne Hedges",
		"phone": "(905) 366-3999",
		"website": "http://schneider-electric.ca"
	},
	{
		"company": "Schneider Ruggiero LLP",
		"link": "/member_directory/34060",
		"street": "120 Adelaide St. W. Ste. 1000",
		"city": "Toronto, ON",
		"postCode": "M5H 3V1",
		"contact": "David Spencer",
		"phone": "(416) 363-2211",
		"website": "http://srlawpractice.com"
	},
	{
		"company": "Schuit Homes Inc.",
		"link": "/member_directory/35334",
		"street": "210 Old Ancaster Rd.",
		"city": "Dundas, ON",
		"postCode": "L9H 5E3",
		"contact": "Gerald Schuit",
		"phone": "(905) 628-9559",
		"website": "http://schuithomes.com"
	},
	{
		"company": "Schuit Plastering & Stucco Inc.",
		"link": "/member_directory/35580",
		"street": "738 Shaver Rd. Unit A",
		"city": "Ancaster, ON",
		"postCode": "L9G 3K9",
		"contact": "Gerald Schuit",
		"phone": "(905) 304-9998",
		"website": "http://schuitstucco.com"
	},
	{
		"company": "Schut's Brick, Stone and Landscape Ltd.",
		"link": "/member_directory/34386",
		"street": "423 Mt. Pleasant Rd.",
		"city": "Brantford, ON",
		"postCode": "N3T 5L5",
		"contact": "John Nemeth",
		"phone": "(519) 752-1512",
		"website": null
	},
	{
		"company": "Schut's Unit Step Ltd.",
		"link": "/member_directory/35225",
		"street": "423 Mt. Pleasant Rd., R.R. #2",
		"city": "Brantford, ON",
		"postCode": "N3T 5L5",
		"contact": "Hans Vermuelen",
		"phone": "(519) 752-1512",
		"website": null
	}
]