[
	{
		"company": "Custom Home Interiors & Corporate Housing Interiors Ltd.",
		"link": "/member_directory/34893",
		"street": "22 Antares Dr. Unit L",
		"city": "Ottawa, ON",
		"postCode": "K2E 7Z6",
		"contact": "Andrew Emmans",
		"phone": "(613) 248-1244",
		"website": "http://customhomeinteriors.ca"
	},
	{
		"company": "Customer Relationship Index (The)",
		"link": "/member_directory/33807",
		"street": "105 Consumers Dr.",
		"city": "Whitby, ON",
		"postCode": "L1N 1C4",
		"contact": "Tim Pilgrim",
		"phone": "(416) 601-9247",
		"website": null
	},
	{
		"company": "CustomerInsight Inc.",
		"link": "/member_directory/33808",
		"street": "36 Morrow Rd. Ste. 200",
		"city": "Barrie, ON",
		"postCode": "L4N 3V8",
		"contact": "Christian Caswell",
		"phone": "(705) 733-8300",
		"website": "http://customerinsight.ca"
	},
	{
		"company": "CustomerInsight Inc.",
		"link": "/member_directory/36419",
		"street": "36 Morrow Rd. Ste. 200",
		"city": "Barrie, ON",
		"postCode": "L4N 3V8",
		"contact": "Christian Caswell",
		"phone": "(705) 733-8300",
		"website": "http://customerinsight.ca"
	},
	{
		"company": "Cut Rite Construction",
		"link": "/member_directory/34982",
		"street": "3019 Carp Rd.",
		"city": "Carp, ON",
		"postCode": "K0A 1L0",
		"contact": "Hubert Hutt",
		"phone": "(613) 839-0808",
		"website": "http://cutriteconstruction.ca"
	},
	{
		"company": "CYR Funding Inc 11681",
		"link": "/member_directory/33261",
		"street": "300 John St. Ste. 328",
		"city": "Thornhill, ON",
		"postCode": "L3T 5W4",
		"contact": "Rena Malkah",
		"phone": "(905) 731-1111",
		"website": "http://cyrfunding.com"
	},
	{
		"company": "D & A Business Management Solutions",
		"link": "/member_directory/34807",
		"street": "5-1010 Polytek Rd.",
		"city": "Gloucester, ON",
		"postCode": "K1J 9H8",
		"contact": "Nicole Despatie",
		"phone": "(613) 742-6565",
		"website": "http://da.ca"
	},
	{
		"company": "D & B Climate Care",
		"link": "/member_directory/35238",
		"street": "49 Park Rd.",
		"city": "Simcoe, ON",
		"postCode": "N3Y 4J9",
		"contact": "Dave Murtland",
		"phone": "(519) 428-4000",
		"website": null
	},
	{
		"company": "D & K  Heating and Air Conditioning",
		"link": "/member_directory/36242",
		"street": "R.R. #5, #6833, Hwy 62",
		"city": "Belleville, ON",
		"postCode": "K8N 4Z5",
		"contact": "Terry Little",
		"phone": "(613) 969-9500",
		"website": null
	},
	{
		"company": "D & S Plumbing and Heating",
		"link": "/member_directory/35894",
		"street": "1970 Mallard Rd., Unit 2",
		"city": "London, ON",
		"postCode": "N6H 5L8",
		"contact": "Dennis Berrisford",
		"phone": "(519) 472-7048",
		"website": null
	},
	{
		"company": "D'Angelo & Sons - Roofing & Exteriors",
		"link": "/member_directory/37042",
		"street": "4-1500 Sandhill Drive",
		"city": "Ancaster, ON",
		"postCode": "L9G 4V5",
		"contact": "Sandro Cioci",
		"phone": "905 387 3000",
		"website": null
	},
	{
		"company": "D. Lesic Designs Ltd.",
		"link": "/member_directory/36742",
		"street": "320 Edgewater Cres.",
		"city": "Kitchener, ON",
		"postCode": "N2A 4M1",
		"contact": "Donny Lesic",
		"phone": "(519) 496-9229",
		"website": "http://dlesicdesigns.ca"
	},
	{
		"company": "D.G. Biddle & Associates Ltd.",
		"link": "/member_directory/33809",
		"street": "96 King St. E.",
		"city": "Oshawa, ON",
		"postCode": "L1H 1B6",
		"contact": "Michael Carswell",
		"phone": "(905) 576-8500",
		"website": "http://dgbiddle.com"
	},
	{
		"company": "D.G. Biddle & Associates Ltd.",
		"link": "/member_directory/34516",
		"street": "96 King St. E.",
		"city": "Oshawa, ON",
		"postCode": "L1H 1B6",
		"contact": "Marianne Tracey",
		"phone": "(905) 576-8500",
		"website": "http://dgbiddle.com"
	},
	{
		"company": "D.G.I. The Discovery Group of Investigators Ltd.",
		"link": "/member_directory/33810",
		"street": "2880 Queen St. E. Ste. 4318",
		"city": "Brampton, ON",
		"postCode": "L6S 6H4",
		"contact": "Anthony D&apos;Orazio",
		"phone": "(905) 799-8777",
		"website": "http://dgiltd.com"
	},
	{
		"company": "D.R. Barker & Associates Ltd.",
		"link": "/member_directory/33811",
		"street": "110 Chisholm St.",
		"city": "Oakville, ON",
		"postCode": "L6K 3H9",
		"contact": "Douglas Barker",
		"phone": "(905) 338-5440",
		"website": null
	},
	{
		"company": "Dalerose Country Homes",
		"link": "/member_directory/34606",
		"street": "64 BRd.way",
		"city": "Orangeville, ON",
		"postCode": "L9W 1J9",
		"contact": "Ted Bryk",
		"phone": "(519) 938-8417",
		"website": null
	},
	{
		"company": "Dalerose Country Homes",
		"link": "/member_directory/32949",
		"street": "64 BRd.way Ave.",
		"city": "Orangeville, ON",
		"postCode": "L9W 1J9",
		"contact": "Ted Bryk",
		"phone": "(519) 938-8417",
		"website": null
	},
	{
		"company": "Dallas Carpentry Ltd.",
		"link": "/member_directory/34179",
		"street": "5 Haas Rd.",
		"city": "Etobicoke, ON",
		"postCode": "M9W 3A1",
		"contact": "Gabriel Dalla-Nora",
		"phone": "(416) 744-6742",
		"website": "http://dallascarpentry.com"
	},
	{
		"company": "Dalmar Columns Inc.",
		"link": "/member_directory/33348",
		"street": "51 Brydon Dr.",
		"city": "Toronto, ON",
		"postCode": "M9W 4N3",
		"contact": "Jack Strazzeri",
		"phone": "(416) 747-6945",
		"website": "http://dalmar.ca"
	},
	{
		"company": "Dalmen Windows and Doors",
		"link": "/member_directory/34894",
		"street": "5630 St-Catherine P.O. Box 220",
		"city": "St-Isdore, ON",
		"postCode": "K0C 2B0",
		"contact": "Dominic Alary",
		"phone": "(613) 726-8719",
		"website": "http://dalmen.com"
	},
	{
		"company": "Dalron Construction Ltd",
		"link": "/member_directory/36630",
		"street": "130 Elm St.",
		"city": "Sudbury, ON",
		"postCode": "P3C 1T6",
		"contact": "Kristi Arnold",
		"phone": "(705) 560-9770",
		"website": "http://dalron.com"
	},
	{
		"company": "Dalton Distinctive Renovations Inc.",
		"link": "/member_directory/34743",
		"street": "423 Bronson Ave.",
		"city": "Ottawa, ON",
		"postCode": "K1R 6J5",
		"contact": "Jason Labelle",
		"phone": "(613) 569-5000",
		"website": "http://ddrrenos.com"
	},
	{
		"company": "Danbury Developments Inc.",
		"link": "/member_directory/36325",
		"street": "P.O. Box 638",
		"city": "Corunna, ON",
		"postCode": "N0N 1G0",
		"contact": "Dan Brosseau",
		"phone": "(519) 813-9442",
		"website": null
	},
	{
		"company": "Daniels Corporation (The)",
		"link": "/member_directory/32950",
		"street": "20 Queen St. W. Ste. 3400",
		"city": "Toronto, ON",
		"postCode": "M5H 3R3",
		"contact": "Niall Haggart",
		"phone": "(416) 598-2129",
		"website": "http://danielshomes.ca"
	},
	{
		"company": "Daoust (M) Building Supplies / Rona Building Centre",
		"link": "/member_directory/36671",
		"street": "173 David St. S. Hwy 74",
		"city": "Noelville, ON",
		"postCode": "P0M 2N0",
		"contact": "Milynn Lalonde",
		"phone": "(705) 898-2296",
		"website": null
	},
	{
		"company": "Darmaga Hardwood Flooring Ltd.",
		"link": "/member_directory/33349",
		"street": "70 Newkirk Rd. Unit 1",
		"city": "Richmond Hill, ON",
		"postCode": "L4C 3G3",
		"contact": "Walter Darmaga",
		"phone": "(905) 770-1900",
		"website": "http://darmaga.com"
	},
	{
		"company": "Darwood Homes & Renos",
		"link": "/member_directory/36062",
		"street": "341 Hwy 7A",
		"city": "Janetville, ON",
		"postCode": "L0B 1K0",
		"contact": "Rob Peltenburg",
		"phone": "(705) 277-3427",
		"website": null
	},
	{
		"company": "Dashwood Industries Ltd.",
		"link": "/member_directory/36490",
		"street": "34 Medway Cres.",
		"city": "London, ON",
		"postCode": "N5X 3S8",
		"contact": "Ken Frohwerk",
		"phone": "(519) 858-4973",
		"website": null
	},
	{
		"company": "Dashwood Industries Ltd.",
		"link": "/member_directory/36804",
		"street": "69323 Richmond St.",
		"city": "Centralia, ON",
		"postCode": "N0M 1K0",
		"contact": "Mark Durbin",
		"phone": "(519) 503-5220",
		"website": "http://dashwood.com"
	},
	{
		"company": "Dashwood Industries Ltd.",
		"link": "/member_directory/36583",
		"street": "Highway #4  69323 Richmond St.",
		"city": "Centralia, ON",
		"postCode": "N0M 1K0",
		"contact": "Rob Guenther",
		"phone": "1-800-265-4284",
		"website": null
	},
	{
		"company": "Dashwood Industries Ltd.",
		"link": "/member_directory/35820",
		"street": "69323 Richmond St.",
		"city": "Centrailia, ON",
		"postCode": "NOM 1K0",
		"contact": "Gary Burrows",
		"phone": "(519) 228-6624",
		"website": "http://dashwood.com"
	},
	{
		"company": "Dass Group Inc.",
		"link": "/member_directory/32951",
		"street": "1770 Albion Rd. Unit 51",
		"city": "Etobicoke, ON",
		"postCode": "M9V 1C2",
		"contact": "Gurpreet Dass",
		"phone": "(416) 741-1344",
		"website": "http://dassgroup.ca"
	},
	{
		"company": "Dave Davies Heating, Air-conditioning",
		"link": "/member_directory/36610",
		"street": "115 Frederick St.",
		"city": "Stratford, ON",
		"postCode": "N5A 3V6",
		"contact": "Dave Davies",
		"phone": "(519) 271-1046",
		"website": null
	},
	{
		"company": "Dave Sneyd",
		"link": "/member_directory/37003",
		"street": "854 - A Boyd Avenue",
		"city": "Ottawa, ON",
		"postCode": "K2A 2E1",
		"contact": "Dave Sneyd",
		"phone": "613-728-0888",
		"website": "http://ottawawindowworks.ca"
	},
	{
		"company": "Dave's Duct Cleaning",
		"link": "/member_directory/34591",
		"street": "#80007 - 3100 Garden St.",
		"city": "Whitby, ON",
		"postCode": "L1N 0B7",
		"contact": "Stanley Santos",
		"phone": "(416) 668-4607",
		"website": "http://davesducts.com"
	},
	{
		"company": "Dave's Duct Cleaning",
		"link": "/member_directory/34180",
		"street": "3100 Garden St. Ste. 80007",
		"city": "Whitby, ON",
		"postCode": "L1N 0B7",
		"contact": "Dave Comia",
		"phone": "(416) 668-4607",
		"website": "http://davesducts.com"
	},
	{
		"company": "Davenport Homes",
		"link": "/member_directory/36063",
		"street": "169 Lansdowne St. E.",
		"city": "Peterborough, ON",
		"postCode": "K9J 7P7",
		"contact": "Mike Davenport",
		"phone": "(705) 745-6676",
		"website": "http://davenporthomes.com"
	},
	{
		"company": "David B Searles Surveying",
		"link": "/member_directory/33812",
		"street": "4255 Sherwoodtowne Blvd. Ste. 206",
		"city": "Mississauga, ON",
		"postCode": "L4Z 1Y5",
		"contact": "Alister Sankey",
		"phone": "(905) 273-6840",
		"website": null
	},
	{
		"company": "David Construction",
		"link": "/member_directory/36367",
		"street": "R.R. #1",
		"city": "Hanover, ON",
		"postCode": "N4N 3B8",
		"contact": "Glen David",
		"phone": "(519) 364-3054",
		"website": null
	},
	{
		"company": "David Moskal Designs Inc.",
		"link": "/member_directory/33813",
		"street": "8 Clockwork Lane",
		"city": "Etobicoke, ON",
		"postCode": "M8Y 4H5",
		"contact": "David Moskal",
		"phone": "(416) 251-0251",
		"website": null
	},
	{
		"company": "David Schaeffer Engineering Ltd.",
		"link": "/member_directory/33814",
		"street": "600 Alden Rd. Ste. 500",
		"city": "Markham, ON",
		"postCode": "L3R 0E7",
		"contact": "David Schaeffer",
		"phone": "(905) 475-3080",
		"website": "http://dsel.ca"
	},
	{
		"company": "David Small Designs",
		"link": "/member_directory/33815",
		"street": "1440 Hurontario St. Ste. 200",
		"city": "Mississauga, ON",
		"postCode": "L5G 3H4",
		"contact": "Hilda Andrade",
		"phone": "(905) 271-9100",
		"website": "http://davidsmalldesigns.com"
	},
	{
		"company": "Davies Howe Partners LLP",
		"link": "/member_directory/33816",
		"street": "99 Spadina Ave. 5th Flr.",
		"city": "Toronto, ON",
		"postCode": "M5V 3P8",
		"contact": "Katarzyna Sliwa",
		"phone": "(416) 977-7088",
		"website": "http://davieshowe.com"
	},
	{
		"company": "Davis LLP",
		"link": "/member_directory/33817",
		"street": "100 King St. W. Ste. 6000",
		"city": "Toronto, ON",
		"postCode": "M5X 1E2",
		"contact": "Chris Barnett",
		"phone": "(416) 365-3500",
		"website": "http://davis.ca"
	},
	{
		"company": "Dawn Victoria Homes",
		"link": "/member_directory/32952",
		"street": "1550 Yorkton Crt. Unit 18",
		"city": "Burlington, ON",
		"postCode": "L7P 5B7",
		"contact": "Donald Husack",
		"phone": "(905) 637-1777",
		"website": "http://dawnvictoria.com"
	},
	{
		"company": "Day & Campbell Ltd.",
		"link": "/member_directory/35481",
		"street": "1074 Upper Wellington St.",
		"city": "Hamilton, ON",
		"postCode": "L9A 3S6",
		"contact": "Russ Lyne",
		"phone": "(905) 385-5315",
		"website": "http://daycampbell.com"
	},
	{
		"company": "Dayluxe Gallery",
		"link": "/member_directory/33818",
		"street": "31 Cathedral High St.",
		"city": "Markham, ON",
		"postCode": "L6C 0N9",
		"contact": "Roberto Ou",
		"phone": "(905) 888-1949",
		"website": "http://dayluxe.com"
	},
	{
		"company": "Dayus Roofing",
		"link": "/member_directory/36961",
		"street": "5120 Halford Rd.",
		"city": "Tecumseh, ON",
		"postCode": "N9A 6J3",
		"contact": "Frank Dayus",
		"phone": "(519) 737-1920",
		"website": null
	},
	{
		"company": "DC Air.",
		"link": "/member_directory/34983",
		"street": "770 Industrial Ave. Unit 10",
		"city": "Ottawa, ON",
		"postCode": "K1G 4E3",
		"contact": "Mike Manion",
		"phone": "(613) 526-1000",
		"website": null
	},
	{
		"company": "DCAM Homes Inc.",
		"link": "/member_directory/32953",
		"street": "2441 Lakeshore Rd. W. P.O. Box 35008",
		"city": "Oakville, ON",
		"postCode": "L6L OC8",
		"contact": "Danny Cantarelli",
		"phone": "(905) 847-3636",
		"website": "http://dcamhomes.com"
	},
	{
		"company": "DCJ Construction Services",
		"link": "/member_directory/37148",
		"street": "738 Walford Road",
		"city": "Laurentian Valley , ON",
		"postCode": "K8A 6W5",
		"contact": "Dean Fuisz",
		"phone": "613-732-5876",
		"website": null
	},
	{
		"company": "DCMS Realty Developments Inc.",
		"link": "/member_directory/32954",
		"street": "2800 Fourteenth Ave. Ste. 508",
		"city": "Markham, ON",
		"postCode": "L3R 0E4",
		"contact": "Joseph Gesualdi",
		"phone": "(905) 300-8079",
		"website": null
	},
	{
		"company": "Dean Caillier Design",
		"link": "/member_directory/37032",
		"street": "68 Helena St",
		"city": "Ottawa, ON",
		"postCode": "K1NY 3N1",
		"contact": "Dean Caillier",
		"phone": "613-299-6243",
		"website": null
	},
	{
		"company": "Dearie Contracting ",
		"link": "/member_directory/34181",
		"street": "278 Watline Ave.",
		"city": "Mississauga, ON",
		"postCode": "L4Z 1P4",
		"contact": "Michail Laskis",
		"phone": "(905) 625-9113",
		"website": null
	},
	{
		"company": "Dearie Contracting",
		"link": "/member_directory/35482",
		"street": "278 Watline Ave.",
		"city": "Mississauga, ON",
		"postCode": "L4Z 1P4",
		"contact": "Michael Laskis",
		"phone": "(905) 625-9113",
		"website": null
	},
	{
		"company": "Dearie Contracting Ottawa a Service Experts Company",
		"link": "/member_directory/34984",
		"street": "101 Innes Park Way, Unit 190",
		"city": "Ottawa, ON",
		"postCode": "K1B 1E3",
		"contact": "Ken Turner",
		"phone": "(613) 223-5571",
		"website": "http://dearieottawa.com"
	},
	{
		"company": "Debsel Inc.",
		"link": "/member_directory/34895",
		"street": "4225 boul. Poirier",
		"city": "Ville St-Laurent, ON",
		"postCode": "H9R 2A4",
		"contact": "Dave Brown",
		"phone": "(613) 851-0885",
		"website": "http://appliancity.com"
	},
	{
		"company": "Decade Homes",
		"link": "/member_directory/32955",
		"street": "1806 Ave. Rd. Ste. 2",
		"city": "Toronto, ON",
		"postCode": "M5M 3Z1",
		"contact": "Jordan Teperman",
		"phone": "(416) 781-0623",
		"website": "http://decadegroup.ca"
	},
	{
		"company": "Deck World North",
		"link": "/member_directory/36672",
		"street": "Site 3 Box 23",
		"city": "St. Charles, ON",
		"postCode": "P0M 2W0",
		"contact": "Pete Larocque",
		"phone": "(705) 507-7087",
		"website": null
	},
	{
		"company": "Decksterity Carpentry Cont. Ltd.",
		"link": "/member_directory/33595",
		"street": "23 Bridgeford St. S.",
		"city": "Richmond Hill, ON",
		"postCode": "L4C 3V7",
		"contact": "Richard McCord",
		"phone": "(905) 737-9905",
		"website": "http://decksteritycarpentry.com"
	},
	{
		"company": "DeCola Windows & Doors Inc.",
		"link": "/member_directory/36439",
		"street": "41 D Commerce Park Dr.",
		"city": "Barrie, ON",
		"postCode": "L4M 8X1",
		"contact": "Paul DeCola",
		"phone": "(705) 725-8111",
		"website": "http://decola.ca"
	},
	{
		"company": "Decorative Interiors",
		"link": "/member_directory/33819",
		"street": "20 Cranston Park Ave. Ste. 10",
		"city": "Maple, ON",
		"postCode": "L6A 2W2",
		"contact": "Josephine L&apos;Orefice",
		"phone": "(905) 553-1715",
		"website": "http://decorativeinteriors.ca"
	},
	{
		"company": "Decorenza",
		"link": "/member_directory/33820",
		"street": "418B Hanlan Rd. Ste. 21",
		"city": "Woodbridge, ON",
		"postCode": "L4L 4Z1",
		"contact": "Enza Tiberi-Checchia",
		"phone": "(905) 264-7264",
		"website": "http://decorenza.com"
	},
	{
		"company": "Defaveri Construction Inc.",
		"link": "/member_directory/35570",
		"street": "96 Cascade St.",
		"city": "Stoney Creek, ON",
		"postCode": "L8E 0A7",
		"contact": "Eugene Defaveri",
		"phone": "(905) 297-5482",
		"website": "http://defaveri.ca"
	},
	{
		"company": "Dekkor (North America) Inc.",
		"link": "/member_directory/37112",
		"street": "15-360 York Road",
		"city": "Niagara On the Lake , ON",
		"postCode": "L0S 1J0",
		"contact": "Gerald de Ga",
		"phone": "905 688 0555",
		"website": null
	},
	{
		"company": "Dekkor Fine Decorative Hardware",
		"link": "/member_directory/33350",
		"street": "219 Norseman St.",
		"city": "Etobicoke, ON",
		"postCode": "M8Z 2R5",
		"contact": "Gerald De Ga",
		"phone": "(416) 503-9799",
		"website": "http://dekkorinc.com"
	},
	{
		"company": "Del Sharp Electric Limited",
		"link": "/member_directory/37169",
		"street": "126 Mountain St Box 689",
		"city": "Haliburton, ON",
		"postCode": "K0M 1S0",
		"contact": "Gerald Sharp",
		"phone": "705 457 2640",
		"website": null
	},
	{
		"company": "Del Zotto, Zorzi LLP - Barristers & Solicitors",
		"link": "/member_directory/33821",
		"street": "4810 Dufferin St. Entrance D",
		"city": "Downsview, ON",
		"postCode": "M3H 5S8",
		"contact": "Harry Herskowitz",
		"phone": "(416) 665-5555",
		"website": "http://delzottozorzi.com"
	},
	{
		"company": "DeLange Homes",
		"link": "/member_directory/35677",
		"street": "57 EarlsCrt. Terrace",
		"city": "Kilworth, ON",
		"postCode": "N0L 1R0",
		"contact": "Stephen DeLange",
		"phone": "(519) 652-0101",
		"website": "http://delangehomes.com"
	},
	{
		"company": "Delhi Home Building Centre",
		"link": "/member_directory/35213",
		"street": "807 James St.",
		"city": "Delhi, ON",
		"postCode": "N4B 2C9",
		"contact": "Brenda Daniels",
		"phone": "(519) 582-0240",
		"website": null
	},
	{
		"company": "Dell Smart Home Solutions Inc.",
		"link": "/member_directory/36008",
		"street": "261 Martindale Rd., Unit #2",
		"city": "St. Catharines, ON",
		"postCode": "L2W 1A1",
		"contact": "Jason Dell",
		"phone": "(905) 684-3355",
		"website": null
	},
	{
		"company": "Dellbrook Homes",
		"link": "/member_directory/32956",
		"street": "201 Spinnaker Way Unit 16",
		"city": "Vaughan, ON",
		"postCode": "L4K 4C6",
		"contact": "Leonard Ursini",
		"phone": "(905) 761-5855",
		"website": null
	},
	{
		"company": "Deloitte LLP",
		"link": "/member_directory/34808",
		"street": "100 Queen St., Suite 800",
		"city": "Ottawa, ON",
		"postCode": "K1P5T8",
		"contact": "Daniel Dore",
		"phone": "(613) 751-5322",
		"website": "http://deloitte.ca"
	},
	{
		"company": "Delpark Homes",
		"link": "/member_directory/37050",
		"street": "888 Keel St. Units 13-14",
		"city": "Concord, ON",
		"postCode": "L4K 2N2",
		"contact": "Daniel Di Giovanni",
		"phone": "416-309-2009",
		"website": "http://delparkhomes.ca"
	},
	{
		"company": "Delpark Homes",
		"link": "/member_directory/32957",
		"street": "8888 Keele St. Unit 13 &amp; 14",
		"city": "Concord, ON",
		"postCode": "L4K 2N2",
		"contact": "Daniel DiGiovanni",
		"phone": "(416) 309-2009",
		"website": "http://delparkhomes.ca"
	},
	{
		"company": "Delta Faucet Canada",
		"link": "/member_directory/33351",
		"street": "395 Matheson Blvd. E.",
		"city": "Mississauga, ON",
		"postCode": "L4Z 2H2",
		"contact": "Luciano Marone",
		"phone": "(905) 712-3030",
		"website": "http://mascocanada.com"
	},
	{
		"company": "Delta Faucet Canada",
		"link": "/member_directory/35821",
		"street": "763 Eagletrace Dr.",
		"city": "London, ON",
		"postCode": "N6G 0E9",
		"contact": "Wayne Kiser",
		"phone": "519-520-1156",
		"website": "http://mascocanada.com"
	},
	{
		"company": "Delta Urban Inc.",
		"link": "/member_directory/33822",
		"street": "8800 Dufferin St. Ste. 104",
		"city": "Vaughan, ON",
		"postCode": "L4K 0C5",
		"contact": "Myron Pestaluky",
		"phone": "(905) 660-7667",
		"website": "http://deltaurban.com"
	},
	{
		"company": "Delta-Rae Homes",
		"link": "/member_directory/34447",
		"street": "34 Serene Crt.",
		"city": "Whtiby, ON",
		"postCode": "L1R 0L6",
		"contact": "Amanda Calabrese, Anthony Calabrese Carmen Calabrese",
		"phone": "(905) 903-2552",
		"website": "http://delta-rae.com"
	},
	{
		"company": "DeMarchi Homes Inc.",
		"link": "/member_directory/35298",
		"street": "278 Barton St. E.",
		"city": "Stoney Creek, ON",
		"postCode": "L8E 2K6",
		"contact": "Frank Mercuri",
		"phone": "(905) 664-9937",
		"website": "http://demarchihomes.ca"
	},
	{
		"company": "DeMarco Mechanical Services Inc.",
		"link": "/member_directory/34182",
		"street": "18 Grandhall Crt.",
		"city": "Toronto, ON",
		"postCode": "M1C 3N6",
		"contact": "Adrian DeMarco",
		"phone": "(416) 820-9155",
		"website": null
	},
	{
		"company": "Democrat Homes",
		"link": "/member_directory/35169",
		"street": "155 Romina Dr.",
		"city": "Concord, ON",
		"postCode": "L4K 4Z9",
		"contact": "Graz Palumbo",
		"phone": "(905) 532-9230",
		"website": null
	},
	{
		"company": "DeNoble Homes",
		"link": "/member_directory/34448",
		"street": "600 Euclid St., Unit #5",
		"city": "Whitby, ON",
		"postCode": "L1N 5C2",
		"contact": "Steve DeNoble",
		"phone": "(905) 444-9668",
		"website": "http://denoblehomes.com"
	},
	{
		"company": "DeNoble Homes",
		"link": "/member_directory/32958",
		"street": "600 Euclid St. Unit 5",
		"city": "Whitby, ON",
		"postCode": "L1N 5C2",
		"contact": "Steve DeNoble",
		"phone": "(905) 444-9668",
		"website": "http://denoblehomes.com"
	},
	{
		"company": "Dentons Canada LLP",
		"link": "/member_directory/33823",
		"street": "77 King St. W. Ste. 400, Toronto Dominion Centre",
		"city": "Toronto, ON",
		"postCode": "M5K 0A1",
		"contact": "Patrick Devine",
		"phone": "(416) 863-4515",
		"website": "http://dentons.com"
	},
	{
		"company": "Denys Builds - Designs",
		"link": "/member_directory/34744",
		"street": "54 Mason Terrace",
		"city": "Ottawa, ON",
		"postCode": "K1S 0K9",
		"contact": "Paul Denys",
		"phone": "(613) 236-6516",
		"website": "http://denys.ca"
	},
	{
		"company": "Depencier Builders Ltd",
		"link": "/member_directory/34397",
		"street": "72 Leisure Lane",
		"city": "Dresden, ON",
		"postCode": "N0P 1M0",
		"contact": "Dave Depencier",
		"phone": "(519) 683-4692",
		"website": null
	},
	{
		"company": "Derek Beachli Construction",
		"link": "/member_directory/35249",
		"street": "Box 1358",
		"city": "Haliburton, ON",
		"postCode": "K0M 1S0",
		"contact": "Derek Beachli",
		"phone": "(705) 457-4020",
		"website": null
	},
	{
		"company": "Deroo Bros Ventures",
		"link": "/member_directory/36034",
		"street": "505 Devonshire Ave.",
		"city": "Woodstock, ON",
		"postCode": "N4S 5P5",
		"contact": "Rick Deroo",
		"phone": "(519) 539-1104",
		"website": null
	},
	{
		"company": "Desco Plumbing and Heating Supply Inc.",
		"link": "/member_directory/33352",
		"street": "65 Worcester Rd.",
		"city": "Etobicoke, ON",
		"postCode": "M9W 5N7",
		"contact": "Jon Leeson",
		"phone": "(416) 213-1555",
		"website": "http://desco.ca"
	},
	{
		"company": "Design Agency (The)",
		"link": "/member_directory/33824",
		"street": "845 Adelaide St. W.",
		"city": "Toronto, ON",
		"postCode": "M6J 3X1",
		"contact": "Anwar Mekhayech",
		"phone": "(416) 849-8092",
		"website": "http://thedesignagency.ca"
	},
	{
		"company": "Design Craft Homes",
		"link": "/member_directory/34666",
		"street": "1900 Whitemarsh Cres.",
		"city": "Kanata, ON",
		"postCode": "K2W 1B5",
		"contact": "Tim McDonald",
		"phone": "(613) 558-3663",
		"website": "http://designcrafthomes.ca"
	},
	{
		"company": "Design First Interiors",
		"link": "/member_directory/34985",
		"street": "270 Richmond Rd.",
		"city": "Ottawa, ON",
		"postCode": "K1Z 6X2",
		"contact": "Friedemann Weinhardt",
		"phone": "(613) 562-2655",
		"website": "http://designfirstinteriors.com"
	},
	{
		"company": "Design HVAC Experts Inc",
		"link": "/member_directory/34986",
		"street": "1173 - 2720 Queensview Dr.",
		"city": "Ottawa, ON",
		"postCode": "K2B  1A5",
		"contact": "Matthew Pedersen",
		"phone": "(613) 828-4440",
		"website": "http://designexperts.ca"
	},
	{
		"company": "Design Plan Services",
		"link": "/member_directory/33825",
		"street": "900 The E. Mall Ste. 100",
		"city": "Toronto, ON",
		"postCode": "M9B 6K2",
		"contact": "T.J. Cieciura",
		"phone": "(416) 626-5445",
		"website": "http://designplan.ca"
	},
	{
		"company": "Design Workshop Architects Inc.",
		"link": "/member_directory/33826",
		"street": "507 King St. E. Studio 112",
		"city": "Toronto, ON",
		"postCode": "M5A 1M3",
		"contact": "Michael Donaldson",
		"phone": "(416) 306-9987",
		"website": "http://dwa-arc.com"
	},
	{
		"company": "Design-Spec Building Group Ltd.",
		"link": "/member_directory/33596",
		"street": "400 Creditstone Rd. Unit 37",
		"city": "Concord, ON",
		"postCode": "L4K 3Z3",
		"contact": "Nick Malfara",
		"phone": "(905) 760-2225",
		"website": "http://designspecgroup.com"
	},
	{
		"company": "Designers' Edge By Covers",
		"link": "/member_directory/35822",
		"street": "1950 Hyde Park Rd.",
		"city": "London, ON",
		"postCode": "N6H 5L9",
		"contact": "Kevin Fellner",
		"phone": "(226) 777-0432",
		"website": null
	},
	{
		"company": "Designs by Santy Inc",
		"link": "/member_directory/35964",
		"street": "264 Welland Ave., 2D",
		"city": "St. Catharines, ON",
		"postCode": "L2R 2P8",
		"contact": "Santy Yeh",
		"phone": "(905) 680-6891",
		"website": "http://designsbysanty.com"
	},
	{
		"company": "Deslaurier Custom Cabinets Inc.",
		"link": "/member_directory/34987",
		"street": "550 Hall Ave. E.",
		"city": "Renfrew, ON",
		"postCode": "K7V 2S9",
		"contact": "Jim Deslaurier",
		"phone": "1-800-267-8815",
		"website": "http://deslaurier.ca"
	},
	{
		"company": "DeSousa Homes Inc.",
		"link": "/member_directory/34449",
		"street": "1122 Brock St. S.",
		"city": "Whitby, ON",
		"postCode": "L1N 4L9",
		"contact": "Manuel DeSousa",
		"phone": "(905) 668-2331",
		"website": "http://desousahomes.com"
	},
	{
		"company": "Desozio Homes Ltd.",
		"link": "/member_directory/35299",
		"street": "35 Milne Crt.",
		"city": "Ancaster, ON",
		"postCode": "L9G 4T3",
		"contact": "Nando De Caria",
		"phone": "(905) 536-1508",
		"website": "http://desoziohomes.com"
	},
	{
		"company": "Dessco Countertops",
		"link": "/member_directory/35571",
		"street": "1359 Osprey Dr.",
		"city": "Ancaster, ON",
		"postCode": "L9G 4V5",
		"contact": "Michael O&apos;Brien",
		"phone": "(905) 304-9449",
		"website": "http://desscocountertops.com"
	},
	{
		"company": "Dettson Industries",
		"link": "/member_directory/34896",
		"street": "3400 boul. Industriel",
		"city": "Sherbrooke, Quebec",
		"postCode": "J1L 1V8",
		"contact": "Marc Chenier",
		"phone": "(819) 346-8493",
		"website": "http://dettson.ca"
	},
	{
		"company": "Developer Surety Consulting Service",
		"link": "/member_directory/34517",
		"street": "6449 Concession 6",
		"city": "Uxbridge, ON",
		"postCode": "L9P 1R1",
		"contact": "Sandy Ewen",
		"phone": "(416) 702-8869",
		"website": null
	},
	{
		"company": "Devonleigh Homes",
		"link": "/member_directory/36390",
		"street": "P.O. Box 70",
		"city": "Orangeville, ON",
		"postCode": "L9W 2Z5",
		"contact": "Lisa Kidd",
		"phone": "(519) 942-3311",
		"website": null
	},
	{
		"company": "Devonleigh Homes",
		"link": "/member_directory/34607",
		"street": "P.O. Box 70",
		"city": "Orangeville, ON",
		"postCode": "L9W 2Z5",
		"contact": "Andy Kidd",
		"phone": "(519) 942-3312",
		"website": "http://devonleighhomes.com"
	},
	{
		"company": "Devron Developments Inc.",
		"link": "/member_directory/32959",
		"street": "4576 Yonge St. Ste. 511",
		"city": "Toronto, ON",
		"postCode": "M2N 6N4",
		"contact": "Safa Safapour",
		"phone": "(416) 471-3706",
		"website": "http://devron.com"
	},
	{
		"company": "Devry Smith Frank LLP",
		"link": "/member_directory/33827",
		"street": "95 Barber Greene Rd. Ste. 100",
		"city": "Toronto, ON",
		"postCode": "M3C 3E9",
		"contact": "Meliha Waddell",
		"phone": "(416) 449-1400",
		"website": "http://devrylaw.ca"
	},
	{
		"company": "Dezign Market (Dez Intertrade Corp.)",
		"link": "/member_directory/33353",
		"street": "1641 Langstaff Rd. Unit 8",
		"city": "Vaughan, ON",
		"postCode": "L4K 5X8",
		"contact": "Katerina Zherinova",
		"phone": "1-888-398-8380",
		"website": "http://dezignmarket.com"
	},
	{
		"company": "Dharma Developments",
		"link": "/member_directory/34667",
		"street": "24 Selkirk St. Ste. 100",
		"city": "Ottawa, ON",
		"postCode": "K1L 0A4",
		"contact": "Akash Sinha",
		"phone": "(613) 884-0891",
		"website": "http://dharmadevelopments.com"
	},
	{
		"company": "DHP Contracting",
		"link": "/member_directory/35678",
		"street": "94 Curtis St.",
		"city": "St. Thomas, ON",
		"postCode": "N5P 1J2",
		"contact": "Dave Sparenberg",
		"phone": "(519) 633-8820",
		"website": "http://dhpcontracting.com"
	},
	{
		"company": "DHP Contracting",
		"link": "/member_directory/36482",
		"street": "94 Curtis St.",
		"city": "St. Thomas, ON",
		"postCode": "N5P 1J2",
		"contact": "Dave Derrough",
		"phone": "(519) 633-8820",
		"website": "http://dhpcontracting.com"
	},
	{
		"company": "DHT Electrical",
		"link": "/member_directory/37166",
		"street": "4460 Perth Line 3",
		"city": "St Marys, ON",
		"postCode": "N4X 1C6",
		"contact": "Shawn Terpstra",
		"phone": "519-854-6286",
		"website": null
	},
	{
		"company": "Di Battista Gambin Developments",
		"link": "/member_directory/32960",
		"street": "1090 Dundas St. E. Ste. 201",
		"city": "Mississauga, ON",
		"postCode": "L4Y 2B8",
		"contact": "Ray Di Battista",
		"phone": "(416) 747-9437",
		"website": null
	},
	{
		"company": "Diamante Urban Corporation",
		"link": "/member_directory/32961",
		"street": "100 Davenport Rd.",
		"city": "Toronto, ON",
		"postCode": "M5R 1H7",
		"contact": "Julie Di Lorenzo",
		"phone": "(416) 741-7207",
		"website": "http://diamantedevelopment.com"
	},
	{
		"company": "Diamond Contracting",
		"link": "/member_directory/35372",
		"street": "2372 Binbrook Rd. E.",
		"city": "Binbrook, ON",
		"postCode": "L0R 1C0",
		"contact": "Peter Ostermeier",
		"phone": "(905) 692-5690",
		"website": null
	},
	{
		"company": "Diamond Homes by Davis",
		"link": "/member_directory/36169",
		"street": "1458 Fish and Game Club Rd.",
		"city": "Stirling, ON",
		"postCode": "K0K 2C0",
		"contact": "John Davis",
		"phone": "(613) 398-0170",
		"website": null
	},
	{
		"company": "Diamond Truss Inc.",
		"link": "/member_directory/34549",
		"street": "9665 Bayview Ave., P.O. Box 32566",
		"city": "Richmond Hill, ON",
		"postCode": "L4C 1A0",
		"contact": "Christopher Diamond",
		"phone": "(705) 426-1321",
		"website": null
	},
	{
		"company": "Diamondcorp",
		"link": "/member_directory/32962",
		"street": "22 St. Clair Ave. E. Ste. 1010",
		"city": "Toronto, ON",
		"postCode": "M4T 2S3",
		"contact": "Steve Diamond",
		"phone": "(416) 324-5409",
		"website": "http://diamondcorp.ca"
	},
	{
		"company": "Dick Masse Homes Ltd.",
		"link": "/member_directory/35679",
		"street": "P.O. Box 158",
		"city": "Thorndale, ON",
		"postCode": "N0M 2P0",
		"contact": "Rich Masse",
		"phone": "(519) 461-0138",
		"website": "http://dickmassehomes.ca"
	},
	{
		"company": "Digreen Homes Inc.",
		"link": "/member_directory/32963",
		"street": "327 Renfrew Dr. Ste. 302",
		"city": "Markham, ON",
		"postCode": "L3R 9S8",
		"contact": "Abubakar Masood",
		"phone": "(905) 513-7999",
		"website": null
	},
	{
		"company": "Dillon Consulting Ltd.",
		"link": "/member_directory/33828",
		"street": "235 Yorkland Blvd. Ste. 800",
		"city": "Toronto, ON",
		"postCode": "M2J 4Y8",
		"contact": "Allen Benson",
		"phone": "(416) 229-4647",
		"website": "http://dillon.ca"
	},
	{
		"company": "Dillon Consulting Ltd.",
		"link": "/member_directory/34351",
		"street": "51 Breithaupt St., Suite 200",
		"city": "KITCHENER, ON",
		"postCode": "N2H 5G5",
		"contact": "Justine Giancola",
		"phone": "(519) 571-8460",
		"website": "http://dillon.ca"
	},
	{
		"company": "Dillon Consulting Ltd.",
		"link": "/member_directory/36840",
		"street": "51 Breithaupt St., Suite 200",
		"city": "Kitchener, ON",
		"postCode": "N2H 5G5",
		"contact": "Justine Giancola",
		"phone": "(519) 571-9833",
		"website": "http://dillon.ca"
	},
	{
		"company": "Dimanti Stone Works",
		"link": "/member_directory/36981",
		"street": "5275 Brendan Lane",
		"city": "Oldcastle, ON",
		"postCode": "N0R 1L0",
		"contact": "Phil Dimambro",
		"phone": "(519) 737-1155",
		"website": null
	},
	{
		"company": "Dionne Bacchus & Associates Ltd.",
		"link": "/member_directory/37093",
		"street": "7 Jordan Crt",
		"city": "Brooklin, ON",
		"postCode": "L1M 0A4",
		"contact": "Jim Bacchus",
		"phone": "647-633-1014",
		"website": null
	},
	{
		"company": "Dira Construction",
		"link": "/member_directory/35078",
		"street": "200 Edinburgh Rd. N.",
		"city": "Guelph, ON",
		"postCode": "N1H 5R9",
		"contact": "Ben Direnzo",
		"phone": "(519) 836-0370",
		"website": null
	},
	{
		"company": "Direct Doors and Trim",
		"link": "/member_directory/35239",
		"street": "P.O. Box 337",
		"city": "Tilsonburg, ON",
		"postCode": "N4G 9H8",
		"contact": "Craig Young",
		"phone": "(519) 688-6225",
		"website": null
	},
	{
		"company": "Diresco Inc.",
		"link": "/member_directory/34745",
		"street": "1671 Vimont Crt.",
		"city": "Orleans, ON",
		"postCode": "K4A 3M3",
		"contact": "Yves Lacroix",
		"phone": "(613) 841-2481",
		"website": "http://diresco.ca"
	},
	{
		"company": "Discovery Dream Homes",
		"link": "/member_directory/37002",
		"street": "4 McCloskey Road",
		"city": "Keen, ON",
		"postCode": "K9J 0G6",
		"contact": "Shawn Hunter",
		"phone": "705 295 5647",
		"website": "http://discoverydreamhomes.com"
	},
	{
		"company": "Discovery Dream Homes",
		"link": "/member_directory/36064",
		"street": "#4 McCloskey Rd.",
		"city": "Peterborough, ON",
		"postCode": "K9J 6X8",
		"contact": "James King",
		"phone": "(705) 295-5647",
		"website": "http://discoverydreamhomes.com"
	},
	{
		"company": "Distinctive Appliances Inc.",
		"link": "/member_directory/33354",
		"street": "6900 Airport Rd. Ste. 206",
		"city": "Mississauga, ON",
		"postCode": "L4V 1E8",
		"contact": "Jeannie Sasaki",
		"phone": "1-800-361-0799",
		"website": "http://distinctive-online.com"
	},
	{
		"company": "Distinctive Designs & Cabinetry Inc.",
		"link": "/member_directory/35987",
		"street": "120 Dunkirk Rd., Unit 4",
		"city": "St. Catharines, ON",
		"postCode": "L2P 3H5",
		"contact": "Anne Lennard-Otto",
		"phone": "(905) 646-3694",
		"website": "http://distinctivedesigns.ca"
	},
	{
		"company": "Distinctive Kitchens of London",
		"link": "/member_directory/35823",
		"street": "1910 Huron St.",
		"city": "London, ON",
		"postCode": "N5V 3A7",
		"contact": "Kirk Jesson",
		"phone": "(519) 452-3220",
		"website": "http://dklondon.net"
	},
	{
		"company": "dj Design",
		"link": "/member_directory/36044",
		"street": "378 Hunter St.",
		"city": "Woodstock, ON",
		"postCode": "N4S 4G2",
		"contact": "Derek Jukema",
		"phone": "(519) 539-9987",
		"website": null
	},
	{
		"company": "djDESIGN",
		"link": "/member_directory/34352",
		"street": "378 Hunter St.",
		"city": "Woodstock, ON",
		"postCode": "N4S 4G2",
		"contact": "Derek Jukema",
		"phone": "(519) 539-9987",
		"website": null
	},
	{
		"company": "DLD Roofing",
		"link": "/member_directory/35240",
		"street": "63 Main St. Box 40",
		"city": "Courtland, ON",
		"postCode": "N0J 1E0",
		"contact": "Art Vandendriessche",
		"phone": "1-800-366-0620",
		"website": null
	},
	{
		"company": "DLM Industries Ltd.",
		"link": "/member_directory/34988",
		"street": "1-153 Cardevco Rd.",
		"city": "Carp, ON",
		"postCode": "K0A 1L0",
		"contact": "Larry Martens",
		"phone": "(613) 825-7611",
		"website": null
	},
	{
		"company": "DMX Plastics Ltd.",
		"link": "/member_directory/35561",
		"street": "300 Walker Dr.",
		"city": "Brampton, ON",
		"postCode": "L6T 4B3",
		"contact": "Joseph Vaccarella",
		"phone": "(905) 751-5851",
		"website": null
	},
	{
		"company": "Do Couto Carpentry Inc.",
		"link": "/member_directory/34989",
		"street": "184 chemin Tache R.R. #1",
		"city": "Gatineau, Quebec",
		"postCode": "J8V 3X8",
		"contact": "Alberto Do Couto",
		"phone": "(819) 827-4738",
		"website": null
	},
	{
		"company": "Doans Overhead Doors",
		"link": "/member_directory/36996",
		"street": "121 Queen Street",
		"city": "Lindsay, ON",
		"postCode": "K9V 1G8",
		"contact": "Jim Doan",
		"phone": "705-324-1005",
		"website": "http://doansoverheaddoors.com"
	},
	{
		"company": "DoHere Digital Technology Inc.",
		"link": "/member_directory/33829",
		"street": "333 Denison St. Unit 5",
		"city": "Markham, ON",
		"postCode": "L3R 2Z4",
		"contact": "Samuel Zeng",
		"phone": "(905) 513-1111",
		"website": "http://dhrendering.com"
	},
	{
		"company": "Dolphin Fiberglass Pools",
		"link": "/member_directory/36281",
		"street": "Box 22003",
		"city": "Trenton, ON",
		"postCode": "K8V 6S3",
		"contact": "Ronald Mitchell",
		"phone": "(613) 394-9822",
		"website": null
	},
	{
		"company": "Dolvin Mechanical Contractors Ltd.",
		"link": "/member_directory/34183",
		"street": "52 High Meadow Place",
		"city": "Toronto, ON",
		"postCode": "M9L 2Z5",
		"contact": "Camillo DiBonaventura",
		"phone": "(416) 653-6504",
		"website": null
	},
	{
		"company": "Domani Design Group",
		"link": "/member_directory/33355",
		"street": "1350 Castlefield Ave. Unit 1",
		"city": "Toronto, ON",
		"postCode": "M6B 4C4",
		"contact": "Oscar Visentin",
		"phone": "(416) 256-4922",
		"website": "http://domanikitchens.com"
	},
	{
		"company": "Domicile Developments Inc.",
		"link": "/member_directory/34668",
		"street": "1-371A Richmond Rd.",
		"city": "Ottawa, ON",
		"postCode": "K2A 0E7",
		"contact": "Roch Chevrier",
		"phone": "(613) 728-0388",
		"website": "http://domicile.ca"
	},
	{
		"company": "Domienova",
		"link": "/member_directory/37137",
		"street": "60 Bristol Rd E Suite 201",
		"city": "Mississauga, ON",
		"postCode": "L4Z 3K8",
		"contact": "Phil Labrie",
		"phone": "888 502 3303",
		"website": null
	},
	{
		"company": "Domilya Group",
		"link": "/member_directory/33598",
		"street": "2020 Winston Park Dr. Ste. 100",
		"city": "Oakville, ON",
		"postCode": "L6H 6X7",
		"contact": "Rachid Malki",
		"phone": "(647) 300-0282",
		"website": "http://domilyagroup.ca"
	},
	{
		"company": "Dominion Lending Centres",
		"link": "/member_directory/35386",
		"street": "115 Hwy #8",
		"city": "Stoney Creek, ON",
		"postCode": "L8G 1C1",
		"contact": "Trevor Daly",
		"phone": "(905) 662-0225",
		"website": null
	},
	{
		"company": "Dominion Lending Centres",
		"link": "/member_directory/35401",
		"street": "115 Hwy #8",
		"city": "Stoney Creek, ON",
		"postCode": "L8G 1C1",
		"contact": "Trevor Daly",
		"phone": "(905) 662-0225",
		"website": "http://homecapitalsolutions.ca"
	},
	{
		"company": "Dominion Roofing",
		"link": "/member_directory/34184",
		"street": "113 Cartwright Ave.",
		"city": "Toronto, ON",
		"postCode": "M6A 1V4",
		"contact": "Harry Silverberg",
		"phone": "(416) 789-0601",
		"website": "http://dominionroofing.com"
	},
	{
		"company": "Dominion Roofing",
		"link": "/member_directory/34503",
		"street": "113 Cartwright Ave.",
		"city": "Toronto, ON",
		"postCode": "M6A 1V4",
		"contact": "Mark Bornstein",
		"phone": "(416) 789-0601",
		"website": null
	},
	{
		"company": "Domm Construction",
		"link": "/member_directory/36368",
		"street": "Box 90",
		"city": "Ayton, ON",
		"postCode": "N0G 1C0",
		"contact": "Frank Domm",
		"phone": "(519) 665-7848",
		"website": null
	},
	{
		"company": "Domus Developments (London) Inc.",
		"link": "/member_directory/35680",
		"street": "270 Callaway Rd.",
		"city": "London, ON",
		"postCode": "N6G 0M3",
		"contact": "Michael Mescia",
		"phone": "(519) 439-3881",
		"website": "http://domusdev.com"
	},
	{
		"company": "Don & Son Building Supplies",
		"link": "/member_directory/34550",
		"street": "1289 Somerville St. N.",
		"city": "Oshawa, ON",
		"postCode": "L1G 7L5",
		"contact": "Lou Mastroianni",
		"phone": "(905) 576-1765",
		"website": "http://donsonbuildingsupplies.com"
	},
	{
		"company": "Don Barker Heating & Cooling",
		"link": "/member_directory/35275",
		"street": "16455 HWY 35",
		"city": "Algonquin Highlands, ON",
		"postCode": "K0M 1J1",
		"contact": "Steve Barker",
		"phone": "(705) 489-2004",
		"website": null
	},
	{
		"company": "Don Field & Sons Construction",
		"link": "/member_directory/34330",
		"street": "257 Oakhill Dr.",
		"city": "Brantford, ON",
		"postCode": "N3T 5L7",
		"contact": "Dennis Field",
		"phone": "(519) 753-4266",
		"website": null
	},
	{
		"company": "Don Lea Lumber Ltd.",
		"link": "/member_directory/34551",
		"street": "1062 Copperstone Dr.",
		"city": "Pickering, ON",
		"postCode": "L1W 3V8",
		"contact": "Ray Pottier",
		"phone": "(905) 428-0197",
		"website": "http://donlealumber.com"
	},
	{
		"company": "Don's Cabinets",
		"link": "/member_directory/36673",
		"street": "2840 White St.",
		"city": "Val Caron, ON",
		"postCode": "P3N 1B2",
		"contact": "Dan Cayen",
		"phone": "(705) 897-0009",
		"website": "http://donscabinets.ca"
	},
	{
		"company": "Don-Sul Homes & Renovations",
		"link": "/member_directory/36307",
		"street": "237 Barron Canyon Rd.",
		"city": "Laurentian Valley, ON",
		"postCode": "K8A 6W7",
		"contact": "Donald Sullivan",
		"phone": "(613) 735-3351",
		"website": null
	},
	{
		"company": "Donald Construction Ltd.",
		"link": "/member_directory/34185",
		"street": "333 Humberline Dr.",
		"city": "Rexdale, ON",
		"postCode": "M9W 5X3",
		"contact": "Sergio Manarin",
		"phone": "(416) 675-4134",
		"website": null
	},
	{
		"company": "Donevan Fleischmann Petrich Ltd.",
		"link": "/member_directory/34518",
		"street": "#1 -1101 Boundary Rd.",
		"city": "Oshawa, ON",
		"postCode": "L1J 8P8",
		"contact": "Fred Petrich",
		"phone": "(905) 725-4795",
		"website": null
	},
	{
		"company": "Donia Aluminum & Roofing Ltd.",
		"link": "/member_directory/34186",
		"street": "300 Newkirk Rd.",
		"city": "Richmond Hill, ON",
		"postCode": "L4C 3G7",
		"contact": "Lorenzo Donia",
		"phone": "(905) 508-7666",
		"website": null
	},
	{
		"company": "Donwest Construction Ltd.",
		"link": "/member_directory/36483",
		"street": "15 Barrie Blvd.",
		"city": "St. Thomas, ON",
		"postCode": "N5P 4B9",
		"contact": "Art Pol",
		"phone": "(519) 633-0691",
		"website": "http://donwest.ca"
	},
	{
		"company": "Door Company (The)",
		"link": "/member_directory/34990",
		"street": "9236 Castor Rd.",
		"city": "Metcalfe, ON",
		"postCode": "K0A 2P0",
		"contact": "Kathy Rousson",
		"phone": "(613) 821-2130",
		"website": "http://thedoorcompany.ca"
	},
	{
		"company": "Door Company (The)",
		"link": "/member_directory/36282",
		"street": "7 Douglas Rd.",
		"city": "Trenton, ON",
		"postCode": "K8V 5P8",
		"contact": "Loyd King",
		"phone": "(613) 827-4217",
		"website": null
	},
	{
		"company": "Door Company, The",
		"link": "/member_directory/36127",
		"street": "7 Douglas Rd. Box 28",
		"city": "Trenton, ON",
		"postCode": "3E0",
		"contact": "Loyd King",
		"phone": "(613) 395-4074",
		"website": null
	},
	{
		"company": "Doors & Trim Corp.",
		"link": "/member_directory/33356",
		"street": "126 Millwick Dr. Unit 1",
		"city": "Weston, ON",
		"postCode": "M9L 1Y6",
		"contact": "Joe Pinto",
		"phone": "(416) 747-8746",
		"website": null
	},
	{
		"company": "Dor-Ann Homes Ltd.",
		"link": "/member_directory/36170",
		"street": "415 Maitland Dr.",
		"city": "Belleville, ON",
		"postCode": "K8N 4Z5",
		"contact": "Jamie O&apos;Shea",
		"phone": "(613) 966-2424",
		"website": null
	},
	{
		"company": "Dor-Co Sales & Service Ltd.",
		"link": "/member_directory/36982",
		"street": "5340 Brendan Lane, RR #1",
		"city": "Oldcastle, ON",
		"postCode": "N0R 1L0",
		"contact": "Terry Mayea",
		"phone": "(519) 737-6915",
		"website": "http://dor-co.com"
	},
	{
		"company": "Dorex Hardware",
		"link": "/member_directory/33357",
		"street": "1866 Kipling Ave.",
		"city": "Toronto, ON",
		"postCode": "M9W 4J1",
		"contact": "Demetrios Zissopoulos",
		"phone": "(416) 241-4445",
		"website": "http://dorex.com"
	},
	{
		"company": "Doric Homes Inc.",
		"link": "/member_directory/32964",
		"street": "2966 Bayview Ave.",
		"city": "Toronto, ON",
		"postCode": "M2N 5K7",
		"contact": "Bijan Ahmadi",
		"phone": "(416) 226-0724",
		"website": "http://dorichomes.ca"
	},
	{
		"company": "Dorr and Associates",
		"link": "/member_directory/36841",
		"street": "26 Lesmill Rd., Unit 2",
		"city": "Toronto, ON",
		"postCode": "M3B 2T5",
		"contact": "Brian Dorr",
		"phone": "(416) 484-9747",
		"website": "http://doorcapital.com"
	},
	{
		"company": "Dorr and Associates",
		"link": "/member_directory/33262",
		"street": "26 Lesmill Rd. Unit 2",
		"city": "Toronto, ON",
		"postCode": "M3B 2T5",
		"contact": "Brian Dorr",
		"phone": "(416) 484-9747",
		"website": "http://dorrcapital.com"
	},
	{
		"company": "Dorsay Development Corporation",
		"link": "/member_directory/32965",
		"street": "150 York St. Ste. 1701",
		"city": "Toronto, ON",
		"postCode": "M5H 3S5",
		"contact": "Geoffrey Grayhurst",
		"phone": "(416) 368-1460",
		"website": "http://dorsay.ca"
	},
	{
		"company": "Dorsey Group (The)",
		"link": "/member_directory/34353",
		"street": "330 W. St., Unit 7",
		"city": "Brantford, ON",
		"postCode": "N3R 7V5",
		"contact": "Gary Dorsey",
		"phone": "(519) 759-0033",
		"website": null
	},
	{
		"company": "Doug Tarry Ltd.",
		"link": "/member_directory/36484",
		"street": "358 Elm St.",
		"city": "St. Thomas, ON",
		"postCode": "N5R 1K1",
		"contact": "Doug Tarry",
		"phone": "(519) 631-9300",
		"website": "http://dougtarryhomes.com"
	},
	{
		"company": "Doughty Aggregates (Peterborough) Ltd.",
		"link": "/member_directory/36128",
		"street": "1566 Young&apos;s Point Rd.",
		"city": "Lakefield, ON",
		"postCode": "K0L 2H0",
		"contact": "Kerry Doughty",
		"phone": "(705) 652-3016",
		"website": "http://doughtyaggregates.co,"
	},
	{
		"company": "Doughty Masonry Center",
		"link": "/member_directory/36129",
		"street": "1555 Chemong Rd., P.O. Box 501",
		"city": "Peterborough, ON",
		"postCode": "K9J 6Z6",
		"contact": "Brian Doughty",
		"phone": "(705) 743-7740",
		"website": null
	},
	{
		"company": "Douglas Window & Door Inc.",
		"link": "/member_directory/37037",
		"street": "515 Hamilton Road",
		"city": "London, ON",
		"postCode": "N5Z 1S3",
		"contact": "Chris George",
		"phone": "519-850-9170",
		"website": "http://douglaswd.com"
	},
	{
		"company": "Dover Coast Homes",
		"link": "/member_directory/35170",
		"street": "307 New Lakeshore Rd.",
		"city": "Port Dover, ON",
		"postCode": "N0A1N3",
		"contact": "Grant Wice",
		"phone": "(519) 593 2991",
		"website": null
	},
	{
		"company": "Dow Chemical Canada ULC",
		"link": "/member_directory/33358",
		"street": "36 Glen Oak Crt.",
		"city": "Barrie, ON",
		"postCode": "L4M 6M4",
		"contact": "David Kelly",
		"phone": "(416) 460-9876",
		"website": "http://dowbuildingsolutions.com"
	},
	{
		"company": "Downey and Associates Ltd",
		"link": "/member_directory/37061",
		"street": "2162 King Rd",
		"city": "King City, ON",
		"postCode": "L7B 1L5",
		"contact": "Dale Downey",
		"phone": "905 885 1100",
		"website": null
	},
	{
		"company": "Downing Street Partnership (The)",
		"link": "/member_directory/32966",
		"street": "56 Aberfoyle Cres. Ste. 500",
		"city": "Toronto, ON",
		"postCode": "M8X 2W4",
		"contact": "Daniel Odorico",
		"phone": "(416) 248-6206",
		"website": "http://downingstreet.com"
	},
	{
		"company": "Downsview Plumbing Ltd.",
		"link": "/member_directory/34187",
		"street": "4299 Queen St. E.",
		"city": "Brampton, ON",
		"postCode": "L6T 5V4",
		"contact": "Frank Quattrociocchi",
		"phone": "(905) 794-1167",
		"website": null
	},
	{
		"company": "Dows Climate Care",
		"link": "/member_directory/36243",
		"street": "63 Dufferin Ave",
		"city": "Trenton, ON",
		"postCode": "K8V 5C8",
		"contact": "Robert Lake",
		"phone": "(613) 394-5000",
		"website": null
	},
	{
		"company": "Doyle Homes Ltd.",
		"link": "/member_directory/34669",
		"street": "1367 Terrace Ridge Dr.",
		"city": "Carp, ON",
		"postCode": "K0A 1L0",
		"contact": "Trevor Doyle",
		"phone": "(613) 831-7924",
		"website": "http://doylehomes.ca"
	},
	{
		"company": "Doyles Window Sales",
		"link": "/member_directory/36244",
		"street": "140 Industrial Blvd., Unit 1",
		"city": "Napanee, ON",
		"postCode": "K7R 3Y9",
		"contact": "Rick LaRose",
		"phone": "(613) 969-0214",
		"website": null
	},
	{
		"company": "Dragon Electric Inc.",
		"link": "/member_directory/35562",
		"street": "217 Sulphur Springs Rd.",
		"city": "Ancaster, ON",
		"postCode": "L9G 4T7",
		"contact": "Dragon Ljubinkovic",
		"phone": "(905) 304-0858",
		"website": null
	},
	{
		"company": "Drain Brothers",
		"link": "/member_directory/36152",
		"street": "2130 8Th Line Rd N",
		"city": "Douro-Drummer, ON",
		"postCode": "K0L 2H0",
		"contact": "Darrell Drain",
		"phone": "(705) 639-2301",
		"website": null
	},
	{
		"company": "Drain-Tite Industries Inc",
		"link": "/member_directory/34897",
		"street": "118 Wescar Lane",
		"city": "Ottawa, ON",
		"postCode": "K0A 1L0",
		"contact": "John Pellegrino",
		"phone": "(613) 831-0376",
		"website": "http://draintite.com"
	},
	{
		"company": "Drain-Tite Industries Inc.",
		"link": "/member_directory/34188",
		"street": "216 Bradwick Dr.",
		"city": "Concord, ON",
		"postCode": "L4K 1K8",
		"contact": "John Pellegrino",
		"phone": "(905) 761-5357",
		"website": "http://draintite.com"
	},
	{
		"company": "Dranco Construction Ltd.",
		"link": "/member_directory/34189",
		"street": "1919 Albion Rd.",
		"city": "Etobicoke, ON",
		"postCode": "M9W 5S8",
		"contact": "Ray Di Donato",
		"phone": "(416) 675-2682",
		"website": null
	},
	{
		"company": "Dream UnLtd. Corp.",
		"link": "/member_directory/32967",
		"street": "30 Adelaide St. E. Ste. 1600",
		"city": "Toronto, ON",
		"postCode": "M5C 3H1",
		"contact": "Betty Raymond",
		"phone": "(416) 365-3535",
		"website": "http://dream.ca"
	},
	{
		"company": "DreamBuilders (2004) Ltd.",
		"link": "/member_directory/33599",
		"street": "39 Parmalea Cres.",
		"city": "Toronto, ON",
		"postCode": "M9R 2X8",
		"contact": "Lou Frustaglio",
		"phone": "(416) 736-6828",
		"website": "http://dreambuilders.ca"
	},
	{
		"company": "Dreamland Homes Construction",
		"link": "/member_directory/32968",
		"street": "1310 Kerrisdale Blvd. Ste. 100",
		"city": "Newmarket, ON",
		"postCode": "L3Y 8V6",
		"contact": "John Pelosi",
		"phone": "(905) 657-4663",
		"website": "http://dreamlandhomes.ca"
	},
	{
		"company": "Dreams 2 Designs",
		"link": "/member_directory/36105",
		"street": "51 Mary St. PO Box 384",
		"city": "Omemee, ON",
		"postCode": "K0L 2W0",
		"contact": "Ian Sollitt",
		"phone": "(705) 934-0205",
		"website": "http://dreams2designs.ca"
	},
	{
		"company": "Dresden Ready Mix Ltd.",
		"link": "/member_directory/34415",
		"street": "1225 wellinton St. Ext.",
		"city": "Dresden, ON",
		"postCode": "N0P 1M0",
		"contact": "Jerome Laprise",
		"phone": "(519) 683-6266",
		"website": null
	},
	{
		"company": "Drewlo Holdings Inc.",
		"link": "/member_directory/35681",
		"street": "R.R. #3",
		"city": "Komoka, ON",
		"postCode": "N0L 1R0",
		"contact": "Allan Drewlo",
		"phone": "(519) 472-8200",
		"website": "http://drewlowholdings.com"
	},
	{
		"company": "Drive Agency",
		"link": "/member_directory/35402",
		"street": "40 Laird Dr. #200",
		"city": "Toronto, ON",
		"postCode": "M4G 3T2",
		"contact": "Pakka Varvas",
		"phone": "(416) 406-4323",
		"website": "http://driveagency.ca"
	},
	{
		"company": "Drive Agency Inc.",
		"link": "/member_directory/33830",
		"street": "40 Laird Dr. Ste. 200",
		"city": "Toronto, ON",
		"postCode": "M4G 3T2",
		"contact": "Pekka Varvas",
		"phone": "(416) 406-4323",
		"website": "http://driveagency.ca"
	},
	{
		"company": "DRT Custom Homes & Renovations",
		"link": "/member_directory/35915",
		"street": "7150 Ridgewood Cres.",
		"city": "Niagara Falls, ON",
		"postCode": "L2J 3H1",
		"contact": "Isabella Burt",
		"phone": "(905) 658-8283",
		"website": "http://drtcustomhomes.com"
	},
	{
		"company": "Drybasements.com Ltd.",
		"link": "/member_directory/36611",
		"street": "P.O. Box 20124",
		"city": "Woodstock, ON",
		"postCode": "N4S 8X8",
		"contact": "Jeff Brown",
		"phone": "(519) 421-0852",
		"website": null
	},
	{
		"company": "Dryden Smith & Head Planning Consultants Ltd.",
		"link": "/member_directory/36842",
		"street": "54 Cedar St. N.",
		"city": "Kitchener, ON",
		"postCode": "N2H 2X1",
		"contact": "Samuel Head",
		"phone": "(519) 745-3540",
		"website": "http://dsh.ca"
	},
	{
		"company": "Drytech International Inc.",
		"link": "/member_directory/34991",
		"street": "2 - 1670 Vimont Crt.",
		"city": "Ottawa, ON",
		"postCode": "K4A 3M3",
		"contact": "Kevin Dooley",
		"phone": "(613) 821-4792",
		"website": "http://thedrytechgroup.com"
	},
	{
		"company": "Drywall by Phase V",
		"link": "/member_directory/35071",
		"street": "R.R. #3",
		"city": "Markdale, ON",
		"postCode": "N0C 1H0",
		"contact": "Doug Sowerby",
		"phone": "(519) 986-4679",
		"website": null
	},
	{
		"company": "Drywall Canada Ltd.",
		"link": "/member_directory/33359",
		"street": "639 Dupont St. Ste. 502",
		"city": "Toronto, ON",
		"postCode": "M6G 1Z4",
		"contact": "Agostino Piccin",
		"phone": "(416) 346-3611",
		"website": "http://drywallcanada.com"
	},
	{
		"company": "DSBN-School Support Services",
		"link": "/member_directory/35965",
		"street": "1875 Niagara Stone Rd.",
		"city": "Niagara-on-the-Lake, ON",
		"postCode": "L0S 1J0",
		"contact": "Ken Willms/C. Fast",
		"phone": "(905) 327-1244",
		"website": "http://dsbn.edu.on.ca"
	},
	{
		"company": "DSC Plumbing",
		"link": "/member_directory/37152",
		"street": "3523 Confederation Line RR #1",
		"city": "Wyoming, ON",
		"postCode": "N0N 1T0",
		"contact": "Doug Korvermaker",
		"phone": "519 330 9956",
		"website": null
	},
	{
		"company": "DT Home Energy",
		"link": "/member_directory/34809",
		"street": "1115 Pelton Rd.",
		"city": "Kemptville, ON",
		"postCode": "K0G 1J0",
		"contact": "Tim Vander Meer",
		"phone": "(613) 258-9089",
		"website": "http://dthomeenergy.com"
	},
	{
		"company": "DTZ Canada Inc.",
		"link": "/member_directory/33831",
		"street": "161 Bay St. Ste. 4040",
		"city": "Toronto, ON",
		"postCode": "M5J 2S1",
		"contact": "Jim Brown",
		"phone": "(416) 863-1215",
		"website": "http://dtz.com"
	},
	{
		"company": "Dual Tek Home & Business Systems",
		"link": "/member_directory/34190",
		"street": "156 Duncan Mill Rd. Unit 4",
		"city": "Toronto, ON",
		"postCode": "M3B 3N2",
		"contact": "George Koutsavlakis",
		"phone": "(416) 750-3300",
		"website": "http://dualtek.ca"
	},
	{
		"company": "Ducon Homes",
		"link": "/member_directory/36171",
		"street": "P.O. Box 1205",
		"city": "Trenton, ON",
		"postCode": "K8V 5R9",
		"contact": "David Wikkerink",
		"phone": "(613) 392-6891",
		"website": null
	},
	{
		"company": "Dufferin Aggregates",
		"link": "/member_directory/33360",
		"street": "2300 Steeles Ave. W. 4th Flr.",
		"city": "Concord, ON",
		"postCode": "L4K 5X6",
		"contact": "German Viol",
		"phone": "(905) 761-7500",
		"website": "http://dufferinrockstar.com"
	},
	{
		"company": "Dufferin Concrete",
		"link": "/member_directory/35140",
		"street": "Box 5400",
		"city": "Concord, ON",
		"postCode": "L4K 1B6",
		"contact": "Monty Holland",
		"phone": "(519) 651-7207",
		"website": null
	},
	{
		"company": "Dufferin Concrete",
		"link": "/member_directory/35214",
		"street": "458 Queensway W.",
		"city": "Simcoe, ON",
		"postCode": "N3Y 2N3",
		"contact": "Rob Grech",
		"phone": "(519) 426-6472",
		"website": null
	},
	{
		"company": "Dufferin Concrete",
		"link": "/member_directory/35988",
		"street": "5980 Don Murie Dr.",
		"city": "Niagara Falls, ON",
		"postCode": "L2E 6X8",
		"contact": "Joe Katzman",
		"phone": "(905) 371-8353",
		"website": "http://holcim.com"
	},
	{
		"company": "Dufferin Concrete",
		"link": "/member_directory/37106",
		"street": "PO Box 1360 5 Johnston St",
		"city": "Kitchener, ON",
		"postCode": "N2G 4H9",
		"contact": "Rob Grech",
		"phone": "519-872-0230",
		"website": null
	},
	{
		"company": "Dufferin Concrete, a division of Holcim (Canada) Inc.",
		"link": "/member_directory/35483",
		"street": "3087 Harrison Crt.",
		"city": "Burlington, ON",
		"postCode": "L7M 0W4",
		"contact": "Tony Petrasso",
		"phone": "(905) 679-3994",
		"website": "http://holcim.ca"
	},
	{
		"company": "Dufferin Concrete, a division of Holcim (Canada) Inc.",
		"link": "/member_directory/34552",
		"street": "4860 Thickson Rd. N.",
		"city": "Whitby, ON",
		"postCode": "L1R 2W9",
		"contact": "Joe Thompson",
		"phone": "(905) 655-3922",
		"website": "http://dufferinconcrete.ca"
	},
	{
		"company": "Dufferin Concrete, Division of Holcim (Canada) Inc.",
		"link": "/member_directory/36892",
		"street": "P.O. Box 5400",
		"city": "Concord, ON",
		"postCode": "L4K 1B6",
		"contact": null,
		"phone": "(519) 651-7003",
		"website": "http://holcim.ca"
	},
	{
		"company": "Dufferin-Custom Concrete",
		"link": "/member_directory/36130",
		"street": "471 Parkhill Rd. E.  P.O. Box 181",
		"city": "Peterborough, ON",
		"postCode": "K9J 6Y8",
		"contact": "John Prescott",
		"phone": "(705) 742-3401",
		"website": null
	},
	{
		"company": "Duke Renovation & Repair",
		"link": "/member_directory/36814",
		"street": "133 Madison Ave S.",
		"city": "Kitchener, ON",
		"postCode": "N2G 3M4",
		"contact": "Godfrey Duke",
		"phone": "(519) 729-6036",
		"website": "http://dukerenovations.ca"
	},
	{
		"company": "Duncan Drywall",
		"link": "/member_directory/36467",
		"street": "1160 Snow Valley Rd. R.R.#3",
		"city": "Minesing, ON",
		"postCode": "L0L 1Y3",
		"contact": "Rob Duncan",
		"phone": "(705) 733-6114",
		"website": "http://duncandrywall.ca"
	},
	{
		"company": "Dundas Home Improvements",
		"link": "/member_directory/35373",
		"street": "569 Ofield Rd. N.",
		"city": "Dundas, ON",
		"postCode": "L9H 5E2",
		"contact": "Steve Foster",
		"phone": "(905) 628-2212",
		"website": null
	},
	{
		"company": "Dundas Home Improvements",
		"link": "/member_directory/35374",
		"street": "569 Ofield Rd. N.",
		"city": "Dundas, ON",
		"postCode": "L9H 5E2",
		"contact": "Steve Foster",
		"phone": "(905) 628-2212",
		"website": null
	},
	{
		"company": "Dundene Homes inc.",
		"link": "/member_directory/33597",
		"street": "466 King St. E. Ste. 100",
		"city": "Toronto, ON",
		"postCode": "M5A 1L7",
		"contact": "Jurij Sennecke",
		"phone": "(416) 863-6116",
		"website": "http://dundenehomes.ca"
	},
	{
		"company": "Dunham Group (The)",
		"link": "/member_directory/35403",
		"street": "862 Main St. E.",
		"city": "Hamilton, ON",
		"postCode": "L8M 1L9",
		"contact": "Chris Grabiec",
		"phone": "(905) 312-8444",
		"website": "http://thedunhamgroup.com"
	},
	{
		"company": "Dunnink Homes Ltd.",
		"link": "/member_directory/35079",
		"street": "4988 Jones Baseline",
		"city": "Guelph, ON",
		"postCode": "N1H 6H8",
		"contact": "John Dunnink",
		"phone": "(519) 821-7960",
		"website": null
	},
	{
		"company": "Dunpar Homes",
		"link": "/member_directory/32969",
		"street": "105 Six Point Rd.",
		"city": "Etobicoke, ON",
		"postCode": "M8Z 2X3",
		"contact": "John Zanini",
		"phone": "(416) 236-9800",
		"website": "http://dunparhomes.com"
	},
	{
		"company": "Dunsire Developments Inc.",
		"link": "/member_directory/35080",
		"street": "203A-465 Phillip St.",
		"city": "Waterloo, ON",
		"postCode": "N2L 6C7",
		"contact": "Shawn Keeper",
		"phone": "1-888-519-2346",
		"website": null
	},
	{
		"company": "Dunsire Developments Inc.",
		"link": "/member_directory/32970",
		"street": "5100 S. Service Rd. Unit 54",
		"city": "Burlington, ON",
		"postCode": "L7L 6A5",
		"contact": "Shawn Keeper",
		"phone": "1-888-519-2346",
		"website": "http://dunsire.com"
	},
	{
		"company": "Duo Building Ltd.",
		"link": "/member_directory/35748",
		"street": "663 Central Ave.",
		"city": "London, ON",
		"postCode": "N5W 3P7",
		"contact": "Patrick Malloy",
		"phone": "(519) 434-0960",
		"website": "http://duobuilding.com"
	},
	{
		"company": "Dupont Custom Homes O/A 1740338 Ontario Ltd.",
		"link": "/member_directory/32971",
		"street": "56 Moses Cres.",
		"city": "Markham, ON",
		"postCode": "L6C 1S5",
		"contact": "Vazken Nakhnikian",
		"phone": "(416) 209-0029",
		"website": "http://dupontcustomhomes.com"
	},
	{
		"company": "Duracon Construction Services & Dura Painting",
		"link": "/member_directory/33600",
		"street": "82 Braith Cres.",
		"city": "Stouffville, ON",
		"postCode": "L4A 0B7",
		"contact": "Mike Borrelli",
		"phone": "(416) 688-9191",
		"website": "http://duraconconstruction.com"
	},
	{
		"company": "Durco Construction Ltd.",
		"link": "/member_directory/36326",
		"street": "1631 Lakeshore Rd.",
		"city": "Sarnia, ON",
		"postCode": "N7T 7H6",
		"contact": "Frank Durco, Sr.",
		"phone": "(519) 541-1653",
		"website": null
	},
	{
		"company": "Durham Custom Homes",
		"link": "/member_directory/34450",
		"street": "1552 Bayview Ave. Suite 2",
		"city": "Toronto, ON",
		"postCode": "M4G 3B6",
		"contact": "Jeff Goldman",
		"phone": "(416) 485-8805",
		"website": "http://kingswayforest.ca"
	},
	{
		"company": "Durham Custom Homes",
		"link": "/member_directory/32972",
		"street": "1552 Bayview Ave. Ste. 2",
		"city": "Toronto, ON",
		"postCode": "M4G 3B6",
		"contact": "Jeff Goldman",
		"phone": "(416) 485-8805",
		"website": "http://kingswayforest.ca"
	},
	{
		"company": "Durham Truck & Equipment Sales & Service",
		"link": "/member_directory/34553",
		"street": "610 Finley Ave.",
		"city": "Ajax, ON",
		"postCode": "L1S 2E3",
		"contact": "E. Paterson R. Ricciuti",
		"phone": "(905) 426-6225",
		"website": "http://durhamtruck.com"
	},
	{
		"company": "Durock Alfacing International Ltd.",
		"link": "/member_directory/33361",
		"street": "101 Roytec Rd. Unit B",
		"city": "Woodbridge, ON",
		"postCode": "L4L 8A9",
		"contact": "Frank Campacci",
		"phone": "(905) 856-0133",
		"website": "http://durock.com"
	},
	{
		"company": "Durward Jones Barkwell & Company LLP",
		"link": "/member_directory/35404",
		"street": "120 King St. W. Suite 780",
		"city": "Hamilton, ON",
		"postCode": "L8P 4V2",
		"contact": "Andrew Ferro",
		"phone": "(905) 525-9520",
		"website": "http://djb.com"
	},
	{
		"company": "Durward Jones Barkwell & Company LLP",
		"link": "/member_directory/35966",
		"street": "20 Corporate Dr.",
		"city": "St. Catharines, ON",
		"postCode": "L2S 3W2",
		"contact": "Jeff McLean",
		"phone": "(905) 684-9221",
		"website": "http://djb.com"
	},
	{
		"company": "Dussin Quality Homes",
		"link": "/member_directory/35300",
		"street": "270 Springbrook Rd.",
		"city": "Ancaster, ON",
		"postCode": "L9G 3K9",
		"contact": "James Dussin",
		"phone": "(905) 648-9919",
		"website": "http://dussinqualityhomes.com"
	},
	{
		"company": "Dutchman Lawn & Garden",
		"link": "/member_directory/36283",
		"street": "192 County Rd. 28",
		"city": "Belleville, ON",
		"postCode": "K8N 4Z7",
		"contact": "Ken Dehaan",
		"phone": "(613) 848-1650",
		"website": null
	},
	{
		"company": "Dutot Design Services",
		"link": "/member_directory/35771",
		"street": "33 McNay St.",
		"city": "London, ON",
		"postCode": "N5Y 1K5",
		"contact": "Craig Dutot",
		"phone": "(519) 951-1234",
		"website": null
	},
	{
		"company": "Duvanco Homes Inc.",
		"link": "/member_directory/36172",
		"street": "5194 Hwy 62 S.",
		"city": "Belleville, ON",
		"postCode": "K8N 4Z7",
		"contact": "Dustin Van Soelen",
		"phone": "(613) 966-4499",
		"website": null
	},
	{
		"company": "Dwell Design Build Inc.",
		"link": "/member_directory/33601",
		"street": "3545 Lake Shore Blvd. W. Ste. 302",
		"city": "Toronto, ON",
		"postCode": "M8W 1P4",
		"contact": "Andy Foot",
		"phone": "(416) 761-9038",
		"website": "http://dwelldesignbuild.ca"
	},
	{
		"company": "Dykstra Construction",
		"link": "/member_directory/34296",
		"street": "P.O. Box 1381",
		"city": "Clinton, ON",
		"postCode": "N0M 1L0",
		"contact": "Berton Dykstra",
		"phone": "(519) 525-8675",
		"website": null
	},
	{
		"company": "Dynamic Kitchens",
		"link": "/member_directory/36508",
		"street": "4094 E.gate Cres.",
		"city": "London, ON",
		"postCode": "N6L 1B2",
		"contact": "Brian Lippold",
		"phone": "(519) 652-5091",
		"website": "http://dynamickitchens.ca"
	},
	{
		"company": "Dynamic Kitchens by JEM DOR WOODCRAFT LTD.",
		"link": "/member_directory/35824",
		"street": "4094 E.gate Cres.",
		"city": "London, ON",
		"postCode": "N6L 1B2",
		"contact": "Shelley Pelc",
		"phone": "(519) 652-5091",
		"website": "http://dynamickitchens.ca"
	},
	{
		"company": "E-M Air Systems Inc.",
		"link": "/member_directory/34191",
		"street": "69 Romina Dr.",
		"city": "Concord, ON",
		"postCode": "L4K 4Z9",
		"contact": "Enzo Colosimo",
		"phone": "(905) 738-0450",
		"website": "http://emair.on.ca"
	},
	{
		"company": "E-Zee Forming",
		"link": "/member_directory/35572",
		"street": "90 Trinity Church Rd.",
		"city": "Hamilton, ON",
		"postCode": "L8W 3S2",
		"contact": "Arnold Mans",
		"phone": "(905) 387-9394",
		"website": null
	},
	{
		"company": "E. Carter Concrete (1994) Inc.",
		"link": "/member_directory/36156",
		"street": "1498 County Rd #42",
		"city": "Norwood, ON",
		"postCode": "K0L 2V0",
		"contact": "Keith Carter",
		"phone": "(705) 639-2258",
		"website": null
	},
	{
		"company": "E. I. Du Pont Canada Company",
		"link": "/member_directory/34898",
		"street": "7070 Mississauga Rd.",
		"city": "Mississauga, ON",
		"postCode": "L5N 5M8",
		"contact": "Darrin Topping",
		"phone": "(905) 665-8606",
		"website": "http://construction.tyvek.ca"
	},
	{
		"company": "E.C. King Contracting",
		"link": "/member_directory/35067",
		"street": "P.O. Box 457",
		"city": "Owen Sound, ON",
		"postCode": "N4K 5P7",
		"contact": "Paul Martin",
		"phone": "(519) 376-6140",
		"website": null
	},
	{
		"company": "E.I. du Pont Canada Company",
		"link": "/member_directory/33362",
		"street": "1919 Minnesota Crt.",
		"city": "Mississauga, ON",
		"postCode": "L5N 5M8",
		"contact": "Lisa Jenkins",
		"phone": "(905) 816-3326",
		"website": "http://construction.tyvek.ca"
	},
	{
		"company": "E.I. du Pont Canada Company",
		"link": "/member_directory/35825",
		"street": "579 Sherene Terrace",
		"city": "London, ON",
		"postCode": "N6H 3J9",
		"contact": "Bruce Kelly",
		"phone": "(519) 857-8745",
		"website": "http://construction.tyvek.ca"
	},
	{
		"company": "E.I. du Pont Canada Company",
		"link": "/member_directory/34554",
		"street": "1919 Minnesota Crt",
		"city": "Mississauga, ON",
		"postCode": "L5N 0C9",
		"contact": "Darrin Topping",
		"phone": "(613) 433-2233",
		"website": "http://construcion.tyvek.ca"
	},
	{
		"company": "E.I. DuPont Canada Company",
		"link": "/member_directory/35355",
		"street": "1919 Minnesota Crt.",
		"city": "Mississauga, ON",
		"postCode": "L5N 0C9",
		"contact": "Peter Pierroz",
		"phone": "(647) 899-0834",
		"website": null
	},
	{
		"company": "E.I. DuPont Canada Company",
		"link": "/member_directory/35356",
		"street": "1919 Minnesota Crt.",
		"city": "Mississauga, ON",
		"postCode": "L5N 0C9",
		"contact": "Peter Pierroz",
		"phone": "(647) 899-0834",
		"website": "http://construction.tyvek.ca"
	},
	{
		"company": "Eaglebay Estates",
		"link": "/member_directory/32973",
		"street": "163 Buttermill Ave. Unit 9",
		"city": "Concord, ON",
		"postCode": "L4K 3X8",
		"contact": "Michael Patullo",
		"phone": "(905) 660-5471",
		"website": "http://eaglebayestates.com"
	},
	{
		"company": "Eagleview Construction",
		"link": "/member_directory/36815",
		"street": "210 Lancaster St. E",
		"city": "Kitchener, ON",
		"postCode": "N2H 1N6",
		"contact": "Iain Kent",
		"phone": "(519) 496-2867",
		"website": "http://eagleviewconstruction.com"
	},
	{
		"company": "EAL Construction Ltd.",
		"link": "/member_directory/34992",
		"street": "103 BRd.way Ave.",
		"city": "Ottawa, ON",
		"postCode": "K1S 2V5",
		"contact": "John Stephenson",
		"phone": "(613) 688-0898",
		"website": "http://ealconstruction.com"
	},
	{
		"company": "Earth Park Homes (Stratford) Inc.",
		"link": "/member_directory/36527",
		"street": "119 Captain McCallum Dr.",
		"city": "New Hamburg, ON",
		"postCode": "N3A 0B5",
		"contact": "Louis Veenstra",
		"phone": "(519) 662-3610",
		"website": null
	},
	{
		"company": "East Elgin Concrete Forming",
		"link": "/member_directory/35682",
		"street": "10 Elm St.",
		"city": "Tillsonburg, ON",
		"postCode": "N4G 0A7",
		"contact": "Tyson Van Leeuwen",
		"phone": "(519) 842-6667",
		"website": "http://eecf.ca"
	},
	{
		"company": "East Elgin Concrete Forming",
		"link": "/member_directory/36522",
		"street": "10 Elm St.",
		"city": "Tillsonburg, ON",
		"postCode": "N4G 0A7",
		"contact": "Tyson Van Leeuwen",
		"phone": "(519) 842-6667",
		"website": "http://eecf.ca"
	},
	{
		"company": "East End Construction Ltd.",
		"link": "/member_directory/34192",
		"street": "80 Travail Rd. Unit 7",
		"city": "Markham, ON",
		"postCode": "L3S 3H9",
		"contact": "Luis Cabral",
		"phone": "(905) 472-8222",
		"website": null
	},
	{
		"company": "East Forest Homes",
		"link": "/member_directory/35171",
		"street": "139 Wasuburn Dr.",
		"city": "Kitchener, ON",
		"postCode": "N2K 4N7",
		"contact": "Lee Denine",
		"phone": null,
		"website": null
	},
	{
		"company": "Eastern Design Windows and Doors Renovations Ltd.",
		"link": "/member_directory/36245",
		"street": "45 Lahr Dr., Unit #1",
		"city": "Belleville, ON",
		"postCode": "K8N 5S2",
		"contact": "Brian Garrard",
		"phone": "(613) 962-3800",
		"website": null
	},
	{
		"company": "Eastern Ontario Construction Company Ltd.",
		"link": "/member_directory/34670",
		"street": "350 Tweedsmuir",
		"city": "Ottawa, ON",
		"postCode": "K1Z 5N4",
		"contact": "Salem MacDonald",
		"phone": "(613) 798-2055",
		"website": null
	},
	{
		"company": "Eastern Overhead Doors",
		"link": "/member_directory/36246",
		"street": "P.O. Box 520, R.R. #6",
		"city": "Belleville, ON",
		"postCode": "K8N 4Z6",
		"contact": "Ernie Wales",
		"phone": "(613) 966-8392",
		"website": null
	},
	{
		"company": "Eastern Restoration & Masonry Contractor",
		"link": "/member_directory/36284",
		"street": "121 Dundas St. E. Ste. 107A",
		"city": "Belleville, ON",
		"postCode": "K8n 1C3",
		"contact": "Vern Hartwig",
		"phone": "(613) 962-2915",
		"website": "http://eastern-restoration.com"
	},
	{
		"company": "Eastforest Homes Ltd.",
		"link": "/member_directory/34331",
		"street": "155 Washburn Dr.",
		"city": "Kitchener, ON",
		"postCode": "N2R 1S1",
		"contact": "Rick Martins",
		"phone": "(519) 742-2846",
		"website": null
	},
	{
		"company": "Eastforest Homes Ltd.",
		"link": "/member_directory/35683",
		"street": "155 Washburn Dr.",
		"city": "Kitchener, ON",
		"postCode": "N2R 1S1",
		"contact": "Alison Gaspar",
		"phone": "(519) 742-2846",
		"website": "http://eastforesthomes.com"
	},
	{
		"company": "Eastforest Homes Ltd.",
		"link": "/member_directory/36743",
		"street": "155 Washburn Dr.",
		"city": "Kitchener, ON",
		"postCode": "N2R 1S1",
		"contact": "Leslie Taylor",
		"phone": "(519) 742-2846",
		"website": "http://eastforesthomes.com"
	},
	{
		"company": "Eastlake Homes Inc.",
		"link": "/member_directory/35301",
		"street": "50 Thornwood Dr.",
		"city": "Ancaster, ON",
		"postCode": "L9G 1A4",
		"contact": "John Filice",
		"phone": "(905) 638-1370",
		"website": "http://eastlakehomes.ca"
	},
	{
		"company": "Easton's Group Inc.",
		"link": "/member_directory/32974",
		"street": "3100 Steeles Ave. E. Ste. 601",
		"city": "Markham, ON",
		"postCode": "L3R 8T3",
		"contact": "Reetu Gupta",
		"phone": "(905) 940-9409",
		"website": "http://eastonsgroup.com"
	},
	{
		"company": "eBuild.ca Inc.",
		"link": "/member_directory/33832",
		"street": "69 Connie Cres.",
		"city": "Concord, ON",
		"postCode": "L4K 1L3",
		"contact": "Guy Cervi",
		"phone": "(905) 284-1940",
		"website": "http://ebuild.ca"
	},
	{
		"company": "Ecnomus Construction Group Inc.",
		"link": "/member_directory/36816",
		"street": "6 Kensington St.",
		"city": "Guelph, ON",
		"postCode": "N1E 3P4",
		"contact": "Andrew Wood",
		"phone": "(519) 590-2444",
		"website": "http://ecnomus.ca"
	},
	{
		"company": "Eco Insulation",
		"link": "/member_directory/37159",
		"street": "8565 James St  PO Box 144",
		"city": "Charing Cross, ON",
		"postCode": "LN0P 1G0",
		"contact": "Justin Foss",
		"phone": "519-352-2924",
		"website": "http://ecoisulation.ca"
	},
	{
		"company": "ECO Insulation Sudbury",
		"link": "/member_directory/36674",
		"street": "302 Black Lake Rd.",
		"city": "Lively, ON",
		"postCode": "P3Y 1G6",
		"contact": "Ken White",
		"phone": "(705) 692-3626",
		"website": "http://ecoinsulation.ca"
	},
	{
		"company": "EcoInnovation Technologies",
		"link": "/member_directory/33363",
		"street": "231 Rue Ste. Marie",
		"city": "Saint Louis de Gonzague, Quebec",
		"postCode": "J0S 1T0",
		"contact": "Daniel Beauchemin",
		"phone": "1-888-881-7693",
		"website": "http://ecoinnovation.ca"
	},
	{
		"company": "Ecovert-Sustainable Real Estate Solutions",
		"link": "/member_directory/33833",
		"street": "55 Ormskirk Ave. Ste. 100",
		"city": "Toronto, ON",
		"postCode": "M6S 4V6",
		"contact": "Jim Lord",
		"phone": "(416) 350-2002",
		"website": "http://ecovert.ca"
	},
	{
		"company": "Ed Debusschere Custom Homes",
		"link": "/member_directory/35172",
		"street": "R.R. #3",
		"city": "Delhi, ON",
		"postCode": "N4B 2W6",
		"contact": "Ed Debusschere",
		"phone": "(519) 582-4453",
		"website": null
	},
	{
		"company": "Ed Dejonge Construction",
		"link": "/member_directory/34398",
		"street": "7152 Riverview Line, R.R. #9",
		"city": "Chatham, ON",
		"postCode": "N7M 5T1",
		"contact": "Ed DeJonge",
		"phone": "(519) 354-9620",
		"website": null
	},
	{
		"company": "Ed Learn Ford Lincoln",
		"link": "/member_directory/37059",
		"street": "375 Ontario St",
		"city": "St Catharines, ON",
		"postCode": "L2R 7P7",
		"contact": "Cindy McCrystal",
		"phone": "905 684 6097",
		"website": "http://edlearnford.com"
	},
	{
		"company": "Ed Robinson Homes Ltd.",
		"link": "/member_directory/35173",
		"street": "319 River Rd., R.R. #5",
		"city": "Dunnville, ON",
		"postCode": "N1A 2W3",
		"contact": "Glenn Morris",
		"phone": "(905) 572-0895",
		"website": null
	},
	{
		"company": "Ed Serwa Homes",
		"link": "/member_directory/36065",
		"street": "RR#6",
		"city": "Peterborough, ON, ON",
		"postCode": "K9J 6X7",
		"contact": "Ed Serwa",
		"phone": "(705) 742-9169",
		"website": null
	},
	{
		"company": "Ed Verboom Plumbing Ltd.",
		"link": "/member_directory/35241",
		"street": "R.R. 6",
		"city": "Simcoe, ON",
		"postCode": "N3Y 4K5",
		"contact": "Ed Verboom",
		"phone": "(519) 428-1738",
		"website": null
	},
	{
		"company": "Ed's Concrete Products Ltd.",
		"link": "/member_directory/36584",
		"street": "1266 Erie St.",
		"city": "Stratford, ON",
		"postCode": "N5A 6S4",
		"contact": "Byron Veldjesgraaf",
		"phone": "(519) 271-6590",
		"website": null
	},
	{
		"company": "Eden Oak",
		"link": "/member_directory/32975",
		"street": "1443 Hurontario St.",
		"city": "Mississauga, ON",
		"postCode": "L5G 3H5",
		"contact": "Romas Kartavicius",
		"phone": "(905) 274-5500",
		"website": "http://edenoak.com"
	},
	{
		"company": "Edenshaw Developments Ltd.",
		"link": "/member_directory/32976",
		"street": "260 Brunel Rd.",
		"city": "Mississauga, ON",
		"postCode": "L4Z 1T5",
		"contact": "David McComb",
		"phone": "(905) 990-3500",
		"website": "http://edenshaw.com"
	},
	{
		"company": "Edilcan Development Corporation",
		"link": "/member_directory/32977",
		"street": "199 Adesso Dr.",
		"city": "Concord, ON",
		"postCode": "L4K 3C4",
		"contact": "G.P. Di Rocco",
		"phone": "(416) 663-8434",
		"website": null
	},
	{
		"company": "Edward Fuels Ltd.",
		"link": "/member_directory/34305",
		"street": "263 Huron Rd.",
		"city": "Goderich, ON",
		"postCode": "N7A 2Z8",
		"contact": "Scott Rivett",
		"phone": "(519) 524-8386",
		"website": null
	},
	{
		"company": "Edward Jones",
		"link": "/member_directory/33834",
		"street": "9441 Jane St. Ste. 110",
		"city": "Vaughan, ON",
		"postCode": "L6A 4H8",
		"contact": "Nick Sacchetti",
		"phone": "(289) 304-9818",
		"website": "http://edwardjones.com"
	},
	{
		"company": "Edwards & Sons Complete Property Maintenance Inc.",
		"link": "/member_directory/35895",
		"street": "10648 W.minister Dr.",
		"city": "Southwold, ON",
		"postCode": "N0L 2G0",
		"contact": "John Edwards",
		"phone": "(519) 652-0826",
		"website": "http://edwardsandsons.ca"
	},
	{
		"company": "Effort Trust Company (The)",
		"link": "/member_directory/35484",
		"street": "242 Main St. E.",
		"city": "Hamilton, ON",
		"postCode": "L8N 1H5",
		"contact": "Tom Weisz",
		"phone": "(905) 528-8956",
		"website": null
	},
	{
		"company": "EFP Designs Incorporated",
		"link": "/member_directory/33364",
		"street": "50 Viceroy Rd. Unit 23",
		"city": "Concord, ON",
		"postCode": "L4K 3A7",
		"contact": "Hossein Karbakhsh",
		"phone": "(905) 669-0368",
		"website": "http://efpdesigns.com"
	},
	{
		"company": "Eggersmann Toronto/Kitchens/Home Living",
		"link": "/member_directory/33602",
		"street": "1360 Yonge St. Unit 1",
		"city": "Toronto, ON",
		"postCode": "M4T 3B2",
		"contact": "Victoria Shaw",
		"phone": "(416) 420-9565",
		"website": "http://eggersmanntoronto.ca"
	},
	{
		"company": "Eggink Homes Inc.",
		"link": "/member_directory/35174",
		"street": "81 Old Hwy 3, R.R. #1",
		"city": "Jarvis, ON",
		"postCode": "N0A 1J0",
		"contact": "George Eggink",
		"phone": "(519) 587-4124",
		"website": null
	},
	{
		"company": "Electric Avenue INc.",
		"link": "/member_directory/37020",
		"street": "56 Stephen Drive",
		"city": "Bolton, ON",
		"postCode": "L7E 4Y5",
		"contact": "Albert Cellini",
		"phone": "416-820-0597",
		"website": null
	},
	{
		"company": "Electrolux Canada Corp.",
		"link": "/member_directory/33365",
		"street": "5855 Terry Fox Way",
		"city": "Mississauga, ON",
		"postCode": "L5V 3E4",
		"contact": "Norm Budway",
		"phone": "1-800-668-4606",
		"website": "http://electrolux.ca"
	},
	{
		"company": "Elegance Marble & Granite Ltd.",
		"link": "/member_directory/34193",
		"street": "59 Milvan Dr. Unit B",
		"city": "Toronto, ON",
		"postCode": "M9L 1Y8",
		"contact": "Ehsan Zaeem",
		"phone": "(416) 913-5678",
		"website": "http://elegancegranite.ca"
	},
	{
		"company": "Elegant Solutions",
		"link": "/member_directory/36131",
		"street": "12 Sarjeant Dr.",
		"city": "Barrie, ON",
		"postCode": "L4 N 4V8",
		"contact": "Jamie Tostik",
		"phone": "(705) 797-0114",
		"website": "http://elegant-solutions.ca"
	},
	{
		"company": "Elegant Solutions",
		"link": "/member_directory/36675",
		"street": "12 Sarjeant Dr.",
		"city": "Barrie, ON",
		"postCode": "L4N 4V8",
		"contact": "Caitlin Fleming",
		"phone": "(705) 797-0114",
		"website": "http://elegant-solutions.ca"
	},
	{
		"company": "Elegant Solutions",
		"link": "/member_directory/36440",
		"street": "12 Sarjeant Dr.",
		"city": "Barrie, ON",
		"postCode": "L4N 4V8",
		"contact": "Samantha Forster",
		"phone": "(705) 797-0114",
		"website": "http://elegant-solutions.ca"
	},
	{
		"company": "Eleven Eleven Marketing Solutions",
		"link": "/member_directory/33835",
		"street": "1111 College St.",
		"city": "Toronto, ON",
		"postCode": "M6H 1B4",
		"contact": "Sam Lyons",
		"phone": "(647) 556-2787",
		"website": "http://1111sells.com"
	},
	{
		"company": "Elgin Carpet One",
		"link": "/member_directory/36509",
		"street": "1026 Talbot St.",
		"city": "St. Thomas, ON",
		"postCode": "N5P 1G3",
		"contact": "Rob Versteeg",
		"phone": "(519) 631-8428",
		"website": null
	},
	{
		"company": "Elgin Realty Ltd.",
		"link": "/member_directory/36496",
		"street": "527 Talbot St.",
		"city": "St. Thomas, ON",
		"postCode": "N5P 1C3",
		"contact": "Angela DeVries",
		"phone": "(519) 637-2300",
		"website": "http://elginrealty.ca"
	},
	{
		"company": "Elite Construction & Renovations",
		"link": "/member_directory/33603",
		"street": "64 Ferncroft Dr.",
		"city": "Toronto, ON",
		"postCode": "M1N 2X4",
		"contact": "Jay McDonald",
		"phone": "(416) 888-8417",
		"website": "http://elite-construction.ca"
	},
	{
		"company": "Elite Homes",
		"link": "/member_directory/36327",
		"street": "1708 Doris Crt.",
		"city": "Sarnia, ON",
		"postCode": "N7T 7H4",
		"contact": "Nelson Peters",
		"phone": "(519) 339-6743",
		"website": "http://elitehomessarnia.com"
	},
	{
		"company": "Elitrex Plumbing",
		"link": "/member_directory/34194",
		"street": "120 Sharer Rd.",
		"city": "Vaughan, ON",
		"postCode": "L4L 8P4",
		"contact": "Massimo Arduini",
		"phone": "(905) 264-7418",
		"website": null
	},
	{
		"company": "Elle & Co Construction Inc.",
		"link": "/member_directory/34195",
		"street": "600 The E. Mall P.O. Box 11548",
		"city": "Toronto, ON",
		"postCode": "M9B 4B1",
		"contact": "Elma Kucanin",
		"phone": "(416) 710-4419",
		"website": "http://ellecoinc.ca"
	},
	{
		"company": "Elm Development Corp.",
		"link": "/member_directory/32978",
		"street": "1931 Highway 7",
		"city": "Concord, ON",
		"postCode": "L4K 1V5",
		"contact": "Joseph Morano",
		"phone": "(905) 709-8232",
		"website": null
	},
	{
		"company": "Elte Ginger's Commerical Division",
		"link": "/member_directory/33366",
		"street": "80 Ronald Ave.",
		"city": "Toronto, ON",
		"postCode": "M6E 5A2",
		"contact": "Heidi Finch",
		"phone": "(416) 785-7885",
		"website": "http://elte.com"
	},
	{
		"company": "Embers",
		"link": "/member_directory/35651",
		"street": "63 N. St.",
		"city": "Perth, ON",
		"postCode": "K7H 2T1",
		"contact": "Ed Lehovich",
		"phone": "(613) 264-0878",
		"website": "http://embers.on.ca"
	},
	{
		"company": "EMC Group Ltd.",
		"link": "/member_directory/33836",
		"street": "7577 Keele St. Ste. 200",
		"city": "Vaughan, ON",
		"postCode": "L4K 4X3",
		"contact": "Mario Zuccaro",
		"phone": "(905) 738-3939",
		"website": "http://emcgroup.ca"
	},
	{
		"company": "EMC Ready Mix/ Sarnia Concrete Products",
		"link": "/member_directory/34416",
		"street": "800 Gillard St.",
		"city": "Wallaceburg, ON",
		"postCode": "N8A 4Z5",
		"contact": "Tom Workman",
		"phone": "(519) 627-1200",
		"website": null
	},
	{
		"company": "EMCO Corporation",
		"link": "/member_directory/34899",
		"street": "1680 Vimont Crt.",
		"city": "Ottawa, ON",
		"postCode": "K4A 3M3",
		"contact": "Adam Bennison",
		"phone": "(613) 824-5315",
		"website": "http://emcoottawa.com"
	},
	{
		"company": "EMCO Corporation",
		"link": "/member_directory/36510",
		"street": "944 Leathorne St.",
		"city": "London, ON",
		"postCode": "N5W 2C4",
		"contact": "Sarah Steele",
		"phone": "(519) 686-7340",
		"website": null
	},
	{
		"company": "EMCO Corporation",
		"link": "/member_directory/35826",
		"street": "944 Leathorne St.",
		"city": "London, ON",
		"postCode": "N5Z 3M5",
		"contact": "Sarah Steele",
		"phone": "(519) 686-7340",
		"website": "http://emcoltd.com"
	},
	{
		"company": "Emerald Homes Ltd.",
		"link": "/member_directory/36744",
		"street": "43 Pintail Dr.",
		"city": "Elmira, ON",
		"postCode": "N3B 3B8",
		"contact": "Richard Trapp",
		"phone": "(519) 669-4157",
		"website": "http://emeraldhomesltd.com"
	},
	{
		"company": "Emerald Kitchens & Design Inc.",
		"link": "/member_directory/35485",
		"street": "4265 Fairview St.",
		"city": "Burlington, ON",
		"postCode": "L7L 2A4",
		"contact": "Wayne Burgess",
		"phone": "(905) 634-9556",
		"website": "http://emeraldkitchens.ca"
	},
	{
		"company": "Emerald Tile and Marble Ltd.",
		"link": "/member_directory/34900",
		"street": "2878 Sheffield Rd.",
		"city": "Ottawa, ON",
		"postCode": "K1B 3V9",
		"contact": "Dave Campagna",
		"phone": "(613) 738-7841",
		"website": null
	},
	{
		"company": "Emery Investments",
		"link": "/member_directory/32979",
		"street": "620 Wilson Ave. Ste. 401",
		"city": "Toronto, ON",
		"postCode": "M3K 1Z3",
		"contact": "Mai Somermaa",
		"phone": "(416) 630-6927",
		"website": "http://emeryinvestments.com"
	},
	{
		"company": "Emmerson Lumber Ltd.",
		"link": "/member_directory/35267",
		"street": "Box 150",
		"city": "Haliburton, ON",
		"postCode": "K0M 1S0",
		"contact": "Kim Emmerson",
		"phone": "(705) 457-1550",
		"website": "http://emmersonlumber.com"
	},
	{
		"company": "Empire Communities",
		"link": "/member_directory/34332",
		"street": "123 Commerce Valley Dr. E.  8th Flr.",
		"city": "Thornhill, ON",
		"postCode": "L3T 7W7",
		"contact": "Jayne Smillie",
		"phone": "(905) 307-8102",
		"website": null
	},
	{
		"company": "Empire Communities",
		"link": "/member_directory/35916",
		"street": "125 Villarboit Cres.",
		"city": "Vaughan, ON",
		"postCode": "L4K 4K2",
		"contact": "Carrie Alexander",
		"phone": "(905) 307-8102",
		"website": "http://empirecommunities.com"
	},
	{
		"company": "Empire Communities",
		"link": "/member_directory/36745",
		"street": "125 Villarboit Cres",
		"city": "Vaughn, ON",
		"postCode": "L4K 4K2",
		"contact": "Daniel Guizzetti",
		"phone": "(905) 307-8102",
		"website": "http://empirecommunities.com"
	},
	{
		"company": "Empire Communities",
		"link": "/member_directory/34451",
		"street": "125 Villarboit Cres.",
		"city": "Vaughan, ON",
		"postCode": "L4K 4K2",
		"contact": "Carrie Alexander",
		"phone": "(905) 307-8102",
		"website": "http://empirecommunities.com"
	},
	{
		"company": "Empire Communities",
		"link": "/member_directory/32980",
		"street": "125 Villarboit Cres.",
		"city": "Vaughan, ON",
		"postCode": "L4K 4K2",
		"contact": "Paul Golini",
		"phone": "(905) 307-8102",
		"website": "http://empirecommunities.com"
	},
	{
		"company": "Empire Communities",
		"link": "/member_directory/35302",
		"street": "125 Villarboit Cres.",
		"city": "Vaughan, ON",
		"postCode": "L4K 4K2",
		"contact": "Carrie Alexander",
		"phone": "(905) 307-8102",
		"website": "http://empirecommunities.com"
	},
	{
		"company": "Enbridge Gas Distribution",
		"link": "/member_directory/35989",
		"street": "10 Churchill Drive",
		"city": "Barrie, ON",
		"postCode": "L4N 8Z5",
		"contact": "Dorothy Stewart",
		"phone": "705 739 5227",
		"website": null
	},
	{
		"company": "Enbridge Gas Distribution Inc.",
		"link": "/member_directory/36106",
		"street": "500 Consumers Rd.",
		"city": "North York, ON",
		"postCode": "M2J 1P8",
		"contact": "Don Armitage",
		"phone": "(705) 270-6255",
		"website": null
	},
	{
		"company": "Enbridge Gas Distribution Inc.",
		"link": "/member_directory/34622",
		"street": "1-498 Markland St",
		"city": "Markham, ON",
		"postCode": "L6C 1Z6",
		"contact": "Michelle Vestergaard",
		"phone": "(905) 887-4005",
		"website": "http://enbridge.com"
	},
	{
		"company": "Enbridge Gas Distribution Inc.",
		"link": "/member_directory/35646",
		"street": "400 Coventry Rd.",
		"city": "Ottawa, ON",
		"postCode": "K1K 2C7",
		"contact": "Natalie Armstrong",
		"phone": "(613) 747-4078",
		"website": null
	},
	{
		"company": "Enbridge Gas Distribution Inc.",
		"link": "/member_directory/34901",
		"street": "400 Coventry Rd.",
		"city": "Ottawa, ON",
		"postCode": "K1K 2C7",
		"contact": "Natalie Armstrong",
		"phone": "(613) 747-4078",
		"website": "http://wenbridgegas.com"
	},
	{
		"company": "Enbridge Gas Distribution Inc.",
		"link": "/member_directory/33367",
		"street": "500 Consumers Rd.",
		"city": "North York, ON",
		"postCode": "M2J 1P8",
		"contact": "Shannon Bertuzzi",
		"phone": "(416) 495-5800",
		"website": "http://enbridge.com/buildwithgas"
	},
	{
		"company": "Enbridge Gas Distribution Inc.",
		"link": "/member_directory/36441",
		"street": "10 Churchill Dr.",
		"city": "Barrie, ON",
		"postCode": "L4N 8Z5",
		"contact": "Dorothy Stewart",
		"phone": "(705) 739-5227",
		"website": null
	},
	{
		"company": "Enbridge Gas Distribution Inc.",
		"link": "/member_directory/36318",
		"street": "400 Coventry Rd.",
		"city": "Ottawa, ON",
		"postCode": "K1K 2C7",
		"contact": "Natalie Armstrong",
		"phone": "1-800-267-3616",
		"website": null
	},
	{
		"company": "Enbridge Gas Distribution Inc.",
		"link": "/member_directory/34555",
		"street": "P.O. Box 650",
		"city": "Scarborough, ON",
		"postCode": "M1K 5E3",
		"contact": "Scott Bullock",
		"phone": "(416) 495-5795",
		"website": "http://enbridge.com"
	},
	{
		"company": "Encore Flooring",
		"link": "/member_directory/34196",
		"street": "25 Pollard St.",
		"city": "Richmond Hill, ON",
		"postCode": "L4B 1A8",
		"contact": "Erin Lazer",
		"phone": "(905) 731-2300",
		"website": "http://encoreflooring.ca"
	},
	{
		"company": "End of the Roll",
		"link": "/member_directory/34429",
		"street": "635 St Clair St.",
		"city": "Chatham, ON",
		"postCode": "N7L 4G8",
		"contact": "Scott Macleod",
		"phone": "(519) 354-4000",
		"website": null
	},
	{
		"company": "Enerbuild Homes Inc.",
		"link": "/member_directory/36019",
		"street": "1407 Main St. N.",
		"city": "Callander, ON",
		"postCode": "P0H 1H0",
		"contact": "Matt Parfitt",
		"phone": "(705) 495-5175",
		"website": null
	},
	{
		"company": "Enercare ",
		"link": "/member_directory/36132",
		"street": "4000 Victoria Park Avenue",
		"city": "Toronto, ON",
		"postCode": "M2H 3P4",
		"contact": "Gord McCrady",
		"phone": "(613) 342-6500",
		"website": "http://enercare.com"
	},
	{
		"company": "Enercare",
		"link": "/member_directory/37158",
		"street": "80 Allstate Parkway",
		"city": "Markham, ON",
		"postCode": "L3R 6H3",
		"contact": "Rick Coker",
		"phone": "905 717 6264",
		"website": "http://enercare.ca"
	},
	{
		"company": "Enercare ",
		"link": "/member_directory/35627",
		"street": "1303 Lambton Lane",
		"city": "Elizabethtown, ON",
		"postCode": "K6V 7C6",
		"contact": "Gord McCrady",
		"phone": "1-866-205-5367",
		"website": "http://enercare.com"
	},
	{
		"company": "Enercare ",
		"link": "/member_directory/36929",
		"street": "583 Princess Ave",
		"city": "London, ON",
		"postCode": "N6B 2C1",
		"contact": "Travis Brown",
		"phone": "1-866-393-0057",
		"website": "http://enercare.com"
	},
	{
		"company": "Enercare  ",
		"link": "/member_directory/34635",
		"street": "80 Allstate Parkway",
		"city": "Markham, ON",
		"postCode": "L3R 6H3",
		"contact": "Laura Bonise",
		"phone": "(905) 844-5460",
		"website": "http://directenergy.com"
	},
	{
		"company": "Enercare  ",
		"link": "/member_directory/34902",
		"street": "80 Allstate Parkway",
		"city": "Markham, ON",
		"postCode": "L3R 6H3",
		"contact": "Linda Oliveri",
		"phone": "(613) 247-7470",
		"website": "http://enercare.com"
	},
	{
		"company": "Enercare ",
		"link": "/member_directory/33369",
		"street": "80 Allstate Parkway",
		"city": "Markham, ON",
		"postCode": "L3R 6H3",
		"contact": "Carole Solway",
		"phone": "(905) 943-6362",
		"website": "http://directenergy.com/builder"
	},
	{
		"company": "Enercare ",
		"link": "/member_directory/36442",
		"street": "80 Allstate Parkway",
		"city": "Markham, ON",
		"postCode": "L3R 6H3",
		"contact": "June Thomson",
		"phone": "1-855-294-1398",
		"website": null
	},
	{
		"company": "Enercare ",
		"link": "/member_directory/36247",
		"street": "80 Allstate Parkway",
		"city": "Markham, ON",
		"postCode": "L3R 6H3",
		"contact": "Gord McCrady",
		"phone": "613-803-7053",
		"website": "http://gprd.mccrady@enercare.ca"
	},
	{
		"company": "Enercare ",
		"link": "/member_directory/35486",
		"street": "80 Allstate Parkway",
		"city": "Markham, ON",
		"postCode": "L3R 6H3",
		"contact": "Laura Bonise",
		"phone": "(905) 844-5460",
		"website": "http://directenergy.com/builder"
	},
	{
		"company": "Enercare ",
		"link": "/member_directory/36511",
		"street": "80 Allstate Parkway",
		"city": "Markham, ON",
		"postCode": "L3R 6H3",
		"contact": "Travis Brown",
		"phone": "1-866-393-0057",
		"website": "http://directenergy.com"
	},
	{
		"company": "Enercare  ",
		"link": "/member_directory/36009",
		"street": "80 Allstate Parkway",
		"city": "Markham, ON",
		"postCode": "L3R 6H3",
		"contact": "Laura Bonise",
		"phone": "1-877-713-4778",
		"website": "http://directenergy.com"
	},
	{
		"company": "Enercare ",
		"link": "/member_directory/35827",
		"street": "51 Sloane Cres",
		"city": "London, ON",
		"postCode": "N6E 3A7",
		"contact": "Dennis Mortlock",
		"phone": "1-888-883-0133",
		"website": "http://enercare.com"
	},
	{
		"company": "Enercare ",
		"link": "/member_directory/34556",
		"street": "80 Allstate Parkway",
		"city": "Markham, ON",
		"postCode": "L3R 6H3",
		"contact": "June Thomson, Account Manager",
		"phone": "(905) 717-6264",
		"website": "http://enercare.com"
	},
	{
		"company": "EnerCare Connections Inc.",
		"link": "/member_directory/33368",
		"street": "4000 Victoria Park Ave.",
		"city": "Toronto, ON",
		"postCode": "M2H 3P4",
		"contact": "David Turk",
		"phone": "(416) 649-1900",
		"website": "http://enercare.ca"
	},
	{
		"company": "EnerQuality",
		"link": "/member_directory/33837",
		"street": "20 Upjohn Rd. Ste. 102",
		"city": "North York, ON",
		"postCode": "M3B 2V9",
		"contact": "Corey McBurney",
		"phone": "(416) 447-0077",
		"website": "http://enerquality.ca"
	},
	{
		"company": "Enertest Corporation",
		"link": "/member_directory/36420",
		"street": "149 Shannon St.",
		"city": "Orillia, ON",
		"postCode": "L3V1G3",
		"contact": "Wayne Rowbotham",
		"phone": "(705) 327-1504",
		"website": null
	},
	{
		"company": "ENG Plus Ltd.",
		"link": "/member_directory/35772",
		"street": "750 Baseline Rd. E., Suite 101",
		"city": "London, ON",
		"postCode": "N6C 2R5",
		"contact": "Ted Taylor",
		"phone": "(519) 438-6994",
		"website": "http://engplusltd.com"
	},
	{
		"company": "Engel Construction Inc.",
		"link": "/member_directory/34746",
		"street": "633 Melbourne Ave.",
		"city": "Ottawa, ON",
		"postCode": "K2A 1W9",
		"contact": "Rex Engel",
		"phone": "(613) 729-6730",
		"website": null
	},
	{
		"company": "Engine Advertising Inc.",
		"link": "/member_directory/33838",
		"street": "1244 Caledonia Rd.",
		"city": "Toronto, ON",
		"postCode": "M6A 2X5",
		"contact": "Jack Castellano",
		"phone": "(416) 548-7468",
		"website": "http://engineadvertising.com"
	},
	{
		"company": "Engineered Lighting Solutions",
		"link": "/member_directory/33839",
		"street": "2901 Steeles Ave. W. Unit 6",
		"city": "Toronto, ON",
		"postCode": "M3J 3A5",
		"contact": "Michael D&apos;Angelo",
		"phone": "(416) 736-9292",
		"website": null
	},
	{
		"company": "English Carpenter (The)",
		"link": "/member_directory/33604",
		"street": "146 Bernard Ave. Ste. 3",
		"city": "Toronto, ON",
		"postCode": "M5R 1S5",
		"contact": "Paul Collins",
		"phone": "(647) 269-3140",
		"website": "http://theenglishcarpenter.com"
	},
	{
		"company": "Englobe Corp",
		"link": "/member_directory/36852",
		"street": "353 Bridge St. E.",
		"city": "Kitchener, ON",
		"postCode": "N2K 2Y5",
		"contact": "Jeff Dietz",
		"phone": "(519) 741-1313",
		"website": "http://englobecorp.com"
	},
	{
		"company": "Enman Corporation Ltd.",
		"link": "/member_directory/35773",
		"street": "517 Fanshawe Park Rd W",
		"city": "London, ON",
		"postCode": "N6G 0C1",
		"contact": "Norman Brooks",
		"phone": "(519) 668-6200",
		"website": "http://resno.ca"
	},
	{
		"company": "Enmar Homes Inc",
		"link": "/member_directory/32981",
		"street": "2916 Dufferin St.",
		"city": "Toronto, ON",
		"postCode": "M6B 3S8",
		"contact": "Ennio Cancelli",
		"phone": "(647) 351-2221",
		"website": "http://enmarhomes.ca"
	},
	{
		"company": "Ennis General Carpentry Ltd.",
		"link": "/member_directory/35633",
		"street": "44 Hwy 511",
		"city": "Perth, ON",
		"postCode": "K7H 3C9",
		"contact": "Mike Purdon",
		"phone": "(613) 264-0208",
		"website": "http://enniscarpentryltd.com"
	},
	{
		"company": "Ensuite/Emco Guelph",
		"link": "/member_directory/35141",
		"street": "65 Dawson Rd Unit 3",
		"city": "Guelph, ON",
		"postCode": "N1H 1B1",
		"contact": "Tara Hotson",
		"phone": "(519) 837-3387",
		"website": null
	},
	{
		"company": "Entegrus",
		"link": "/member_directory/34417",
		"street": "P.O. Box 70, 320 Queen St.",
		"city": "Chatham, ON",
		"postCode": "N7M 5K2",
		"contact": "Jerry Meriano",
		"phone": "(519) 352-6300",
		"website": null
	},
	{
		"company": "EnviroCentre",
		"link": "/member_directory/34810",
		"street": "366 Rideau St.",
		"city": "Ottawa, ON",
		"postCode": "K1N 5Y8",
		"contact": "Erika Mayer",
		"phone": "(613) 656-0100",
		"website": "http://envirocentre.ca"
	},
	{
		"company": "Eplett Worobec Raikes Surveying Ltd.",
		"link": "/member_directory/36421",
		"street": "642 Welham Rd. Suite 102",
		"city": "Barrie, ON",
		"postCode": "L4N 9A1",
		"contact": "Dale Eplett",
		"phone": "(705) 722-6222",
		"website": null
	},
	{
		"company": "Epoch Times Media Inc.",
		"link": "/member_directory/33840",
		"street": "418 Consumers Rd.",
		"city": "Toronto, ON",
		"postCode": "M2J 1P8",
		"contact": "Leah Lan",
		"phone": "(416) 846-3699",
		"website": "http://epochtimes.com"
	},
	{
		"company": "eQ Homes Inc.",
		"link": "/member_directory/34671",
		"street": "1737 Woodward Dr., 2nd Floor",
		"city": "Ottawa, ON",
		"postCode": "K2C 0P9",
		"contact": "David Wallace",
		"phone": "(613) 288-0412",
		"website": "http://eqhomes.ca"
	},
	{
		"company": "Equinox Development Inc.",
		"link": "/member_directory/33605",
		"street": "49 Ontario St. Ste. 300",
		"city": "Toronto, ON",
		"postCode": "M5A 1M1",
		"contact": "Susan Hunter",
		"phone": "(416) 866-8966",
		"website": "http://equinoxdevelopment.ca"
	},
	{
		"company": "Equipco Ltd.",
		"link": "/member_directory/33370",
		"street": "6480 Viscount Rd. Unit 3",
		"city": "Mississauga, ON",
		"postCode": "L4V 1H3",
		"contact": "Mel Campbell",
		"phone": "(905) 612-1137",
		"website": "http://equipcoltd.com"
	},
	{
		"company": "Equity Plus Home Improvements",
		"link": "/member_directory/34993",
		"street": "100 Landmark Crt.",
		"city": "Kinburn, ON",
		"postCode": "K0A 2H0",
		"contact": "Dave Alexander",
		"phone": "(613) 839-2347",
		"website": "http://equity-plus.ca"
	},
	{
		"company": "Eric's Woodworking Custom Cabinets",
		"link": "/member_directory/37010",
		"street": "1-2929 Belisle Drive",
		"city": "Val Caron, ON",
		"postCode": "P3N 1B3",
		"contact": "Eric Boileau",
		"phone": "705 897 4455",
		"website": "http://ericswoodworking.com"
	},
	{
		"company": "Erin Mills Development Corp. The",
		"link": "/member_directory/32982",
		"street": "7501 Keele St. Ste. 500",
		"city": "Concord, ON",
		"postCode": "L4K 1Y2",
		"contact": "Randy Griffin",
		"phone": "(416) 736-1809",
		"website": null
	},
	{
		"company": "Erindale Painting & Decorating Inc.",
		"link": "/member_directory/34197",
		"street": "207 Edgeley Blvd. Ste. 27",
		"city": "Concord, ON",
		"postCode": "L4K 4B5",
		"contact": "Johnny Pellegrino",
		"phone": "(289) 588-1810",
		"website": "http://erindalepainting.ca"
	},
	{
		"company": "Ernst & Young LLP",
		"link": "/member_directory/33841",
		"street": "222 Bay St. 18th Flr.",
		"city": "Toronto, ON",
		"postCode": "M5K 1J7",
		"contact": "Alex Levin",
		"phone": "(416) 864-1234",
		"website": "http://ey.com"
	},
	{
		"company": "Espanola Home Hardware Building Centre",
		"link": "/member_directory/36676",
		"street": "830 Centre St.",
		"city": "Sudbury, ON",
		"postCode": "P5E 1S3",
		"contact": "Erik Carlson",
		"phone": "(705) 869-2130",
		"website": null
	},
	{
		"company": "Especially New Homes Inc.",
		"link": "/member_directory/36843",
		"street": "7-465 Phillip St.",
		"city": "Waterloo, ON",
		"postCode": "N2L 6C7",
		"contact": "Anne Scharf",
		"phone": "(519) 886-9797",
		"website": null
	},
	{
		"company": "Esquire Homes",
		"link": "/member_directory/34452",
		"street": "145 Royal Crest Crt. Unit 21",
		"city": "Markham, ON",
		"postCode": "L3R 9Z4",
		"contact": "Michael Delli-Benedetti",
		"phone": "(905) 415-1880",
		"website": "http://esquirehomes.ca"
	},
	{
		"company": "Esquire Homes Inc.",
		"link": "/member_directory/32983",
		"street": "145 Royal Crest Crt. Unit 20",
		"city": "Markham, ON",
		"postCode": "L3R 9Z4",
		"contact": "Michael Delli-Benedetti",
		"phone": "(905) 415-1880",
		"website": "http://esquirehomes.ca"
	},
	{
		"company": "Essroc Ready Mix",
		"link": "/member_directory/34372",
		"street": "P.O. Box 1030",
		"city": "Cambridge, ON",
		"postCode": "N1R 5Y2",
		"contact": "Georgina Fargiorgio",
		"phone": "(519) 623-1241",
		"website": null
	},
	{
		"company": "Esto Construction Co. Ltd.",
		"link": "/member_directory/33606",
		"street": "8130 Sheppard Ave. E. Ste. 210",
		"city": "Toronto, ON",
		"postCode": "M1B 3W3",
		"contact": "Paul Wilbiks",
		"phone": "(416) 752-3702",
		"website": "http://estoconstruction.ca"
	},
	{
		"company": "Etherington Designs",
		"link": "/member_directory/34198",
		"street": "335 Roehampton Ave.",
		"city": "Toronto, ON",
		"postCode": "M4P 1S3",
		"contact": "Ross Etherington",
		"phone": "(416) 567-8109",
		"website": "http://etheringtondesigns.ca"
	},
	{
		"company": "Ethier Sand & Gravel Ltd.",
		"link": "/member_directory/36677",
		"street": "2589 Ida St.",
		"city": "Sudbury, ON",
		"postCode": "P3E 4W9",
		"contact": "Dan Ethier",
		"phone": "(705) 522-6340",
		"website": "http://ethiersandandgravel.ca"
	},
	{
		"company": "Euro Tile & Stone",
		"link": "/member_directory/34903",
		"street": "3103 Hawthorne Rd.",
		"city": "Ottawa, ON",
		"postCode": "K1G 3V8",
		"contact": "Michael McElligott",
		"phone": "(613) 244-3773",
		"website": "http://eurotilestone.com"
	},
	{
		"company": "Eurodale Developments",
		"link": "/member_directory/33607",
		"street": "1122 Castlefield Ave.",
		"city": "Toronto, ON",
		"postCode": "M6B 1E9",
		"contact": "Brendan Charters",
		"phone": "(416) 782-5690",
		"website": "http://eurodale.ca"
	},
	{
		"company": "Eurofase Inc.",
		"link": "/member_directory/33371",
		"street": "33 W. Beaver Creek",
		"city": "Richmond Hill, ON",
		"postCode": "L4B 1L8",
		"contact": "Frank Di Matteo",
		"phone": "(905) 695-2055",
		"website": "http://eurofase.com"
	},
	{
		"company": "European Flooring Group",
		"link": "/member_directory/33372",
		"street": "920 Yonge St.",
		"city": "Toronto, ON",
		"postCode": "M4W 3C7",
		"contact": "Mehran Khayeri",
		"phone": "(416) 967-9200",
		"website": "http://europeanflooring.ca"
	},
	{
		"company": "Eurowood Carpentry",
		"link": "/member_directory/34199",
		"street": "140 Regina Rd. Unit 12",
		"city": "Vaughan, ON",
		"postCode": "L4L 8N1",
		"contact": "Carlos Silva",
		"phone": "(905) 265-9255",
		"website": "http://eurowoodcarpentry.ca"
	},
	{
		"company": "Evans Home Building Centre",
		"link": "/member_directory/36678",
		"street": "172 Pine St. P.O. Box 697",
		"city": "Sudbury, ON",
		"postCode": "P3E 4R8",
		"contact": "Jeremie Sally",
		"phone": "(705) 674-1921",
		"website": "http://evanshomebuildingcentre.ca"
	},
	{
		"company": "Evergreen Concepts Inc.",
		"link": "/member_directory/35662",
		"street": "2073 Drummond Conc 5B, R.R. #6",
		"city": "Perth, ON",
		"postCode": "K7H 3C8",
		"contact": "Pat Shank",
		"phone": "(613) 267-6721",
		"website": "http://evergreenconcepts.ca"
	},
	{
		"company": "Ewald Homes Ltd.",
		"link": "/member_directory/34399",
		"street": "78 Braemar",
		"city": "Chatham, ON",
		"postCode": "N7M 6K2",
		"contact": "Dave Ewald",
		"phone": "(519) 358-7023",
		"website": null
	},
	{
		"company": "exp",
		"link": "/member_directory/33842",
		"street": "1595 Clark Blvd.",
		"city": "Brampton, ON",
		"postCode": "L6T 1J5",
		"contact": "Jim Medcalf",
		"phone": "(905) 793-9800",
		"website": "http://exp.com"
	},
	{
		"company": "exp Services Inc.",
		"link": "/member_directory/34811",
		"street": "2650 Queensview Dr. Suite 100",
		"city": "Ottawa, ON",
		"postCode": "K2B 8H6",
		"contact": "Sean Czaharynski",
		"phone": "(613) 688-1899",
		"website": "http://exp.com"
	},
	{
		"company": "Expert Safety Solutions",
		"link": "/member_directory/34519",
		"street": "1028 Highbrooke Crt.",
		"city": "Oshawa, ON",
		"postCode": "L1K 2K6",
		"contact": "Rick Parsons",
		"phone": "(289) 928-3318",
		"website": "http://expertsafetysolutions.com"
	},
	{
		"company": "F.G.P. Holdings Limited",
		"link": "/member_directory/37113",
		"street": "102 Robert Street",
		"city": "Toronto, ON",
		"postCode": "M5S 2K3",
		"contact": "Kate Prevedello",
		"phone": "416-91-8677",
		"website": null
	},
	{
		"company": "Faas Construction Ltd.",
		"link": "/member_directory/34400",
		"street": "PO Box 639 148 Main St. W.",
		"city": "Ridgetown, ON",
		"postCode": "N0P 2C0",
		"contact": "Wayne Faas",
		"phone": "(519) 674-3979",
		"website": null
	},
	{
		"company": "Fabbian Homes Inc.",
		"link": "/member_directory/36746",
		"street": "660 Speedvale Ave. W., Suite 300",
		"city": "Guelph, ON",
		"postCode": "N1K 1E5",
		"contact": "Jason Fabbian",
		"phone": "(519) 824-0789",
		"website": "http://fabbianhomes.ca"
	},
	{
		"company": "Fabbri Tile & Carpet Inc.",
		"link": "/member_directory/36344",
		"street": "520 Helena St.",
		"city": "Pt. Edward, ON",
		"postCode": "N7V 1R9",
		"contact": "Dave Fabbri",
		"phone": "(519) 337-7589",
		"website": null
	},
	{
		"company": "Fairglen Homes Ltd.",
		"link": "/member_directory/32984",
		"street": "10148 Warden Ave.",
		"city": "Markham, ON",
		"postCode": "L6C 1N3",
		"contact": "John Perciasepe",
		"phone": "(905) 887-4818",
		"website": "http://fairglenhomes.com"
	},
	{
		"company": "Fairhall Moffatt & Woodland Ltd.",
		"link": "/member_directory/34812",
		"street": "100-600 Terry Fox Dr.",
		"city": "Ottawa, ON",
		"postCode": "K2L 4B6",
		"contact": "Garry Kingsley",
		"phone": "(613) 591-2580",
		"website": "http://fmw.on.ca"
	},
	{
		"company": "Fairmont Properties Ltd.",
		"link": "/member_directory/33608",
		"street": "9 Industrial Parkway S. Unit 3",
		"city": "Aurora, ON",
		"postCode": "L4G 3V9",
		"contact": "John Emery",
		"phone": "(905) 841-6161",
		"website": "http://fairmontproperties.ca"
	},
	{
		"company": "Fairpark Homes Ltd.",
		"link": "/member_directory/32985",
		"street": "P.O. Box 370",
		"city": "Stouffville, ON",
		"postCode": "L4A 7Z6",
		"contact": "Emilio Ronco",
		"phone": "(905) 642-1600",
		"website": "http://fairgatehomes.com"
	},
	{
		"company": "Fairside Homes and Renovations Ltd.",
		"link": "/member_directory/33609",
		"street": "16 Drake Cres.",
		"city": "Toronto, ON",
		"postCode": "M1M 1A2",
		"contact": "Jon-Carlos Tsilfidis",
		"phone": "(416) 721-2224",
		"website": "http://fairsidehomes.com"
	},
	{
		"company": "Fairway Estates",
		"link": "/member_directory/35175",
		"street": "325 A W. St.",
		"city": "Brantford, ON",
		"postCode": "N3T^ 6H3",
		"contact": "Patrick Luciani",
		"phone": "(519) 871-0908",
		"website": null
	},
	{
		"company": "Family Home Improvements",
		"link": "/member_directory/36962",
		"street": "2744 Jefferson Blvd.",
		"city": "Windsor, ON",
		"postCode": "N8T 3C7",
		"contact": "Michael Godwin",
		"phone": "(519) 945-3000",
		"website": "http://renovationcanada.com"
	},
	{
		"company": "Famme & Company Professional Corporation",
		"link": "/member_directory/36555",
		"street": "125 Ontario St.",
		"city": "Stratford, ON",
		"postCode": "N5A 3H1",
		"contact": "Cory Williamson",
		"phone": "(519) 271-7581",
		"website": null
	},
	{
		"company": "Fandor Homes Inc.",
		"link": "/member_directory/32986",
		"street": "68 Romina Dr.",
		"city": "Concord, ON",
		"postCode": "L4K 4Z7",
		"contact": "Frank Dell&apos;Elce",
		"phone": "(905) 669-5820",
		"website": "http://fandorhomes.com"
	},
	{
		"company": "Fanshawe College",
		"link": "/member_directory/35774",
		"street": "1001 Fanshawe College Blvd.",
		"city": "London, ON",
		"postCode": "N5Y 5R6",
		"contact": "Steve Gedies",
		"phone": "(519) 452-4430",
		"website": "http://fanshawec.ca"
	},
	{
		"company": "Farnsworth Construction Ltd.",
		"link": "/member_directory/36173",
		"street": "P.O. Box 88",
		"city": "Stirling, ON",
		"postCode": "K0K 3E0",
		"contact": "Andrew Gunning",
		"phone": "(613) 395-2636",
		"website": "http://farconltd.com"
	},
	{
		"company": "FarSight Homes",
		"link": "/member_directory/36391",
		"street": "117 Ringwood Dr, Unit 18",
		"city": "Stouffville, ON",
		"postCode": "L4A 8C1",
		"contact": "Robert Schickedanz",
		"phone": "(905) 642-8383",
		"website": null
	},
	{
		"company": "Fashionable Interiors",
		"link": "/member_directory/36202",
		"street": "81 Egdehill Rd.",
		"city": "Belleville, ON",
		"postCode": "K8N 5J4",
		"contact": "Heather McColl",
		"phone": "(613) 962-4977",
		"website": null
	},
	{
		"company": "Fasken Martineau DuMoulin LLP",
		"link": "/member_directory/33843",
		"street": "333 Bay St. Ste. 2400, Bay Adelaide Centre, Bo",
		"city": "Toronto, ON",
		"postCode": "M5H 2T6",
		"contact": "Paul King",
		"phone": "(416) 868-3419",
		"website": "http://fasken.com"
	},
	{
		"company": "Fastform Insulated Concrete Forms",
		"link": "/member_directory/33373",
		"street": "P.O. Box 68",
		"city": "Orangeville, ON",
		"postCode": "L9W 2Z5",
		"contact": "Archie Duiker",
		"phone": "1-877-351-5603",
		"website": "http://fastform.ca"
	},
	{
		"company": "FBA/Lafarge Canada Inc.",
		"link": "/member_directory/34592",
		"street": "Sales Rep. E. GTA 205 Riviera Drive, Ste. 1",
		"city": "Markham, ON",
		"postCode": "L3R 5J8",
		"contact": "Andrea McChesney",
		"phone": "(647) 389-4556",
		"website": "http://lafarge.com"
	},
	{
		"company": "FCI Window Products",
		"link": "/member_directory/36133",
		"street": "585 Neal Dr.",
		"city": "Peterborough, ON",
		"postCode": "K9J 6X7",
		"contact": "Jamie Stringer",
		"phone": "(705) 742-3051",
		"website": null
	},
	{
		"company": "FCI Windows Inc.",
		"link": "/member_directory/34557",
		"street": "11 Taunton Rd. W.",
		"city": "Oshawa, ON",
		"postCode": "L1G 7B4",
		"contact": "Jamie Stringer Taylor Stringer",
		"phone": "(905) 434-7350",
		"website": "http://fciwindows.com"
	},
	{
		"company": "Federal Elevator Systems Inc.",
		"link": "/member_directory/33374",
		"street": "1090 Lorimar Dr.",
		"city": "Mississauga, ON",
		"postCode": "L5S 2A1",
		"contact": "Florence Facchini",
		"phone": "(905) 458-4015",
		"website": "http://federalelevator.com"
	},
	{
		"company": "Federated Insurance",
		"link": "/member_directory/36107",
		"street": "710-5770 Hurontario St.",
		"city": "Mississauga, ON",
		"postCode": "L5R 3G5",
		"contact": "George Hurst",
		"phone": "1-800-387-5953",
		"website": null
	},
	{
		"company": "Federated Insurance ",
		"link": "/member_directory/35117",
		"street": "710-5770 Hurontario St.",
		"city": "Mississauga, ON",
		"postCode": "L5R 3G5",
		"contact": "Che Guerrera",
		"phone": "(905) 507-2777",
		"website": null
	},
	{
		"company": "Federated Insurance ",
		"link": "/member_directory/33844",
		"street": "5770 Hurontario St. Ste. 710",
		"city": "Mississauga, ON",
		"postCode": "L5R 3G5",
		"contact": "Jean Tolfo",
		"phone": "(905) 507-2777",
		"website": "http://federated.ca"
	},
	{
		"company": "Federated Insurance",
		"link": "/member_directory/37178",
		"street": "1035 Woodhaven Drive",
		"city": "Kingston, ON",
		"postCode": "K7P 0H7",
		"contact": "Craig Green",
		"phone": "613 893 1851",
		"website": null
	},
	{
		"company": "Federated Insurance ",
		"link": "/member_directory/36422",
		"street": "650 Harvie Settlement Rd",
		"city": "Orillia, ON",
		"postCode": "L3V 6H2",
		"contact": "Shawn Nugent",
		"phone": "(705) 325-5061",
		"website": null
	},
	{
		"company": "Federated Insurance ",
		"link": "/member_directory/35967",
		"street": "P.O. Box 889",
		"city": "Niagara-on-the-Lake, ON",
		"postCode": "L0S 1J0",
		"contact": "Rocco Marchese",
		"phone": "(905) 468-1795",
		"website": "http://federated.ca"
	},
	{
		"company": "Federated Insurance ",
		"link": "/member_directory/35262",
		"street": "650 Harvie Settlement Rd.",
		"city": "Orillia, ON",
		"postCode": "L3V 6H2",
		"contact": "Shawn Nugent",
		"phone": "(705) 325-5061",
		"website": "http://federated.ca"
	},
	{
		"company": "Federated Insurance ",
		"link": "/member_directory/35775",
		"street": "200-735 Wonderland Rd. N.",
		"city": "London, ON",
		"postCode": "N6H 4L1",
		"contact": "Matthew Gowdy",
		"phone": "(519) 473-5610",
		"website": "http://federated.ca"
	},
	{
		"company": "Federated Insurance ",
		"link": "/member_directory/34520",
		"street": "c/o 221 Iris Crt.",
		"city": "Oshawa, ON",
		"postCode": "L1G 7M1",
		"contact": "George Hurst",
		"phone": "1-800-387-5953",
		"website": "http://federated.ca"
	},
	{
		"company": "Feeney Design Build",
		"link": "/member_directory/36528",
		"street": "274 Sunset Dr.,",
		"city": "Mitchell, ON",
		"postCode": "N0K 1N0",
		"contact": "Matt Feeney",
		"phone": "(519) 301-1502",
		"website": null
	},
	{
		"company": "Feltz Design Build Ltd",
		"link": "/member_directory/37107",
		"street": "PO Box 977",
		"city": "Stratford, ON",
		"postCode": "N5A 7M3",
		"contact": "Roger Feltz",
		"phone": "519-273-1989",
		"website": "http://roger@feltz.ca"
	},
	{
		"company": "Ferguson Plumbing & Heating (1843582 ON Ltd.)",
		"link": "/member_directory/34322",
		"street": "145 Huron Rd.",
		"city": "Goderich, ON",
		"postCode": "N7A 2Z7",
		"contact": "Nathan Ferguson",
		"phone": "(519) 524-5968",
		"website": null
	},
	{
		"company": "Fernview Construction Ltd.",
		"link": "/member_directory/34593",
		"street": "P.O. Box 33",
		"city": "Bolton, ON",
		"postCode": "L7E 5T1",
		"contact": "Fernando Velocci",
		"phone": "(905) 794-0132",
		"website": null
	},
	{
		"company": "Fernwood Builders",
		"link": "/member_directory/36946",
		"street": "1558 County Rd. 31, Box 70",
		"city": "St. Joachim, ON",
		"postCode": "N0R 1S0",
		"contact": "Steve Shore",
		"phone": "(519) 973-6420",
		"website": "http://fernwoodbuilders.com"
	},
	{
		"company": "Ferrell Brick & Stone",
		"link": "/member_directory/36893",
		"street": "57 Schaefer St.",
		"city": "Waterloo, ON",
		"postCode": "N2L 4C4",
		"contact": "Colin Roy",
		"phone": "(519) 884-0861",
		"website": "http://ferrellbrick.com"
	},
	{
		"company": "Ferrell Brick & Stone",
		"link": "/member_directory/36512",
		"street": "5735 Colonel Talbot Rd.",
		"city": "London, ON",
		"postCode": "N6P 1R2",
		"contact": "Ron White",
		"phone": "(519) 765-2555",
		"website": null
	},
	{
		"company": "Ferrell Brick & Stone",
		"link": "/member_directory/35828",
		"street": "5735 Colonel Talbot Rd.",
		"city": "London, ON",
		"postCode": "N6P 1J2",
		"contact": "Graham Mellor",
		"phone": "(519) 652-2799",
		"website": "http://ferrellbrick.com"
	},
	{
		"company": "Ferrell Builders Supplies Ltd.",
		"link": "/member_directory/35487",
		"street": "1549 Rymal Rd. E.",
		"city": "Hamilton, ON",
		"postCode": "L8W 3N2",
		"contact": "Peter Cicchi",
		"phone": "(905) 387-1948",
		"website": "http://ferrellbrick.com"
	},
	{
		"company": "Ferrell Building Supplies - Fonthill",
		"link": "/member_directory/35990",
		"street": "2560 Hwy 20 E.",
		"city": "Fonthill, ON",
		"postCode": "L0S 1E6",
		"contact": "Frank Masotti",
		"phone": "(905) 892-2694",
		"website": "http://ferrellbrick.com"
	},
	{
		"company": "Ferris Rafauli - Architectural Design Build Group",
		"link": "/member_directory/32987",
		"street": "1540 Cornwall Rd. Ste. 200",
		"city": "Oakville, ON",
		"postCode": "L6J 7W5",
		"contact": "Brad Rafauli",
		"phone": "(905) 845-3733",
		"website": "http://grandeur.ca"
	},
	{
		"company": "Fibron Insulations Inc.",
		"link": "/member_directory/36707",
		"street": "2018 The Kingsway, Unit E",
		"city": "Sudbury, ON",
		"postCode": "P3B 4J8",
		"contact": "Brad Shaw",
		"phone": "(705) 566-4912",
		"website": "http://fibron.ca"
	},
	{
		"company": "Fieldgate Construction Management Ltd.",
		"link": "/member_directory/37119",
		"street": "5400 Yonge St. Suite 401",
		"city": "Toronto, ON",
		"postCode": "M2N 5R5",
		"contact": "Ezra Jakubovic",
		"phone": null,
		"website": null
	},
	{
		"company": "Fieldgate Development & Construction",
		"link": "/member_directory/32988",
		"street": "5400 Yonge St. Second Flr.",
		"city": "Toronto, ON",
		"postCode": "M2N 5R5",
		"contact": "Thomas Kohn",
		"phone": "(416) 227-2220",
		"website": "http://fieldgatehomes.com"
	},
	{
		"company": "Fifth Wall (The)",
		"link": "/member_directory/33610",
		"street": "58 Shaftesbury Ave.",
		"city": "Toronto, ON",
		"postCode": "M4T 1A3",
		"contact": "Maurice Fuoco",
		"phone": "(416) 509-5512",
		"website": "http://thefifthwall.ca"
	},
	{
		"company": "Fifthshire Homes Ltd.",
		"link": "/member_directory/32989",
		"street": "241 Applewood Cres. Unit 3",
		"city": "Concord, ON",
		"postCode": "L4K 4E6",
		"contact": "Michelina Di Carlo",
		"phone": "(905) 660-7415",
		"website": "http://fifthshire.com"
	},
	{
		"company": "Figure3",
		"link": "/member_directory/33845",
		"street": "200 University Ave. Ste. 200",
		"city": "Toronto, ON",
		"postCode": "M5H 3C6",
		"contact": "Suzanne Bettencourt",
		"phone": "(416) 363-6993",
		"website": "http://figure3.com"
	},
	{
		"company": "Financially Sound Inc.",
		"link": "/member_directory/34813",
		"street": "210 - 600 Terry Fox Dr.",
		"city": "Kanata, ON",
		"postCode": "K2L 4B6",
		"contact": "Richard Yasinski",
		"phone": "(613) 271-9994",
		"website": "http://financiallysound.ca"
	},
	{
		"company": "Fine Home Design",
		"link": "/member_directory/35684",
		"street": "367 Edgeworth Ave.",
		"city": "London, ON",
		"postCode": "N5W 2W6",
		"contact": "Peter Drankowsky",
		"phone": "(519) 659-2004",
		"website": "http://finehomedesign.ca"
	},
	{
		"company": "Fine Spaces Construction Inc.",
		"link": "/member_directory/34747",
		"street": "564 Denbury Ave.",
		"city": "Ottawa, ON",
		"postCode": "K2A 2N9",
		"contact": "Brian Drury",
		"phone": "(613) 978-3463",
		"website": "http://finespaces.ca"
	},
	{
		"company": "Fineline Perspectives",
		"link": "/member_directory/37033",
		"street": "203-329 March Road",
		"city": "Ottawa, ON",
		"postCode": "K2K 2E1",
		"contact": "Chris CanPopta",
		"phone": "613-519-1442",
		"website": null
	},
	{
		"company": "Finnegan - Marshall Inc.",
		"link": "/member_directory/33846",
		"street": "10 Price St. Ste. 201",
		"city": "Toronto, ON",
		"postCode": "M4W 1Z4",
		"contact": "Niall Finnegan",
		"phone": "(416) 270-9109",
		"website": "http://finneganmarshall.com"
	},
	{
		"company": "Finoro Homes Ltd.",
		"link": "/member_directory/35081",
		"street": "66 Arrow Rd., Unit 6",
		"city": "Guelph, ON",
		"postCode": "N1K 1T4",
		"contact": "Danny Finoro",
		"phone": "(519) 824-2961",
		"website": null
	},
	{
		"company": "Finoro Homes Ltd.",
		"link": "/member_directory/36747",
		"street": "66 Arrow Rd., Unit 6",
		"city": "Guelph, ON",
		"postCode": "N1K 1T4",
		"contact": "Danny Finoro",
		"phone": "(519) 824-2961",
		"website": "http://finorohomes.ca"
	},
	{
		"company": "Fireplace Center & Patio Shop",
		"link": "/member_directory/34994",
		"street": "1722 Carling Ave",
		"city": "Ottawa, ON",
		"postCode": "K2A 1C7",
		"contact": "Andy Cotnam",
		"phone": "(613) 728-7037",
		"website": "http://fireplacecenter.com"
	},
	{
		"company": "Fireplaces Specialities",
		"link": "/member_directory/36273",
		"street": "773 Bell Blvd.",
		"city": "Belleville, ON",
		"postCode": "K8N 4Z5",
		"contact": "Sam Osborne",
		"phone": "(613) 969-6699",
		"website": "http://fireplacespecialties.ca"
	},
	{
		"company": "Firm Capital",
		"link": "/member_directory/34814",
		"street": "163 CARTWRIGHT Ave.",
		"city": "Toronto, ON",
		"postCode": "M6A 1V5",
		"contact": "Michael Carragher",
		"phone": "(416) 635-0221",
		"website": "http://firmcapital.com"
	},
	{
		"company": "Firm Capital Corporation",
		"link": "/member_directory/36793",
		"street": "1244 Caledonia Rd.",
		"city": "Toronto, ON",
		"postCode": "M6A 2X5",
		"contact": "Michael Carragher",
		"phone": "(416) 635-0221",
		"website": "http://firmcapital.com"
	},
	{
		"company": "Firm Capital Corporation",
		"link": "/member_directory/33263",
		"street": "163 Cartwright Ave.",
		"city": "Toronto, ON",
		"postCode": "M6A 1V5",
		"contact": "Michael Carragher",
		"phone": "(416) 635-0221",
		"website": "http://firmcapital.com"
	},
	{
		"company": "Firon Roofing",
		"link": "/member_directory/37004",
		"street": "7508 Dawn Tara Drive",
		"city": "Ottawa, ON",
		"postCode": "K4P 1R8",
		"contact": "Micheal Montane",
		"phone": "613-897-7712",
		"website": "http://fironroofing.ca"
	},
	{
		"company": "First Aid by Paramedics Inc.",
		"link": "/member_directory/34815",
		"street": "1 Links Dr.",
		"city": "Ashton, ON",
		"postCode": "K0A 1B0",
		"contact": "Tim O&apos;Neill",
		"phone": "1-855-277-2331",
		"website": "http://firstaidbyparamedics.com"
	},
	{
		"company": "First Avenue Properties",
		"link": "/member_directory/32990",
		"street": "5451 Highway 7 Ste. 200",
		"city": "Woodbridge, ON",
		"postCode": "L4L 0B2",
		"contact": "Jack Morelli",
		"phone": "(905) 856-3031",
		"website": "http://firstavenue.ca"
	},
	{
		"company": "First Family Homes Inc.",
		"link": "/member_directory/34401",
		"street": "10968 River Line R.R. #4",
		"city": "Chatham, ON",
		"postCode": "N7M 5J4",
		"contact": "Ed Regts",
		"phone": "(519) 351-8722",
		"website": null
	},
	{
		"company": "First Nations National Building Officers Association",
		"link": "/member_directory/34816",
		"street": "Box 219, Old Hwy 2",
		"city": "Shannonville, ON",
		"postCode": "K0K 3A0",
		"contact": "Keith Maracle",
		"phone": "(519) 672-4889",
		"website": "http://fnnboa.ca"
	},
	{
		"company": "FirstService Residential Ontario",
		"link": "/member_directory/33847",
		"street": "89 Skyway Ave. Ste. 200",
		"city": "Toronto, ON",
		"postCode": "M9W 6R4",
		"contact": "Tasso Eracles",
		"phone": "(416) 847-3777",
		"website": "http://fsresidential.com"
	},
	{
		"company": "Firstview Homes",
		"link": "/member_directory/32991",
		"street": "81 Zenway Blvd. Unit 14",
		"city": "Woodbridge, ON",
		"postCode": "L4H 0S5",
		"contact": "Antonio Giannace",
		"phone": "(905) 850-0022",
		"website": "http://firstview.ca"
	},
	{
		"company": "Fisher & Paykel Appliances Canada",
		"link": "/member_directory/33375",
		"street": "6900 Airport Rd. Ste. 207",
		"city": "Mississauga, ON",
		"postCode": "L4V 1E6",
		"contact": "Denise Turner",
		"phone": "(416) 300-3233",
		"website": "http://fisherpaykel.ca"
	},
	{
		"company": "Fisher & Paykel Appliances Canada",
		"link": "/member_directory/35488",
		"street": "6900 Airport Rd.",
		"city": "Mississauga, ON",
		"postCode": "L4V 1E6",
		"contact": "Denise Turner",
		"phone": "(416) 300-3233",
		"website": "http://fisherpaykel.com"
	},
	{
		"company": "Fisher & Paykel Appliances Canada",
		"link": "/member_directory/35489",
		"street": "6900 Airport Rd.",
		"city": "Mississauga, ON",
		"postCode": "L4V 1E6",
		"contact": "Denise Turner",
		"phone": "(416) 300-3233",
		"website": "http://fisherpaykel.com"
	},
	{
		"company": "Fisher Glass & Mirror Ltd.",
		"link": "/member_directory/34313",
		"street": "224 Sincoast Dr.",
		"city": "Goderich, ON",
		"postCode": "N7A 4K4",
		"contact": "Brent Daw",
		"phone": "(519) 524-7312",
		"website": null
	},
	{
		"company": "Fisher-Wavy Inc.",
		"link": "/member_directory/36679",
		"street": "1297 Kelly Lake Rd.",
		"city": "Sudbury, ON",
		"postCode": "P0M 1N0",
		"contact": "Bryan Dixon",
		"phone": "(705) 674-3226",
		"website": "http://fisher-wavy.com"
	},
	{
		"company": "Fiume Brothers Custom Homes Ltd.",
		"link": "/member_directory/34453",
		"street": "149 Baldwin Crt.",
		"city": "Oshawa, ON",
		"postCode": "L1H 6H2",
		"contact": "Victor Fiume",
		"phone": "(289) 240-5800",
		"website": "http://fiumecustomhomes.com"
	},
	{
		"company": "Flanagan, Beresford & Patteson, Architects",
		"link": "/member_directory/33848",
		"street": "70 Silton Rd. Unit 1",
		"city": "Woodbridge, ON",
		"postCode": "L4L 8B9",
		"contact": "W. Mark Patteson",
		"phone": "(905) 265-2688",
		"website": null
	},
	{
		"company": "Flato Developments Inc.",
		"link": "/member_directory/32992",
		"street": "3621 Highway 7 E. Ste. 503",
		"city": "Markham, ON",
		"postCode": "L3R 0G6",
		"contact": "Shakir Rehmatullah",
		"phone": "(905) 479-9292",
		"website": "http://flatogroup.com"
	},
	{
		"company": "Fleming College",
		"link": "/member_directory/36108",
		"street": "599 Brealey Dr.",
		"city": "Peterborough, ON",
		"postCode": "K9J 7B1",
		"contact": "Scott Fleming",
		"phone": "(705) 749-5530",
		"website": "http://flemingcollege.ca"
	},
	{
		"company": "Floor Trends",
		"link": "/member_directory/36248",
		"street": "50 Vermilyea Rd.",
		"city": "Belleville, ON",
		"postCode": "K8N 4Z5",
		"contact": "Patrick Kinlin",
		"phone": "(613) 966-4238",
		"website": null
	},
	{
		"company": "FloorBasics",
		"link": "/member_directory/33376",
		"street": "5800 Ambler Dr. Ste. 210",
		"city": "Mississauga, ON",
		"postCode": "L4W 4J4",
		"contact": "Tom Giancani",
		"phone": "(416) 389-5558",
		"website": "http://floorbasics.com"
	},
	{
		"company": "Floorbasics",
		"link": "/member_directory/34558",
		"street": "5800 Ambler Dr Ste 210",
		"city": "Mississauga, ON",
		"postCode": "L4N 4J4",
		"contact": "Corette Stevens",
		"phone": "(647) 467-2846",
		"website": "http://floorbasics.com"
	},
	{
		"company": "Flooring Canada",
		"link": "/member_directory/35215",
		"street": "421 Queensway W.",
		"city": "Simcoe, ON",
		"postCode": "N3Y 2N4",
		"contact": "Andrew Mayo",
		"phone": "(519) 426-3255",
		"website": null
	},
	{
		"company": "Flooring Creations",
		"link": "/member_directory/36049",
		"street": "450 Springbank Ave. S.",
		"city": "Woodstock, ON",
		"postCode": "N4V 1B2",
		"contact": "Warren Harper",
		"phone": "(519) 421-3355",
		"website": null
	},
	{
		"company": "Flora DiMenna Designs Inc.",
		"link": "/member_directory/33849",
		"street": "40 Snidercroft Rd. Ste. 3",
		"city": "Vaughan, ON",
		"postCode": "L4K 0B5",
		"contact": "Flora DiMenna",
		"phone": "(905) 709-2077",
		"website": "http://fdmdesigns.com"
	},
	{
		"company": "Florence  Stairs & Railings Inc.",
		"link": "/member_directory/33377",
		"street": "83 Nuggett Crt.",
		"city": "Brampton, ON",
		"postCode": "L6T 5H2",
		"contact": "Dario Pajtak",
		"phone": "(416) 601-9000",
		"website": "http://florencerailings.com"
	},
	{
		"company": "FLUX Lighting Inc",
		"link": "/member_directory/37035",
		"street": "102-14 Bexley Place",
		"city": "Ottawa, ON",
		"postCode": "K2H 8W2",
		"contact": "Jeff Fitch",
		"phone": "613-592-9948",
		"website": null
	},
	{
		"company": "Flynn Architect Inc.",
		"link": "/member_directory/34817",
		"street": "1134 Bank St.",
		"city": "Ottawa, ON",
		"postCode": "K1S 3X6",
		"contact": "Jason Flynn",
		"phone": "(613) 299-8505",
		"website": "http://flynnarchitect.com"
	},
	{
		"company": "FM Audio Video",
		"link": "/member_directory/34373",
		"street": "213 King George Rd.",
		"city": "Brantford, ON",
		"postCode": "N3R 6S8",
		"contact": "Greg Forrest",
		"phone": "(519) 753-7006",
		"website": null
	},
	{
		"company": "FM Audio Video",
		"link": "/member_directory/35216",
		"street": "213 King George Rd.",
		"city": "Brantford, ON",
		"postCode": "N3R 6S8",
		"contact": "Geoff Forrest",
		"phone": "(519) 753-7006",
		"website": null
	},
	{
		"company": "Foamit.ca Spray Foam & Blown-In Insulation",
		"link": "/member_directory/34200",
		"street": "7310 Torbram Rd. Unit 1C",
		"city": "Mississauga, ON",
		"postCode": "L4T 3X2",
		"contact": "Muhammed Alibashev",
		"phone": "(416) 893-8712",
		"website": "http://foamit.ca"
	},
	{
		"company": "Foley Group (The)",
		"link": "/member_directory/34454",
		"street": "319 College Ave., P.O. Box 11",
		"city": "Oshawa, ON",
		"postCode": "L1H 7K8",
		"contact": "Mike Foley",
		"phone": "(905) 723-1191",
		"website": "http://woodlanddurham.com"
	},
	{
		"company": "Fontana Homes Ltd.",
		"link": "/member_directory/35303",
		"street": "32 Liuna Ct.",
		"city": "Stoney Creek, ON",
		"postCode": "L8E 5Z1",
		"contact": "Victor Fontana",
		"phone": "(905) 643-0730",
		"website": null
	},
	{
		"company": "Fonthill Lumber & Trusses",
		"link": "/member_directory/35959",
		"street": "105 Regional Rd. 20 E.",
		"city": "Fonthill, ON",
		"postCode": "L0S 1E0",
		"contact": "Jeff Carruthers",
		"phone": "(905) 892-2641",
		"website": null
	},
	{
		"company": "Foremont Drywall Contracting",
		"link": "/member_directory/34201",
		"street": "495 Deerhurst Dr.",
		"city": "Brampton, ON",
		"postCode": "L6T 5K3",
		"contact": "Paul Montagner",
		"phone": "(905) 792-2718",
		"website": null
	},
	{
		"company": "Foremost Financial Corporation",
		"link": "/member_directory/33264",
		"street": "26 Lesmill Rd. Unit 1B",
		"city": "Toronto, ON",
		"postCode": "M3B 2T5",
		"contact": "Paul Rayment",
		"phone": "(416) 488-5300",
		"website": "http://foremost-financial.com"
	},
	{
		"company": "Forest City Forming Ltd.",
		"link": "/member_directory/35896",
		"street": "2940 Dingman Dr.",
		"city": "London, ON",
		"postCode": "N6N 1G4",
		"contact": "Leo Simas",
		"phone": "(519) 455-4116",
		"website": null
	},
	{
		"company": "Forest Green Homes",
		"link": "/member_directory/32993",
		"street": "5332 Highway 7 2nd Flr.",
		"city": "Woodbridge, ON",
		"postCode": "L4L 1T3",
		"contact": "Michael Frustaglio",
		"phone": "(905) 850-8500",
		"website": "http://fgh.net"
	}
]