[
	{
		"company": "Forest Hill Homes Ltd.",
		"link": "/member_directory/32994",
		"street": "2700 Dufferin St. Unit 34",
		"city": "Toronto, ON",
		"postCode": "M6B 4J3",
		"contact": "Ian Zagdanski",
		"phone": "(416) 787-0256",
		"website": "http://foresthillhomes.ca"
	},
	{
		"company": "Forest Park Homes",
		"link": "/member_directory/35917",
		"street": "71 Schneller Dr.",
		"city": "Baden, ON",
		"postCode": "N3A 2L5",
		"contact": "Gus Morschauser",
		"phone": "(519) 634-9996",
		"website": "http://forestparkhomes.ca"
	},
	{
		"company": "Forest Park Homes",
		"link": "/member_directory/35685",
		"street": "71 Schneller Dr.",
		"city": "London, ON",
		"postCode": "N3A 2L5",
		"contact": "Gus Morschauser",
		"phone": "(519) 634-9996",
		"website": "http://forestparkhomes.ca"
	},
	{
		"company": "Forest Park Homes",
		"link": "/member_directory/36748",
		"street": "71 Schneller Dr.",
		"city": "Baden, ON",
		"postCode": "N3A 2L5",
		"contact": "Gus Morschauser",
		"phone": "(519) 634-9996",
		"website": "http://forestparkhomes.ca"
	},
	{
		"company": "Forest Trim & Doors Ltd.",
		"link": "/member_directory/33378",
		"street": "10 Marconi Crt.",
		"city": "Bolton, ON",
		"postCode": "L7E 1H3",
		"contact": "Brenda Tonon",
		"phone": "(905) 951-2521",
		"website": null
	},
	{
		"company": "Forever Homes Inc.",
		"link": "/member_directory/35686",
		"street": "1956 Mallard Rd.",
		"city": "London, ON",
		"postCode": "N6H 5M7",
		"contact": "Richard Fung",
		"phone": "(519) 686-3075",
		"website": "http://foreverhomes.ca"
	},
	{
		"company": "Form & Build Supply Inc.",
		"link": "/member_directory/36585",
		"street": "1175 Frances St.",
		"city": "London, ON",
		"postCode": "N5W 2L9",
		"contact": "Jeremy Hansen",
		"phone": "(519) 453-4300",
		"website": null
	},
	{
		"company": "Format Group Inc.",
		"link": "/member_directory/32995",
		"street": "5050 Dufferin St. Ste. 120",
		"city": "Toronto, ON",
		"postCode": "M3H 5T5",
		"contact": "Babak Sarshar",
		"phone": "(416) 739-9300",
		"website": "http://formatgroup.ca"
	},
	{
		"company": "Forrest Group of Companies (The)",
		"link": "/member_directory/32996",
		"street": "590 Alden Rd. Unit 211",
		"city": "Markham, ON",
		"postCode": "L3R 8N2",
		"contact": "Bob Forrest",
		"phone": "(905) 752-6776",
		"website": null
	},
	{
		"company": "Fortress Real Developments Inc.",
		"link": "/member_directory/33265",
		"street": "25 Brodie Dr. Ste. 2",
		"city": "Richmond Hill, ON",
		"postCode": "L4B 3K7",
		"contact": "Jawad Rathore",
		"phone": "(905) 787-9266",
		"website": "http://fortressrealcapital.com"
	},
	{
		"company": "Fortune Customer Care Professionals Inc.",
		"link": "/member_directory/33850",
		"street": "235 Verobeach Blvd.",
		"city": "Toronto, ON",
		"postCode": "M9M 1R4",
		"contact": "Jim Fortune",
		"phone": "(416) 671-7295",
		"website": "http://fortuneccp.com"
	},
	{
		"company": "Forward Signs Inc.",
		"link": "/member_directory/33379",
		"street": "60 Emblem Crt.",
		"city": "Scarborough, ON",
		"postCode": "M1S 1B1",
		"contact": "Aaron Madar",
		"phone": "(416) 291-4477",
		"website": "http://forwardsign.com"
	},
	{
		"company": "FoTenn Consultants Inc.",
		"link": "/member_directory/34818",
		"street": "223 Mcleod St.",
		"city": "Ottawa, ON",
		"postCode": "K2P 0Z8",
		"contact": "Ted Fobert",
		"phone": "(613) 730-5709",
		"website": "http://fotenn.com"
	},
	{
		"company": "Four Points Construction",
		"link": "/member_directory/36093",
		"street": "1626 W.brook Dr.",
		"city": "Peterborough, ON",
		"postCode": "K9J 7V4",
		"contact": "Matt Moore",
		"phone": "(705) 768-6803",
		"website": "http://fourpointsconstruction.ca"
	},
	{
		"company": "Four Seasons Sunrooms",
		"link": "/member_directory/35749",
		"street": "775 Wharncliffe Rd. S.",
		"city": "London, ON",
		"postCode": "N6J 2N8",
		"contact": "Brian Kirk",
		"phone": "(519) 680-3330",
		"website": "http://sunroomdesigncentre.com"
	},
	{
		"company": "Four Square Construction",
		"link": "/member_directory/34504",
		"street": "Box 1037",
		"city": "Uxbridge, ON",
		"postCode": "L9P 1N3",
		"contact": "Chris Brunne",
		"phone": "(905) 862-0040",
		"website": "http://foursquareconstruction.ca"
	},
	{
		"company": "Four Star Home & Cottage Improvements",
		"link": "/member_directory/36094",
		"street": "1303 Birchview Rd.",
		"city": "Lakefield, ON",
		"postCode": "K0L 2H0",
		"contact": "Mark Kollaard",
		"phone": "(705) 652-8969",
		"website": null
	},
	{
		"company": "Four Valleys Excavating & Grading Ltd.",
		"link": "/member_directory/34594",
		"street": "137 Bowes Rd.",
		"city": "Concord, ON",
		"postCode": "L4K 1H3",
		"contact": "N. Cortellucci",
		"phone": "(905) 669-1588",
		"website": null
	},
	{
		"company": "Four Valleys Excavating & Grading Ltd.",
		"link": "/member_directory/32997",
		"street": "137 Bowes Rd.",
		"city": "Concord, ON",
		"postCode": "L4K 1H3",
		"contact": "Nick Cortellucci",
		"phone": "(905) 669-1588",
		"website": null
	},
	{
		"company": "Fourteen Estates Ltd.",
		"link": "/member_directory/34455",
		"street": "513 Westney Rd. S.",
		"city": "Ajax, ON",
		"postCode": "L1S 6W8",
		"contact": "Rick Rondeau",
		"phone": "(905) 427-0390",
		"website": "http://fourteenestates.com"
	},
	{
		"company": "Fourteen Estates Ltd.",
		"link": "/member_directory/32998",
		"street": "513 Westney Rd. S. Unit 4",
		"city": "Ajax, ON",
		"postCode": "L1S 6W8",
		"contact": "Richard Rondeau",
		"phone": "(905) 427-0390",
		"website": "http://fourteenestates.com"
	},
	{
		"company": "Fowler Construction Company Ltd.",
		"link": "/member_directory/35268",
		"street": "Box 1382",
		"city": "Haliburton, ON",
		"postCode": "K0M1S0",
		"contact": "Glen Sharp",
		"phone": "(705) 457-9900",
		"website": null
	},
	{
		"company": "Foxboro Fastners Ltd.",
		"link": "/member_directory/36249",
		"street": "830 Mudcat Lane",
		"city": "Foxboro, ON",
		"postCode": "K0K 2B0",
		"contact": "Robert Lee",
		"phone": "(613) 969-1933",
		"website": null
	},
	{
		"company": "Fracarsan Corporation",
		"link": "/member_directory/35304",
		"street": "105 - 950 Fennell Ave. E.",
		"city": "Hamilton, ON",
		"postCode": "L8V 1X2",
		"contact": "Carl Galli",
		"phone": "(905) 387-2255",
		"website": "http://gallihomes.ca"
	},
	{
		"company": "Fram Building Group",
		"link": "/member_directory/32999",
		"street": "141 Lakeshore Rd. E. 2nd Flr.",
		"city": "Mississauga, ON",
		"postCode": "L5G 1E8",
		"contact": "Frank Giannone",
		"phone": "(416) 747-9661",
		"website": null
	},
	{
		"company": "Framewerks",
		"link": "/member_directory/35750",
		"street": "4500 Blakie Rd. Unit 127",
		"city": "London, ON",
		"postCode": "N6L 1G5",
		"contact": "Mike Ciesla",
		"phone": "(519) 281-2175",
		"website": "http://framewerks.ca"
	},
	{
		"company": "Framing Futures",
		"link": "/member_directory/35161",
		"street": "5074 Jones Baseline",
		"city": "Guelph, ON",
		"postCode": "N1H 6H8",
		"contact": "Cor Vanleeuwen",
		"phone": "(519) 835-1013",
		"website": null
	},
	{
		"company": "Francis Thomas Contracting",
		"link": "/member_directory/35276",
		"street": "15559 Hwy 35",
		"city": "Algonquin Highlands, ON",
		"postCode": "K0M 1J0",
		"contact": "Keith Thomas",
		"phone": "(705) 489-2711",
		"website": null
	},
	{
		"company": "Frank Feldman, Lawyer",
		"link": "/member_directory/33851",
		"street": "45 Sheppard Ave. E. Ste. 302",
		"city": "Toronto, ON",
		"postCode": "M2N 5W9",
		"contact": "Frank Feldman",
		"phone": "(416) 754-9962",
		"website": "http://frankfeldmanlaw.com"
	},
	{
		"company": "Frank's Glass",
		"link": "/member_directory/35490",
		"street": "2751-2753 Barton St. E.",
		"city": "Hamilton, ON",
		"postCode": "L8E 2J8",
		"contact": "Danielle Wynen",
		"phone": "(905) 560-3113",
		"website": "http://franksglass.ca"
	},
	{
		"company": "Franklin International",
		"link": "/member_directory/33380",
		"street": "29 Cameo Dr.",
		"city": "Richmond Hill, ON",
		"postCode": "L4S 2C3",
		"contact": "Robert He",
		"phone": "(647) 886-6310",
		"website": "http://titebond.com"
	},
	{
		"company": "Franton Homes Inc.",
		"link": "/member_directory/33000",
		"street": "396 Chrislea Rd.",
		"city": "Woodbridge, ON",
		"postCode": "L4L 8A8",
		"contact": "Tony Smeriglio",
		"phone": "(905) 265-0540",
		"website": "http://frantonhomes.com"
	},
	{
		"company": "Frede R. Construction Ltd.",
		"link": "/member_directory/36749",
		"street": "90 Frobisher Dr., Unit 5",
		"city": "Waterloo, ON",
		"postCode": "N2V 2A1",
		"contact": "Richard Frede",
		"phone": "(519) 747-0014",
		"website": "http://fredeconstruction.ca"
	},
	{
		"company": "Freed Development Corporation",
		"link": "/member_directory/33001",
		"street": "552 Wellington St. W. Ste. 1500",
		"city": "Toronto, ON",
		"postCode": "M5V 2V5",
		"contact": "Peter Freed",
		"phone": "(416) 781-5699",
		"website": "http://freeddevelopments.com"
	},
	{
		"company": "Freeman's Wine & Brewing",
		"link": "/member_directory/36203",
		"street": "366 N. Front St.",
		"city": "Belleville, ON",
		"postCode": "K8P 5E6",
		"contact": "Janet Goneau",
		"phone": "(613) 966-9972",
		"website": null
	},
	{
		"company": "Frendel Kitchens Ltd.",
		"link": "/member_directory/33381",
		"street": "1350 Shawson Dr.",
		"city": "Mississauga, ON",
		"postCode": "L4W 1C5",
		"contact": "Robert Deltin",
		"phone": "(905) 670-7898",
		"website": "http://frendel.com"
	},
	{
		"company": "Frendel Kitchens Ltd.",
		"link": "/member_directory/35491",
		"street": "1350 Shawson Dr.",
		"city": "Mississauga, ON",
		"postCode": "L4W 1C5",
		"contact": "Robert Deltin",
		"phone": "1-800-641-1201",
		"website": "http://frendel.com"
	},
	{
		"company": "Freure Construction(1992) Ltd.",
		"link": "/member_directory/36529",
		"street": "501 Krug St., Ste. 201,",
		"city": "Kitchener, ON",
		"postCode": "N2B 1L3",
		"contact": "David Freure",
		"phone": "(519) 578-7771",
		"website": null
	},
	{
		"company": "Freure Homes Ltd.",
		"link": "/member_directory/36750",
		"street": "501 Krug St., Suite 201",
		"city": "Kitchener, ON",
		"postCode": "N2B 1L3",
		"contact": "David Freure",
		"phone": "(519) 578-7771",
		"website": "http://freure.com"
	},
	{
		"company": "Friel Heating & Air Conditioning",
		"link": "/member_directory/36285",
		"street": "77 Parks Dr., Unit 1, R.R. #5",
		"city": "Belleville, ON",
		"postCode": "K8N 4Z5",
		"contact": "Wayne Friel",
		"phone": "(613) 966-8848",
		"website": null
	},
	{
		"company": "Friendly Fires",
		"link": "/member_directory/36157",
		"street": "#981 Highway 7 E.",
		"city": "Peterborough, ON",
		"postCode": "K9J 6X8",
		"contact": "Eric Shaw",
		"phone": "(705) 741-1900",
		"website": "http://friendlyfires.ca"
	},
	{
		"company": "Friendly Fires",
		"link": "/member_directory/36286",
		"street": "271 Dalton Ave",
		"city": "Kingston, ON",
		"postCode": "K7K 6Z1",
		"contact": "Curtis Andre",
		"phone": "(613) 544-5575",
		"website": null
	},
	{
		"company": "Frisina Group",
		"link": "/member_directory/35305",
		"street": "129 Orchard Dr.",
		"city": "Ancaster, ON",
		"postCode": "L9G 1Z8",
		"contact": "Al Frisina",
		"phone": "(905) 547-0020",
		"website": "http://frisinagroup.com"
	},
	{
		"company": "Fritz Concrete Inc.",
		"link": "/member_directory/36377",
		"street": "R.R. #1",
		"city": "Chepstow, ON",
		"postCode": "N0G 1K0",
		"contact": "Bill Clancy",
		"phone": "(519) 366-2253",
		"website": null
	},
	{
		"company": "Frontenac Build & Design",
		"link": "/member_directory/35601",
		"street": "1069 Sunnyside Rd.",
		"city": "Kingston, ON",
		"postCode": "K7L 4V4",
		"contact": "Fen Laird",
		"phone": "(613) 530-3535",
		"website": "http://frontenacbuild.ca"
	},
	{
		"company": "FrontLine Design Build Inc.",
		"link": "/member_directory/36392",
		"street": "450 Chester Ave.",
		"city": "Newmarket, ON",
		"postCode": "L3Y 6R7",
		"contact": "Matt Paul",
		"phone": "(905) 955-0173",
		"website": null
	},
	{
		"company": "Fuel MultiMedia",
		"link": "/member_directory/36653",
		"street": "73 Elm St.",
		"city": "Sudbury, ON",
		"postCode": "P3C 1R7",
		"contact": "Jeff MacIntyre",
		"phone": "(705) 929-1265",
		"website": "http://fuelmultimedia.ca"
	},
	{
		"company": "Fuller Landau LLP",
		"link": "/member_directory/37125",
		"street": "151 Bloor St West 12th Floor",
		"city": "Toronto, ON",
		"postCode": "L7L 7L3",
		"contact": "Gary Abrahamson",
		"phone": "416-646-6500",
		"website": null
	},
	{
		"company": "Fulton Carpentry & Joinery Ltd",
		"link": "/member_directory/34748",
		"street": "22 Hazel St.",
		"city": "Ottawa, ON",
		"postCode": "K1S 0E9",
		"contact": "Sandy Fulton",
		"phone": "(613) 218-6378",
		"website": "http://fultoncarpentry.com"
	},
	{
		"company": "Fusion Homes",
		"link": "/member_directory/35082",
		"street": "500 Hanlon Creek Blvd",
		"city": "Guelph, ON",
		"postCode": "N1C 0A1",
		"contact": "Lee Piccoli",
		"phone": "(519) 826-6700",
		"website": null
	},
	{
		"company": "Fusion Homes",
		"link": "/member_directory/35687",
		"street": "500 Hanlon Creek Blvd.",
		"city": "Guelph, ON",
		"postCode": "N1C 0A1",
		"contact": "Alan Churchill",
		"phone": "(519) 826-6700",
		"website": "http://fusionhomes.com"
	},
	{
		"company": "Fusion Homes",
		"link": "/member_directory/36751",
		"street": "500 Hanlon Creek Blvd",
		"city": "Guelph, ON",
		"postCode": "N1C 0A1",
		"contact": "Alan Churchill",
		"phone": "(519) 826-6700",
		"website": "http://fusionhomes.com"
	},
	{
		"company": "Fusion Homes",
		"link": "/member_directory/34297",
		"street": "500 Hanlon Creek Blvd.",
		"city": "Guelph, ON",
		"postCode": "N1C 0A1",
		"contact": "Alan Churchill",
		"phone": "(519) 826-6700",
		"website": "http://fusionhomes.com"
	},
	{
		"company": "G & L Group",
		"link": "/member_directory/37126",
		"street": "401 Bowes Road",
		"city": "Concord, ON",
		"postCode": "L4K 1J4",
		"contact": "Stephanie Moore",
		"phone": "461-798-7050",
		"website": null
	},
	{
		"company": "G. Ryan Design Inc.",
		"link": "/member_directory/34819",
		"street": "100 Sunrise Ave. Suite 111",
		"city": "Toronto, ON",
		"postCode": "M4A 1B3",
		"contact": "Gerard Ryan",
		"phone": "(416) 868-6500",
		"website": "http://ryan-design.com"
	},
	{
		"company": "G. Ryan Design Inc.",
		"link": "/member_directory/33852",
		"street": "100 Sunrise Ave. Unit 111",
		"city": "Toronto, ON",
		"postCode": "M4A 1B3",
		"contact": "Gerard Ryan",
		"phone": "(416) 868-6500",
		"website": "http://ryan-design.com"
	},
	{
		"company": "G.J. Burtch Construction Ent. Ltd.",
		"link": "/member_directory/35251",
		"street": "P.O. Box 783",
		"city": "Haliburton, ON",
		"postCode": "K0M 1S0",
		"contact": "Gary Burtch",
		"phone": "(705) 457-3837",
		"website": null
	},
	{
		"company": "G.M. French Construction Co. Ltd.",
		"link": "/member_directory/34749",
		"street": "2154 Roger Stevens Dr.",
		"city": "North Gower, ON",
		"postCode": "K0A 2T0",
		"contact": "Guy French",
		"phone": "(613) 523-4663",
		"website": null
	},
	{
		"company": "Gabriel Excavating & Grading Ltd.",
		"link": "/member_directory/34202",
		"street": "194 Goulding Ave.",
		"city": "Toronto, ON",
		"postCode": "M2R 2P4",
		"contact": "Rob DeAcetis",
		"phone": "(905) 470-0482",
		"website": "http://gabrielexcavating.com"
	},
	{
		"company": "Gaetan Daze Insulation Ltd.",
		"link": "/member_directory/34995",
		"street": "1110 Chemin Baker Rd.",
		"city": "Casselman, ON",
		"postCode": "K0A 1M0",
		"contact": "Gaetan Daze",
		"phone": "(613) 223-1171",
		"website": null
	},
	{
		"company": "Gaffney Electrical Solutions",
		"link": "/member_directory/36612",
		"street": "3-82 Huron Rd.",
		"city": "Mitchell, ON",
		"postCode": "N0K 1N0",
		"contact": "Jim Gaffney",
		"phone": "(519) 348-0505",
		"website": null
	},
	{
		"company": "Gairloch Ltd.",
		"link": "/member_directory/33002",
		"street": "101 College St. Ste. HL30A",
		"city": "Toronto, ON",
		"postCode": "M5G 1L7",
		"contact": "Bill Gairdner",
		"phone": "(647) 255-1340",
		"website": "http://gairloch.ca"
	},
	{
		"company": "Galle Construction Inc.",
		"link": "/member_directory/33003",
		"street": "16 Belgrove Dr.",
		"city": "Etobicoke, ON",
		"postCode": "M9B 1S3",
		"contact": "Alessandro Galle",
		"phone": "(416) 792-7591",
		"website": "http://galleconstructioninc.com"
	},
	{
		"company": "Gallivan Developments Inc.",
		"link": "/member_directory/34672",
		"street": "35 Auriga Dr. Suite 217",
		"city": "Nepean, ON",
		"postCode": "K2E 8B7",
		"contact": "Thomas Gallivan",
		"phone": "(613) 727-0222",
		"website": "http://gallivandevelopments.com"
	},
	{
		"company": "Garage Door Depot",
		"link": "/member_directory/34203",
		"street": "3061 Universal Dr.",
		"city": "Mississauga, ON",
		"postCode": "L4X 2E2",
		"contact": "Diana Sargant Gibson",
		"phone": "(416) 424-3400",
		"website": "http://garagedoordepot.ca"
	},
	{
		"company": "Garage Doors of Ottawa",
		"link": "/member_directory/34996",
		"street": "33 Capital Dr.",
		"city": "Nepean, ON",
		"postCode": "K2G 0E7",
		"contact": "Neil Clark",
		"phone": "(613) 723-8447",
		"website": "http://garagedoorsofottawa.ca"
	},
	{
		"company": "Garage Living Inc.",
		"link": "/member_directory/36984",
		"street": "201 Chrislea Rd",
		"city": "Vaughan, ON",
		"postCode": "L4L 8N6",
		"contact": "Daniel Albo",
		"phone": "905  865 7175",
		"website": "http://garageliving.ca"
	},
	{
		"company": "Garage Living Inc.",
		"link": "/member_directory/34204",
		"street": "201 Chrislea Rd.",
		"city": "Vaughan, ON",
		"postCode": "L4L 8N6",
		"contact": "Aaron Cash",
		"phone": "(905) 856-7175",
		"website": "http://garageliving.ca"
	},
	{
		"company": "Garden Homes Inc.",
		"link": "/member_directory/33004",
		"street": "35 W. Pearce St. Unit 9",
		"city": "Richmond Hill, ON",
		"postCode": "L4B 3A9",
		"contact": "Ignazio Giardina",
		"phone": "(905) 882-2320",
		"website": "http://gardenhomes.ca"
	},
	{
		"company": "Gardiner, Roberts LLP",
		"link": "/member_directory/33853",
		"street": "40 King St. W. Ste. 3100",
		"city": "Toronto, ON",
		"postCode": "M5H 3Y2",
		"contact": "George Bassin",
		"phone": "(416) 865-6600",
		"website": "http://gardiner-roberts.com"
	},
	{
		"company": "Gardy Interiors Ltd.",
		"link": "/member_directory/33854",
		"street": "45 N.land Rd.",
		"city": "Waterloo, ON",
		"postCode": "N2V 1Y8",
		"contact": "Carolyn Gardy",
		"phone": "(519) 888-9448",
		"website": "http://gardyinteriors.ca"
	},
	{
		"company": "Garfinkle, Biderman",
		"link": "/member_directory/33855",
		"street": "1 Adelaide St. E. Ste. 801",
		"city": "Toronto, ON",
		"postCode": "M5C 2V9",
		"contact": "Avrom Brown",
		"phone": "(416) 869-1234",
		"website": null
	},
	{
		"company": "Garofalo Bros. Construction R.M.J Ltd.",
		"link": "/member_directory/35602",
		"street": "715 Arlington Park Place",
		"city": "Kingston, ON",
		"postCode": "K7M 7E4",
		"contact": "Marcel Garofalo",
		"phone": "(613) 384-5068",
		"website": null
	},
	{
		"company": "Gary Field Homes Inc.",
		"link": "/member_directory/35688",
		"street": "5 York St., Box 361",
		"city": "Newbury, ON",
		"postCode": "N0L 1Z0",
		"contact": "Gary Field",
		"phone": "(519) 693-8686",
		"website": "http://garyfieldhomes.com"
	},
	{
		"company": "GasCov Ltd.",
		"link": "/member_directory/35142",
		"street": "55 Thompson Dr.",
		"city": "Cambridge, ON",
		"postCode": "N1T 2E4",
		"contact": "Stella Aikin",
		"phone": "1-877-427-9255",
		"website": null
	},
	{
		"company": "Gateway Village Homes",
		"link": "/member_directory/36752",
		"street": "269 Fearnwood St.",
		"city": "Cambridge, ON",
		"postCode": "N3C 3W9",
		"contact": "Jamie Alli",
		"phone": "(519) 651-1631",
		"website": null
	},
	{
		"company": "Gatti Group Corp. (The)",
		"link": "/member_directory/33611",
		"street": "3151 Wolfedale Rd. Unit 5",
		"city": "Mississauga, ON",
		"postCode": "L5C 1V8",
		"contact": "Tony Gatti",
		"phone": "(905) 566-9072",
		"website": "http://thegattigroupcorp.com"
	},
	{
		"company": "Gatzios Planning & Development Consultants Inc",
		"link": "/member_directory/33856",
		"street": "701 Mount Pleasant Rd. 3rd Flr.",
		"city": "Toronto, ON",
		"postCode": "M4S 2N4",
		"contact": "Maria Gatzios",
		"phone": "(647) 748-9466",
		"website": "http://gatziosplanning.com"
	},
	{
		"company": "Gavin Cleaning & Restoration",
		"link": "/member_directory/37101",
		"street": "PO Box 487",
		"city": "Goderich, ON",
		"postCode": "N7 4C7",
		"contact": "Darryle McMillen",
		"phone": "519-524-2440",
		"website": "http://gavincleaning.com"
	},
	{
		"company": "Gaylord Forest Products Ltd.",
		"link": "/member_directory/36250",
		"street": "228 Victoria St. N.",
		"city": "Tweed, ON",
		"postCode": "K0K 3J0",
		"contact": "Greg Gaylord",
		"phone": "(613) 478-5301",
		"website": null
	},
	{
		"company": "Gaylord Hardwood Flooring",
		"link": "/member_directory/34904",
		"street": "1843 Merivale Raod",
		"city": "Nepean, ON",
		"postCode": "K2G 1E3",
		"contact": "Greg Gaylord",
		"phone": "(613) 228-9174",
		"website": "http://gaylordhardwoodflooring.com"
	},
	{
		"company": "GCB Inside",
		"link": "/member_directory/33857",
		"street": "1320 Shawson Dr. Ste. 200",
		"city": "Mississauga, ON",
		"postCode": "L4W 1C3",
		"contact": "Nino Francavilla",
		"phone": "(905) 795-1912",
		"website": null
	},
	{
		"company": "GCC Electric Inc.",
		"link": "/member_directory/34205",
		"street": "1489 Heritage Way Ste. 22",
		"city": "Oakville, ON",
		"postCode": "L6M 4M6",
		"contact": "Dan Dikas",
		"phone": "(416) 879-5703",
		"website": "http://gccelectric.com"
	},
	{
		"company": "GCP Corp",
		"link": "/member_directory/36586",
		"street": "268 Water St. N.,",
		"city": "Cambridge,, ON",
		"postCode": "N1R 3C3",
		"contact": "Samantha Vandenberk",
		"phone": "1-855-622-0141",
		"website": null
	},
	{
		"company": "GCW Custom Kitchens & Cabinetry Inc",
		"link": "/member_directory/36356",
		"street": "3537 White Oak Rd.",
		"city": "London, ON",
		"postCode": "N6E 3A1",
		"contact": "Jennifer Sanders",
		"phone": "(519) 668-3006",
		"website": "http://gcwkitchens.com"
	},
	{
		"company": "GCW Custom Kitchens & Cabinetry Inc.",
		"link": "/member_directory/36513",
		"street": "95 S. Edgeware Rd.",
		"city": "St. Thomas, ON",
		"postCode": "N5P  4C4",
		"contact": "Doreen Deweger",
		"phone": "(519) 631-8373",
		"website": "http://gcwkitchens.com"
	},
	{
		"company": "GCW Custom Kitchens & Cabinetry Inc.",
		"link": "/member_directory/37047",
		"street": "Doreen DeWeger",
		"city": "233 Edward St, St. Thomas",
		"postCode": "N5P 1Z4",
		"contact": "Doreen DeWeger",
		"phone": "519-631-8373",
		"website": "http://gcwkitchens.com"
	},
	{
		"company": "GCW Custom Kitchens & Cabinetry Inc.",
		"link": "/member_directory/36587",
		"street": "233 Edward St.",
		"city": "St. Thomas, ON",
		"postCode": "N5P 1Z4",
		"contact": "Jen Gilmore",
		"phone": "(519) 631-8373",
		"website": null
	},
	{
		"company": "GCW Custom Kitchens & Cabinetry Inc.",
		"link": "/member_directory/35829",
		"street": "95 S. Edgeware Rd",
		"city": "St. Thomas, ON",
		"postCode": "N5P 4C4",
		"contact": "Jen Gilmore",
		"phone": "(519) 668-3006",
		"website": "http://gcwkitchens.com"
	},
	{
		"company": "GCW Renovation",
		"link": "/member_directory/34750",
		"street": "196 James St. Unit Unit7",
		"city": "Ottawa, ON",
		"postCode": "K1R 5M7",
		"contact": "Craig White",
		"phone": "(613) 816-3051",
		"website": "http://gcwrenovation.com"
	},
	{
		"company": "GE Appliances Commercial Sales",
		"link": "/member_directory/34905",
		"street": "5420 N. Service Rd. Ste. 300",
		"city": "Burlington, ON",
		"postCode": "L7R 5B6",
		"contact": "Tony Caruso, Rick Muraca and Andrew Pyykko",
		"phone": "1-800-361-2500",
		"website": "http://gebuilder.ca"
	},
	{
		"company": "GE Appliances Commercial Sales ",
		"link": "/member_directory/33382",
		"street": "5420 N. Service Rd. Ste. 300, P.O. Box 5345",
		"city": "Burlington, ON",
		"postCode": "L7R 5B6",
		"contact": "Tony Caruso, Rick Muraca and Andrew Pyykko",
		"phone": "(905) 315-2300",
		"website": "http://gebuilder.ca"
	},
	{
		"company": "GE Appliances Commercial Sales",
		"link": "/member_directory/35736",
		"street": "5420 N. Service Rd., Suite 300",
		"city": "Burlington, ON",
		"postCode": "L7R 5B6",
		"contact": "Tony Caruso, Rick Muraca and Andrew Pyykko",
		"phone": "(905) 315-2348",
		"website": "http://gebuilder.ca"
	},
	{
		"company": "Geco Industries",
		"link": "/member_directory/36287",
		"street": "P.O. Box 1086, 31 Kent St.",
		"city": "Campbellford, ON",
		"postCode": "K0L 1L0",
		"contact": "Helm Klein",
		"phone": "(705) 653-1116",
		"website": "http://goco.ca"
	},
	{
		"company": "Geerlinks Home Hardware Building Centre & Home Furniture Store",
		"link": "/member_directory/36514",
		"street": "295 Wellington St.",
		"city": "St. Thomas, ON",
		"postCode": "N5R 2S6",
		"contact": "Shawn Groenendyk",
		"phone": "(519) 631-2910",
		"website": null
	},
	{
		"company": "Geertsma Home Ltd.",
		"link": "/member_directory/35603",
		"street": "406 Maitland Dr., Unit 3 Maitland Plaza, R.R. Unit5",
		"city": "Belleville, ON",
		"postCode": "K8N 4Z5",
		"contact": "Graeme Tubbs",
		"phone": "(613) 966-8420",
		"website": "http://geertsma.com"
	},
	{
		"company": "Geertsma Homes Ltd.",
		"link": "/member_directory/36174",
		"street": "R.R. # 5 406 Maitland Drive",
		"city": "Belleville, ON",
		"postCode": "K8N 4Z5",
		"contact": "Tony Engelsdorfer",
		"phone": "(613) 966-8420",
		"website": null
	},
	{
		"company": "Gemini Homebuilders",
		"link": "/member_directory/35083",
		"street": "660 Speedvale Ave W., Suite 300",
		"city": "Guelph, ON",
		"postCode": "N1K 1E5",
		"contact": "Jason Fabbian",
		"phone": "(519) 824-0789",
		"website": null
	},
	{
		"company": "Gemstone Developments Ltd",
		"link": "/member_directory/34673",
		"street": "851 Industrial Ave. 2nd Flr.",
		"city": "Ottawa, ON",
		"postCode": "K1G 4L3",
		"contact": "Josh Zaret",
		"phone": "(613) 739-7696",
		"website": "http://gemstonedevelopments.com"
	},
	{
		"company": "Gemstone Kitchens Inc.",
		"link": "/member_directory/36894",
		"street": "400 Sheldon Dr. Unit 10",
		"city": "Cambridge, ON",
		"postCode": "N1T 2H9",
		"contact": "Kiddy Diogenous",
		"phone": "(519) 620-3200",
		"website": "http://gemstonekitchens.com"
	},
	{
		"company": "General Repairs & Renovations Inc.",
		"link": "/member_directory/34751",
		"street": "658 Thicket Way",
		"city": "Orleans, ON, ON",
		"postCode": "K4A 3B1",
		"contact": "Michael Jacques",
		"phone": "(613) 834-0138",
		"website": "http://generalrepairsandrenovations.com"
	},
	{
		"company": "Generation Carpentry Ltd.",
		"link": "/member_directory/34206",
		"street": "13 Bourdon Ave.",
		"city": "Toronto, ON",
		"postCode": "M6L 2Y7",
		"contact": "Tony Leto",
		"phone": "(416) 248-2555",
		"website": null
	},
	{
		"company": "Genesis Homes",
		"link": "/member_directory/33005",
		"street": "1 Yorkdale Rd. Ste. 214",
		"city": "Toronto, ON",
		"postCode": "M6A 3A1",
		"contact": "Barry Waltman",
		"phone": "(416) 229-9757",
		"website": "http://genesishomes.ca"
	},
	{
		"company": "Genstar Development Company",
		"link": "/member_directory/36753",
		"street": "300 The E. Mall, Suite 300",
		"city": "Etobicoke, ON",
		"postCode": "M9B 6B7",
		"contact": "John Koke",
		"phone": "(416) 232-2280",
		"website": "http://genstar.com"
	},
	{
		"company": "Genstar Development Company",
		"link": "/member_directory/33006",
		"street": "300 The E. Mall Ste. 300",
		"city": "Etobicoke, ON",
		"postCode": "M9B 6B7",
		"contact": "John Koke",
		"phone": "(416) 232-2280",
		"website": "http://genstar.com"
	},
	{
		"company": "Gentek Building Partnership Ltd.",
		"link": "/member_directory/36680",
		"street": "1801 Old Falconbridge Rd.",
		"city": "Sudbury, ON",
		"postCode": "P3A 4R7",
		"contact": "Darren Frattini",
		"phone": "(705) 560-0315",
		"website": "http://gentek.ca"
	},
	{
		"company": "Gentek Building Products Ltd.",
		"link": "/member_directory/34906",
		"street": "1091 Ages Dr.",
		"city": "Ottawa, ON",
		"postCode": "K1G 6L3",
		"contact": "Mike Hodgins",
		"phone": "(613) 741-6410",
		"website": "http://gentek.ca"
	},
	{
		"company": "Gentek Building Products Ltd.",
		"link": "/member_directory/33383",
		"street": "120 McLevin Ave. Unit 1",
		"city": "Scarborough, ON",
		"postCode": "M1B 3E9",
		"contact": "Steve Casar",
		"phone": "(416) 412-4768",
		"website": "http://gentek.ca"
	},
	{
		"company": "Gentek Building Products Ltd.",
		"link": "/member_directory/35991",
		"street": "41 Brockley Dr., Unit 3 &amp; 4",
		"city": "Hamilton, ON",
		"postCode": "L8E 3C3",
		"contact": "Al Rizzuto",
		"phone": "(905) 561-1424",
		"website": "http://gentek.ca"
	},
	{
		"company": "Gentek Building Products Ltd.",
		"link": "/member_directory/35492",
		"street": "41 Brockley Dr.",
		"city": "Hamilton, ON",
		"postCode": "L8E 3C3",
		"contact": "Al Rizzuto",
		"phone": "(905) 561-1424",
		"website": "http://gentek.ca"
	},
	{
		"company": "Gentrac Homes",
		"link": "/member_directory/35689",
		"street": "18 Harvey St.",
		"city": "Tillsonburg, ON",
		"postCode": "N4G 3J6",
		"contact": "John Gilvesy",
		"phone": "(519) 842-9090",
		"website": null
	},
	{
		"company": "Genworth Financial Canada",
		"link": "/member_directory/35405",
		"street": "28 Susan Dr.",
		"city": "Hamilton, ON",
		"postCode": "L9C 7R1",
		"contact": "Bernice Flegg",
		"phone": "(905) 577-5567",
		"website": "http://genworth.ca"
	},
	{
		"company": "Genworth Financial Canada",
		"link": "/member_directory/33266",
		"street": "2060 Winston Park Dr. Ste. 300",
		"city": "Oakville, ON",
		"postCode": "L6H 5R7",
		"contact": "Jason Neziol",
		"phone": "(905) 287-5367",
		"website": "http://genworth.ca"
	},
	{
		"company": "Genx Construction Inc.",
		"link": "/member_directory/34997",
		"street": "2349 Old Montreal Rd.",
		"city": "Cumberland, ON",
		"postCode": "K4C 1G4",
		"contact": "Veronika Lepage",
		"phone": "(613) 573-1288",
		"website": "http://genxconst.ca"
	},
	{
		"company": "Geo Source Energy Inc.",
		"link": "/member_directory/37072",
		"street": "1508 Highway 54",
		"city": "Caledonia, ON",
		"postCode": "N3W 2G9",
		"contact": "Gerrit Hagen",
		"phone": "905 765 6950",
		"website": null
	},
	{
		"company": "Geo Teck Heating & Cooling Ltd.",
		"link": "/member_directory/34306",
		"street": "R.R. #2, 33979 Bissonette Ave.",
		"city": "Zurich, ON",
		"postCode": "N0M 2T0",
		"contact": "Greg Vanhevel",
		"phone": "(519) 236-4770",
		"website": null
	},
	{
		"company": "Geodynamics",
		"link": "/member_directory/36288",
		"street": "13 MacStevens Dr.",
		"city": "Picton, ON",
		"postCode": "K0K 2T0",
		"contact": "Matt Bulley",
		"phone": "(613) 476-5686",
		"website": null
	},
	{
		"company": "George Brown College - Centre for Construction & Engineering Technologies",
		"link": "/member_directory/33858",
		"street": "146 Kendal Ave. P.O. Box 1015, Station B",
		"city": "Toronto, ON",
		"postCode": "M5T 2T9",
		"contact": "Clint Kissoon",
		"phone": "(416) 415-5000",
		"website": "http://georgebrown.ca"
	},
	{
		"company": "George Kent Home Improvement Ltd.",
		"link": "/member_directory/34207",
		"street": "6350 Tomken Rd. Unit 1",
		"city": "Mississauga, ON",
		"postCode": "L5T 1Y3",
		"contact": "Wayne Palmer",
		"phone": "(905) 670-2707",
		"website": "http://georgekent.ca"
	},
	{
		"company": "George Sinclair Construction Inc.",
		"link": "/member_directory/35306",
		"street": "P. O. Box 73032, Limeridge P.O.",
		"city": "Hamilton, ON",
		"postCode": "L9A 5H7",
		"contact": "Bud Sinclair",
		"phone": "(905) 561-9320",
		"website": "http://georgesinclair.com"
	},
	{
		"company": "Georgian Chevrolet GMC",
		"link": "/member_directory/36443",
		"street": "65 Barrieview Dr.",
		"city": "Barrie, ON",
		"postCode": "L4N 8V4",
		"contact": "Peter Doyle",
		"phone": "(705) 730-1230",
		"website": null
	},
	{
		"company": "Georgian Custom Renovations Inc.",
		"link": "/member_directory/33612",
		"street": "1175 Meyerside Dr. Ste. 2",
		"city": "Mississauga, ON",
		"postCode": "L5T 1H3",
		"contact": "Lisa Maida",
		"phone": "(905) 405-7275",
		"website": null
	},
	{
		"company": "Georgian International Build Corp",
		"link": "/member_directory/36393",
		"street": "85 Bayfield St. Ste. 500",
		"city": "Barrie, ON",
		"postCode": "L4M 3A7",
		"contact": "Ryan McGonigle",
		"phone": "(705) 730-5900",
		"website": "http://georgianinternational.com"
	},
	{
		"company": "Georgian Villas Inc.",
		"link": "/member_directory/35061",
		"street": "221 McLeese Dr",
		"city": "Kemble, ON",
		"postCode": "N0H 1S0",
		"contact": "Rob McLeese",
		"phone": "(416) 366-4820",
		"website": null
	},
	{
		"company": "Georgian Waste Services",
		"link": "/member_directory/36444",
		"street": "8903 Simcoe Rd. 56",
		"city": "Utopia, ON",
		"postCode": "L0M 1T0",
		"contact": "Mark Kozina",
		"phone": "(705) 424-0082",
		"website": "http://georgianwaste.com"
	},
	{
		"company": "Geoscape Contracting",
		"link": "/member_directory/34208",
		"street": "4822 Nineteeth Ave.",
		"city": "Markham, ON",
		"postCode": "L6C 1M4",
		"contact": "Sean Ciampaglia",
		"phone": "(905) 887-1599",
		"website": "http://geoscapecontracting.com"
	},
	{
		"company": "GeoSmart Energy",
		"link": "/member_directory/35217",
		"street": "290 Pinebush Rd.",
		"city": "Cambridge, ON",
		"postCode": "N1T 1Z6",
		"contact": "June Thomson",
		"phone": "1-866-310-6690",
		"website": null
	},
	{
		"company": "Geranium Corporation",
		"link": "/member_directory/33007",
		"street": "3190 Steeles Ave. E. Ste. 300",
		"city": "Markham, ON",
		"postCode": "L3R 1G9",
		"contact": "Boaz Feiner",
		"phone": "(905) 477-1177",
		"website": "http://geraniumhomes.com"
	},
	{
		"company": "Gerhard Linse Design Inc.",
		"link": "/member_directory/34820",
		"street": "19 Pineglen Cres.",
		"city": "Ottawa, ON",
		"postCode": "K2E 6X8",
		"contact": "Gerhard Linse",
		"phone": "(613) 727-5119",
		"website": "http://gerhardesign.com"
	},
	{
		"company": "Geron Associates Ltd.",
		"link": "/member_directory/33384",
		"street": "30 Alden Rd. Unit 7-10",
		"city": "Markham, ON",
		"postCode": "L3R 2S1",
		"contact": "Kevin Fullerton",
		"phone": "(905) 470-0205",
		"website": "http://geron.ca"
	},
	{
		"company": "Gervais Development Corporation",
		"link": "/member_directory/33008",
		"street": "2235 Sheppard Ave. E. Ste. 903",
		"city": "Toronto, ON",
		"postCode": "M2J 5B5",
		"contact": "Gerard Gervais",
		"phone": "(647) 478-2008",
		"website": null
	},
	{
		"company": "GFL Corporation",
		"link": "/member_directory/34209",
		"street": "242 Cherry St.",
		"city": "Toronto, ON",
		"postCode": "M5A 3L2",
		"contact": "Ted Manziaris",
		"phone": "(416) 406-2040",
		"website": "http://turtleislandrecycling.com"
	},
	{
		"company": "GHD",
		"link": "/member_directory/36837",
		"street": "651 Colby Dr.",
		"city": "Waterloo, ON",
		"postCode": "N2V 1C2",
		"contact": "Tim Wiens",
		"phone": "(519) 884-0510",
		"website": "http://ghd.com"
	},
	{
		"company": "GHD Inc.",
		"link": "/member_directory/33859",
		"street": "11 Allstate Parkway Ste. 310",
		"city": "Markham, ON",
		"postCode": "L3R 9T8",
		"contact": "Colin James",
		"phone": "(905) 686-6402",
		"website": "http://ghd.com"
	},
	{
		"company": "GHD Inc.",
		"link": "/member_directory/34521",
		"street": "65 Sunray St.",
		"city": "Whitby, ON",
		"postCode": "L1N 8Y3",
		"contact": "Mirko Favit Service Group Manager - Prop&amp;Bldngs",
		"phone": "(905) 432-7878",
		"website": "http://ghd.com"
	},
	{
		"company": "Giampaolo Investments Ltd.",
		"link": "/member_directory/33009",
		"street": "471 Intermodal Dr.",
		"city": "Brampton, ON",
		"postCode": "L6T 5G4",
		"contact": "Todd Kerr",
		"phone": "(905) 793-7083",
		"website": null
	},
	{
		"company": "Giampietri Brothers Construction",
		"link": "/member_directory/36328",
		"street": "1869 Clarence St.",
		"city": "Sarnia, ON",
		"postCode": "N7X 1C7",
		"contact": "Giulio Giampietri",
		"phone": "(519) 542-4667",
		"website": null
	},
	{
		"company": "Giannone Petricone Associates Inc. Architects",
		"link": "/member_directory/33860",
		"street": "462 Wellington St. W. Ste. 501",
		"city": "Toronto, ON",
		"postCode": "M5V 1E3",
		"contact": "Carlo Odorico",
		"phone": "(416) 591-7788",
		"website": "http://gpaia.com"
	},
	{
		"company": "Gibbons & Eggink Construction Ltd.",
		"link": "/member_directory/35176",
		"street": "Old Hwy #3, RR#1",
		"city": "Jarvis, ON",
		"postCode": "N0A 1J0",
		"contact": "George Eggink",
		"phone": "(519) 587-4124",
		"website": null
	},
	{
		"company": "Gibbys Electronic Supermarket",
		"link": "/member_directory/35992",
		"street": "55 Geneva St.",
		"city": "St. Catharines, ON",
		"postCode": "L2R 4M6",
		"contact": "Duane Gibson",
		"phone": "(905) 685-7611",
		"website": "http://gibbyselectronicsupermarket.ca"
	},
	{
		"company": "Gilbert & Burke Associates Ltd.",
		"link": "/member_directory/36394",
		"street": "17 William St. N.",
		"city": "Lindsay, ON",
		"postCode": "K9V 3Z8",
		"contact": "Brian Gilbert",
		"phone": "(705) 328-9431",
		"website": "http://evergrenhomeandcottage.com"
	},
	{
		"company": "Gilbert & Burke Associates Ltd.",
		"link": "/member_directory/36066",
		"street": "17 William St. N.",
		"city": "Lindsay, ON",
		"postCode": "K9V 3Z8",
		"contact": "Randy Burke",
		"phone": "(705) 328-9431",
		"website": "http://gilbertburke.ca"
	},
	{
		"company": "Gilles Michaud Construction",
		"link": "/member_directory/34402",
		"street": "7841 Creek Line R.R. # 7",
		"city": "Chatham, ON",
		"postCode": "N7M 5J7",
		"contact": "Gilles Michaud",
		"phone": "(519) 354-8467",
		"website": "http://kent.net/gmichaud"
	},
	{
		"company": "Gillies Lumber Inc.",
		"link": "/member_directory/36895",
		"street": "777 Industrial Rd.",
		"city": "Cambrige, ON",
		"postCode": "N3H 4W2",
		"contact": "Bernie Karnupis",
		"phone": "(519) 653-3219",
		"website": "http://gillieslumber.ca"
	},
	{
		"company": "Gillies Lumber Inc.",
		"link": "/member_directory/35493",
		"street": "777 Industrial Rd.",
		"city": "Cambridge, ON",
		"postCode": "N3H 4W2",
		"contact": "Glen Law",
		"phone": "(519) 653-3219",
		"website": null
	},
	{
		"company": "Gillies Lumber Inc.",
		"link": "/member_directory/35494",
		"street": "777 Industrial Rd.",
		"city": "Cambridge, ON",
		"postCode": "N3H 4W2",
		"contact": "Glen Law",
		"phone": "(519) 653-3219",
		"website": "http://gillieslumber.ca"
	},
	{
		"company": "Ginsberg Gluzman Fage & Levitz  LLP",
		"link": "/member_directory/34821",
		"street": "287 Richmond Rd.",
		"city": "Ottawa, ON",
		"postCode": "K1Z 6X4",
		"contact": "Anne Van Delst",
		"phone": "(613) 728-5831",
		"website": "http://ggfl.ca"
	},
	{
		"company": "Gintar Contractors Ltd.",
		"link": "/member_directory/36947",
		"street": "820 Erie St. E.",
		"city": "Windsor, ON",
		"postCode": "N9A 3Y4",
		"contact": "Ezio Tartaro",
		"phone": "(519) 252-0419",
		"website": "http://gintar.ca"
	},
	{
		"company": "GJK Designs",
		"link": "/member_directory/34822",
		"street": "289a Montreal Rd.",
		"city": "Ottawa, ON",
		"postCode": "K1L 6B8",
		"contact": "Gordon Keith",
		"phone": "(613) 744-1274",
		"website": "http://gjkdesigns.ca"
	},
	{
		"company": "Gladstone Media",
		"link": "/member_directory/33861",
		"street": "171 E. Liberty St. Ste. 135",
		"city": "Toronto, ON",
		"postCode": "M6K 3P6",
		"contact": "Jeremy Gladstone",
		"phone": "(416) 246-0679",
		"website": "http://gladstonemedia.ca"
	},
	{
		"company": "Gladwin Building Services Inc.",
		"link": "/member_directory/34752",
		"street": "4048 Carling Ave. P.O. Box 72009",
		"city": "Kanata, ON",
		"postCode": "K2K 1Y1",
		"contact": "David Gladwin",
		"phone": "(613) 592-8822",
		"website": "http://gladwinbuildingservices.com"
	},
	{
		"company": "Glanbrook Stairs & Woodworking Ltd.",
		"link": "/member_directory/35495",
		"street": "8155 Chippewa Creek Rd E., R.R.#3",
		"city": "Mount Hope, ON",
		"postCode": "L0R 1W0",
		"contact": "Frank Maric",
		"phone": "(905) 574-9500",
		"website": null
	},
	{
		"company": "Glen Corporation",
		"link": "/member_directory/33010",
		"street": "100 Scarsdale Rd.",
		"city": "Don Mills, ON",
		"postCode": "M3B 2R8",
		"contact": "Daniel Halbert",
		"phone": "(416) 449-3300",
		"website": "http://glencorp.com"
	},
	{
		"company": "Glen Rouge Homes",
		"link": "/member_directory/34456",
		"street": "2061 McCowan Rd., Suite 203",
		"city": "Scarborough, ON",
		"postCode": "M1S 3Y6",
		"contact": "Tony H. Cheng",
		"phone": "(416) 282-2296",
		"website": "http://glenrougehomes.com"
	},
	{
		"company": "Glen Rouge Homes",
		"link": "/member_directory/33011",
		"street": "2061 McCowan Rd. Ste. 203",
		"city": "Scarborough, ON",
		"postCode": "M1S 3Y6",
		"contact": "Tony Cheng",
		"phone": "(416) 282-2296",
		"website": "http://glenrougehomes.com"
	},
	{
		"company": "Glen Schnarr & Associates Inc.",
		"link": "/member_directory/33862",
		"street": "10 Kingsbridge Garden Circle Ste. 700",
		"city": "Mississauga, ON",
		"postCode": "L5R 3K6",
		"contact": "Glen Schnarr",
		"phone": "(905) 568-8888",
		"website": "http://gsai.ca"
	},
	{
		"company": "Glen Watson Construction Ltd.",
		"link": "/member_directory/36067",
		"street": "P.O. Box 313",
		"city": "Bridgenorth, ON",
		"postCode": "K0L 1H0",
		"contact": "Glen Watson",
		"phone": "(705) 292-8672",
		"website": null
	},
	{
		"company": "Glenview Homes",
		"link": "/member_directory/34674",
		"street": "3894 Prince of Wales Dr.",
		"city": "Nepean, ON",
		"postCode": "K2C 3H2",
		"contact": "Nisha Cairo",
		"phone": "(613) 552-4308",
		"website": "http://glenviewhomes.com"
	},
	{
		"company": "Globe And Mail (The)",
		"link": "/member_directory/33863",
		"street": "444 Front St. W. 2nd Flr., Advertising",
		"city": "Toronto, ON",
		"postCode": "M5V 2S9",
		"contact": "Gottfried Wirth",
		"phone": "(416) 585-5612",
		"website": "http://globelink.ca"
	},
	{
		"company": "GLS Technology",
		"link": "/member_directory/34210",
		"street": "761 Bay St. Ste. 1603",
		"city": "Toronto, ON",
		"postCode": "M5G 2R2",
		"contact": "Jordan Tovell",
		"phone": "(416) 919-7225",
		"website": "http://glstechnology.com"
	},
	{
		"company": "GM Blue Plan Engineering Ltd.",
		"link": "/member_directory/35118",
		"street": "650 Woodlawn Rd. W.  Block C",
		"city": "Guelph, ON",
		"postCode": "N1K 1B8",
		"contact": "Glenn Anderson",
		"phone": "(519) 824-8150",
		"website": null
	},
	{
		"company": "GM Blue Plan Engineering Ltd.",
		"link": "/member_directory/36844",
		"street": "330 Trillium Dr. Unit D",
		"city": "Kitchener, ON",
		"postCode": "N2E 2K6",
		"contact": "Glenn Anderson",
		"phone": "(519) 748-1440",
		"website": "http://gmblueplan.ca"
	},
	{
		"company": "GM BluePlan Engineering Ltd.",
		"link": "/member_directory/36556",
		"street": "975 Wallace Ave. N.,",
		"city": "Listowel,, ON",
		"postCode": "N4W 1M6",
		"contact": "John Kerr",
		"phone": "(519) 291-9339",
		"website": null
	},
	{
		"company": "Godel Construction",
		"link": "/member_directory/33613",
		"street": "414 Davisville Ave.",
		"city": "Toronto, ON",
		"postCode": "M4S 1H6",
		"contact": "Lisa Godel",
		"phone": "(416) 484-6096",
		"website": "http://godelconstruction.com"
	},
	{
		"company": "Goeman's Appliances",
		"link": "/member_directory/36515",
		"street": "1060 Wharncliffe Rd., S.",
		"city": "London, ON",
		"postCode": "N6L 1H2",
		"contact": "Thomas Lofsnes",
		"phone": "(905) 906-8914",
		"website": "http://goemans.com"
	},
	{
		"company": "Goemans Appliances",
		"link": "/member_directory/36896",
		"street": "4585 King St. E.",
		"city": "Kitchener, ON",
		"postCode": "N2P 2G2",
		"contact": "Thomas Lofsnes",
		"phone": "(519) 685-0800",
		"website": "http://goemans.com"
	},
	{
		"company": "Goemans Appliances",
		"link": "/member_directory/35993",
		"street": "1-7975 Heritage Rd",
		"city": "Brampton, ON",
		"postCode": null,
		"contact": "Kelly Spinelli",
		"phone": "905 462 5224",
		"website": "http://goemans.com"
	},
	{
		"company": "Goemans Appliances",
		"link": "/member_directory/35496",
		"street": "1 - 7975 Heritage Rd.",
		"city": "Brampton, ON",
		"postCode": null,
		"contact": "Kelly Spinelli",
		"phone": "905 462 5224",
		"website": "http://goemans.com"
	},
	{
		"company": "Gold Mountain Realty Inc., Brokerage",
		"link": "/member_directory/33864",
		"street": "75 Wright Ave.",
		"city": "Toronto, ON",
		"postCode": "M6R 1L1",
		"contact": "Cecilia Luu",
		"phone": "(416) 532-6291",
		"website": null
	},
	{
		"company": "Gold Park Homes",
		"link": "/member_directory/33012",
		"street": "3300 Highway 7 Ste. 400",
		"city": "Concord, ON",
		"postCode": "L4K 4M3",
		"contact": "Michael Cipriano",
		"phone": "(905) 760-9595",
		"website": "http://goldparkhomes.com"
	},
	{
		"company": "Goldberg Group",
		"link": "/member_directory/33865",
		"street": "2098 Ave. Rd.",
		"city": "Toronto, ON",
		"postCode": "M5M 4A8",
		"contact": "Michael Goldberg",
		"phone": "(416) 322-6364",
		"website": "http://goldberggroup.ca"
	},
	{
		"company": "Golden Bee Homes Inc.",
		"link": "/member_directory/33614",
		"street": "518 McNicoll Ave.",
		"city": "Toronto, ON",
		"postCode": "M2H 2E1",
		"contact": "Hagop Torossian",
		"phone": "(416) 768-4771",
		"website": "http://goldenbeehomes.com"
	},
	{
		"company": "Golden Falcon Homes",
		"link": "/member_directory/33013",
		"street": "1 Valleybrook Dr. Ste. 308",
		"city": "Toronto, ON",
		"postCode": "M3B 2S7",
		"contact": "Shahin (Sean) Talaei",
		"phone": "(647) 748-4044",
		"website": "http://goldenfalconhomes.com"
	},
	{
		"company": "Golden Windows",
		"link": "/member_directory/34907",
		"street": "1112 March Rd.",
		"city": "Kanata, ON",
		"postCode": "K2W 1B9",
		"contact": "Jacques Trottier",
		"phone": "(613) 592-9111",
		"website": "http://goldenwindows.com"
	},
	{
		"company": "Golden Windows Ltd.",
		"link": "/member_directory/35143",
		"street": "888 Guelph St.",
		"city": "Kitchener, ON",
		"postCode": "N2H 5Z6",
		"contact": "Mark Pflance",
		"phone": "(519) 579-3810",
		"website": null
	},
	{
		"company": "Golden Windows Ltd.",
		"link": "/member_directory/36805",
		"street": "888 Guelph St.",
		"city": "Kitchener, ON",
		"postCode": "N2H 5Z6",
		"contact": "Nathan Fenlon",
		"phone": "(519) 579-3810",
		"website": "http://goldenwindows.com"
	},
	{
		"company": "Golden Windows Ltd.",
		"link": "/member_directory/35830",
		"street": "309 Exeter Rd. Unit 49-51",
		"city": "London, ON",
		"postCode": "N6L 1C1",
		"contact": "George Fitzpatrick",
		"phone": "(519) 421-1693",
		"website": "http://goldenwindows.com"
	},
	{
		"company": "Golder Associates Ltd",
		"link": "/member_directory/34823",
		"street": "1931 Robertson Rd.",
		"city": "Ottawa, ON",
		"postCode": "K2H 5B7",
		"contact": "Sully Sullivan",
		"phone": "(613) 592-9600",
		"website": "http://golder.ca"
	},
	{
		"company": "Golder Associates Ltd.",
		"link": "/member_directory/33866",
		"street": "100 Scotia Crt.",
		"city": "Whitby, ON",
		"postCode": "L1N 8Y6",
		"contact": "Steve Keenan",
		"phone": "(905) 723-2727",
		"website": "http://golder.com"
	},
	{
		"company": "Golder Associates Ltd.",
		"link": "/member_directory/35776",
		"street": "309 Exeter Rd., Unit #1",
		"city": "London, ON",
		"postCode": "N6L 1C1",
		"contact": "Andrea Sproule",
		"phone": "(519) 652-0099",
		"website": "http://golder.com"
	},
	{
		"company": "Golder Associates Ltd.",
		"link": "/member_directory/34522",
		"street": "100 Scotia Crt.",
		"city": "Whitby, ON",
		"postCode": "L1N 8Y6",
		"contact": "Chris Kellestine",
		"phone": "(905) 723-2727",
		"website": "http://golder.com"
	},
	{
		"company": "Golder Associates Ltd.",
		"link": "/member_directory/36845",
		"street": "210 Sheldon Dr.",
		"city": "Cambridge, ON",
		"postCode": "N1T 1A8",
		"contact": "Joe Tavares",
		"phone": "(519) 620-1222",
		"website": "http://golder.com"
	},
	{
		"company": "Goldman Group (The)",
		"link": "/member_directory/33014",
		"street": "55 St. Clair Ave. W. Ste. 240",
		"city": "Toronto, ON",
		"postCode": "M4V 2Y7",
		"contact": "Murray Goldman",
		"phone": "(416) 962-9080",
		"website": "http://goldmangroup.com"
	},
	{
		"company": "Goldman Sloan Nash & Haber LLP",
		"link": "/member_directory/33867",
		"street": "480 University Ave. Ste. 1600",
		"city": "Toronto, ON",
		"postCode": "M5G 1V2",
		"contact": "Rodney Ikeda",
		"phone": "(416) 597-9922",
		"website": "http://gsnh.com"
	},
	{
		"company": "Goldman, Spring, Kichler & Sanders LLP",
		"link": "/member_directory/33868",
		"street": "40 Sheppard Ave. W. Ste. 700",
		"city": "North York, ON",
		"postCode": "M2N 6K9",
		"contact": "Sheldon Spring",
		"phone": "(416) 225-9400",
		"website": "http://goldmanpsring.com"
	},
	{
		"company": "Goldribbon Homes",
		"link": "/member_directory/33615",
		"street": "5400 Yonge St. Ste. 300",
		"city": "Toronto, ON",
		"postCode": "M2N 5R5",
		"contact": "Akiva Jakubovic",
		"phone": "(416) 221-3335",
		"website": "http://goldribbonhomes.com"
	},
	{
		"company": "Good Water Company (The)",
		"link": "/member_directory/36251",
		"street": "P.O. Box 653  163 College St. West",
		"city": "Belleville, ON",
		"postCode": "K8P 5B3",
		"contact": "Paul Moorman",
		"phone": "(613) 968-7700",
		"website": null
	},
	{
		"company": "Goodfellow Inc.",
		"link": "/member_directory/33385",
		"street": "9184 Twiss Rd. P.O. Box 460",
		"city": "Campbellville, ON",
		"postCode": "L0P 1B0",
		"contact": "Chris Freedman",
		"phone": "(905) 854-5800",
		"website": "http://goodfellowinc.com"
	},
	{
		"company": "Goodman Company Canada",
		"link": "/member_directory/33386",
		"street": "8305 Jane St. Unit 3",
		"city": "Vaughan, ON",
		"postCode": "L4K 5Y3",
		"contact": "Mike Perone",
		"phone": "(905) 760-2737",
		"website": "http://goodmanmfg.com"
	},
	{
		"company": "Goodman Homes",
		"link": "/member_directory/36035",
		"street": "229 Falcon Dr.",
		"city": "Woodstock, ON",
		"postCode": "N4T 1W5",
		"contact": "John Goodman",
		"phone": "(519) 537-2783",
		"website": "http://goodmanhomes.ca"
	},
	{
		"company": "Goodmans LLP",
		"link": "/member_directory/33869",
		"street": "333 Bay St. Ste. 3400",
		"city": "Toronto, ON",
		"postCode": "M5H 2S7",
		"contact": "Mark Noskiewicz",
		"phone": "(416) 597-4136",
		"website": "http://goodmans.ca"
	},
	{
		"company": "Gord Lawson Contracting",
		"link": "/member_directory/35062",
		"street": "R.R. 1, 11 Forbes Dr.",
		"city": "Miller Lake, ON",
		"postCode": "N0H 1Z0",
		"contact": "Gord Lawson",
		"phone": "(519) 795-7514",
		"website": null
	},
	{
		"company": "Gord's General Contracting",
		"link": "/member_directory/34333",
		"street": "577 Bishop&apos;s Gate Rd.",
		"city": "Paris, ON",
		"postCode": "N3L 3E3",
		"contact": "Jennifer Stuart",
		"phone": "(519) 442-4202",
		"website": null
	},
	{
		"company": "Gordana Car Interior Design Studio Inc.",
		"link": "/member_directory/33870",
		"street": "15387 Yonge St. Unit 2",
		"city": "Aurora, ON",
		"postCode": "L4G 1P1",
		"contact": "Gordana Car-Dirienzo",
		"phone": "(905) 503-4642",
		"website": "http://gordanacardesign.com"
	},
	{
		"company": "Gordon Tobey Developments Ltd.",
		"link": "/member_directory/36175",
		"street": "5 Tall Pines Rd.",
		"city": "Brighton, ON",
		"postCode": "K0K 1H0",
		"contact": "Stephen Tobey",
		"phone": "(613) 475-0618",
		"website": null
	},
	{
		"company": "Gordon Weima Design Builder",
		"link": "/member_directory/34675",
		"street": "7 Foxglove Place",
		"city": "Nepean, ON",
		"postCode": "K2R 1B2",
		"contact": "Gordon Weima",
		"phone": "(613) 850-1559",
		"website": "http://gordonweima.com"
	},
	{
		"company": "Goreski Roofing & Lathing Ltd.",
		"link": "/member_directory/34595",
		"street": "18 - 133 Taunton Rd. W.",
		"city": "Oshawa, ON",
		"postCode": "L1G 3T4",
		"contact": "Ken Goreski Mark Goreski/Paul Goreski",
		"phone": "(905) 723-5731",
		"website": null
	},
	{
		"company": "Gorman-Mazzon Ltd.",
		"link": "/member_directory/33616",
		"street": "32 Geranium Crt.",
		"city": "Richmond HIll, ON",
		"postCode": "L4C 0N4",
		"contact": "Lou Mazzon",
		"phone": "(416) 818-5049",
		"website": null
	},
	{
		"company": "Gowling Lafleur Henderson LLP",
		"link": "/member_directory/36846",
		"street": "50 Queen St. N.  Ste. 2010",
		"city": "Kitchener, ON",
		"postCode": "N2H 6M2",
		"contact": "Graham Darling",
		"phone": "(519) 575-7504",
		"website": "http://gowlings.com"
	},
	{
		"company": "Gowling WLG (Canada)",
		"link": "/member_directory/34824",
		"street": "160 Elgin St. Suite 2600",
		"city": "Ottawa, ON",
		"postCode": "K1P 1C3",
		"contact": "Michael Polowin",
		"phone": "(613) 786-0158",
		"website": "http://gowlingwlg.com"
	},
	{
		"company": "Grand River Brick & Stone",
		"link": "/member_directory/35497",
		"street": "350 Fruitland Rd.",
		"city": "Stoney Creek, ON",
		"postCode": "L8E 5M8",
		"contact": "Angelo Ferrelli",
		"phone": "(905) 643-8686",
		"website": "http://grandriverstone.com"
	},
	{
		"company": "Grand River Insulation Inc.",
		"link": "/member_directory/36613",
		"street": "Unit 5, 599 Colby Dr.,",
		"city": "Waterloo, ON",
		"postCode": "N2V 1A1",
		"contact": "Jason Plein",
		"phone": "(519) 742-4100",
		"website": null
	},
	{
		"company": "Grand River Natural Stone Ltd.",
		"link": "/member_directory/35831",
		"street": "1891 Wharncliffe Rd. S.",
		"city": "London, ON",
		"postCode": "N6L 1K2",
		"contact": "Greg Sansom",
		"phone": "(519) 652-5476",
		"website": null
	},
	{
		"company": "Grandfield Homes",
		"link": "/member_directory/33015",
		"street": "7225 Woodbine Ave. Ste. 103",
		"city": "Markham, ON",
		"postCode": "L3R 1A3",
		"contact": "Trent Lin",
		"phone": "(905) 470-1188",
		"website": "http://grandfieldhomes.com"
	},
	{
		"company": "Grandor Group",
		"link": "/member_directory/34908",
		"street": "5224 Bank St.",
		"city": "Ottawa, ON",
		"postCode": "K1X 1H2",
		"contact": "Bob Beausejour",
		"phone": "(613) 822-3390",
		"website": "http://grandor.ca"
	},
	{
		"company": "Grandview Homes",
		"link": "/member_directory/36395",
		"street": "24 Executive Place",
		"city": "Kitchener, ON",
		"postCode": "N2P 2N4",
		"contact": "Randy Brown",
		"phone": "(705) 735-0732",
		"website": null
	},
	{
		"company": "Grandview Homes",
		"link": "/member_directory/36754",
		"street": "24 Executive Place",
		"city": "Kitchener, ON",
		"postCode": "N2G 3W5",
		"contact": "Garo Bostajian",
		"phone": "(519) 748-2800",
		"website": "http://grandview-homes.com"
	},
	{
		"company": "Granite Homes",
		"link": "/member_directory/35084",
		"street": "160 S.gate Dr.",
		"city": "Guelph, ON",
		"postCode": "N1G 4P5",
		"contact": "Terry Ellery",
		"phone": "(519) 822-3988",
		"website": null
	},
	{
		"company": "Graniteworx",
		"link": "/member_directory/35105",
		"street": "285 Hanlon Creek Blvd",
		"city": "Guelph, ON",
		"postCode": "N1C 0A1",
		"contact": "Sonia Payne",
		"phone": "(519) 821-5880",
		"website": null
	},
	{
		"company": "Graniteworx",
		"link": "/member_directory/36897",
		"street": "285 Hanlon Creek Blvd.",
		"city": "Guelph, ON",
		"postCode": "N1C 0A1",
		"contact": "Rob Durigon",
		"phone": "(519) 821-5880",
		"website": "http://graniteworx.ca"
	},
	{
		"company": "Grant Concrete Forming",
		"link": "/member_directory/35242",
		"street": "215 Market St. E.",
		"city": "Port Dover, ON",
		"postCode": "N0A 1N0",
		"contact": "Lorne Grant",
		"phone": "(519) 583-9272",
		"website": null
	},
	{
		"company": "Grant Drew Designer Stone",
		"link": "/member_directory/36134",
		"street": "2078 David Rd.",
		"city": "Peterborough, ON",
		"postCode": "K9J 0G5",
		"contact": "Drew Grant",
		"phone": "(705) 742-2636",
		"website": "http://gdds.ca"
	},
	{
		"company": "Grant Thornton LLP",
		"link": "/member_directory/35406",
		"street": "33 Main St. E.",
		"city": "Hamilton, ON",
		"postCode": "L8N 4K5",
		"contact": "Paul Gibel",
		"phone": "(905) 523-7732",
		"website": "http://grantthornton.ca"
	},
	{
		"company": "Grant Thorton LLP",
		"link": "/member_directory/35407",
		"street": "33 Main St. E.",
		"city": "Stoney Creek, ON",
		"postCode": "L8N 4K5",
		"contact": "Paul Gibel",
		"phone": "(905) 523-7732",
		"website": null
	},
	{
		"company": "Grasshopper Solar Corporation",
		"link": "/member_directory/37019",
		"street": "5935 Airport Rd Unit 210",
		"city": "Mississauga, ON",
		"postCode": "L4T 1V2",
		"contact": "Janis Wilkinson",
		"phone": "547-723-8758",
		"website": null
	},
	{
		"company": "Gray Home Hardware Building Centre",
		"link": "/member_directory/36971",
		"street": "700 Tecumseh Rd. W.",
		"city": "Windsor, ON",
		"postCode": "N8X 1H2",
		"contact": "Carol Gray",
		"phone": "(519) 254-1143",
		"website": null
	},
	{
		"company": "Grayler Steel Inc.",
		"link": "/member_directory/34559",
		"street": "1729 Charles St.",
		"city": "Whitby, ON",
		"postCode": "L1N 1C3",
		"contact": "Mark VanHout Dale W. Gray",
		"phone": "(905) 668-0000",
		"website": "http://graylersteel.com"
	},
	{
		"company": "Graystone Development Group Ltd.",
		"link": "/member_directory/35690",
		"street": "P.O. Box 20028",
		"city": "London, ON",
		"postCode": "N6K 4G6",
		"contact": "Derek Anderson",
		"phone": "(519) 601-6900",
		"website": "http://graystonegroup.ca"
	},
	{
		"company": "Graziani + Corazza Architects Inc.",
		"link": "/member_directory/33871",
		"street": "1320 Shawson Dr. Ste. 100",
		"city": "Mississauga, ON",
		"postCode": "L4W 1C3",
		"contact": "Enzo Corazza",
		"phone": "(905) 795-2601",
		"website": "http://gc-architects.com"
	},
	{
		"company": "Great Gulf Homes",
		"link": "/member_directory/34457",
		"street": "3751 Victoria Park Ave.",
		"city": "Toronto, ON",
		"postCode": "M1W 3Z4",
		"contact": "Christopher Wein",
		"phone": "(416) 774-2217",
		"website": "http://greatgulf.com"
	},
	{
		"company": "Great Gulf Homes",
		"link": "/member_directory/33016",
		"street": "3751 Victoria Park Ave.",
		"city": "Toronto, ON",
		"postCode": "M1W 3Z4",
		"contact": "Alan Vihant",
		"phone": "(416) 449-1340",
		"website": "http://greatgulfhomes.com"
	},
	{
		"company": "Great Lakes Timber Frame Inc.",
		"link": "/member_directory/35063",
		"street": "P.O. Box 238",
		"city": "Chatsworth, ON",
		"postCode": "N0H 1G0",
		"contact": "Pliny Loucks",
		"phone": "(519) 794-0400",
		"website": "http://greatlakesframe.com"
	},
	{
		"company": "Great Lands Corporation",
		"link": "/member_directory/33017",
		"street": "25 Torbarrie Rd.",
		"city": "Toronto, ON",
		"postCode": "M3L 1G5",
		"contact": "Ron Stein",
		"phone": "(416) 748-2600",
		"website": "http://greatlandscorp.com"
	},
	{
		"company": "Great Northern Insulation",
		"link": "/member_directory/34637",
		"street": "935 Keyes Dr.",
		"city": "Woodstock, ON",
		"postCode": "N4V 1C3",
		"contact": "Alana Cooper",
		"phone": "1-800-265-1914",
		"website": null
	},
	{
		"company": "Great Northern Insulation ",
		"link": "/member_directory/34418",
		"street": "935 Keyes Dr.",
		"city": "Woodstock Ontario, ON",
		"postCode": "N4V 1C3",
		"contact": "Chris Holland",
		"phone": "1-800-265-1914",
		"website": null
	},
	{
		"company": "Great Northern Insulation",
		"link": "/member_directory/35218",
		"street": "935 Keyes Dr.",
		"city": "Woodstock, ON",
		"postCode": "N4V 1C3",
		"contact": "Rick Miller",
		"phone": "800 265 1914",
		"website": null
	},
	{
		"company": "Great Northern Insulation",
		"link": "/member_directory/35498",
		"street": "935 Keyes Dr.",
		"city": "Woodstock, ON",
		"postCode": "N4V 1C3",
		"contact": "Rick Miller",
		"phone": "(519) 537-5873",
		"website": "http://gni.ca"
	},
	{
		"company": "Great Northern Insulation",
		"link": "/member_directory/36054",
		"street": "935 Keyes Dr.",
		"city": "Woodstock, ON",
		"postCode": "N4V 1C3",
		"contact": "Matt Reesor",
		"phone": "(519) 537-5873",
		"website": "http://gni.ca"
	},
	{
		"company": "Greater Toronto Sewer and Watermain Contractors Association",
		"link": "/member_directory/33872",
		"street": "5045 Orbitor Dr. Unit 12, Ste. 300",
		"city": "Mississauga, ON",
		"postCode": "L4W 4Y4",
		"contact": "Giovanni Cautillo",
		"phone": "(905) 629-7766",
		"website": "http://gtswca.org"
	},
	{
		"company": "Green Tech Insulation",
		"link": "/member_directory/34998",
		"street": "3272 Old George St.",
		"city": "Osgoode, ON",
		"postCode": "K0A 2W0",
		"contact": "Denis Groulx",
		"phone": "(613) 296-6662",
		"website": "http://ecosprayfoam.ca"
	},
	{
		"company": "Green Valley Recycling",
		"link": "/member_directory/35832",
		"street": "1200 Green Valley Rd.",
		"city": "London, ON",
		"postCode": "N6N 1E3",
		"contact": "Rick Declercq",
		"phone": "(519) 681-0606",
		"website": "http://greenvalleyrecycling.ca"
	},
	{
		"company": "Greene Homes",
		"link": "/member_directory/35604",
		"street": "738A Fortune Cres.",
		"city": "Kingston, ON",
		"postCode": "K7P 2T3",
		"contact": "Dave Greene",
		"phone": "(613) 389-6545",
		"website": "http://greenehomes.ca"
	},
	{
		"company": "Greenfield Quality Builders Inc.",
		"link": "/member_directory/33018",
		"street": "132 Gorman Park Rd.",
		"city": "Toronto, ON",
		"postCode": "M3H 3K9",
		"contact": "Edit Papp",
		"phone": "(416) 226-1020",
		"website": "http://gqbhomes.com"
	},
	{
		"company": "GreenFlow Financial",
		"link": "/member_directory/33873",
		"street": "511 King St. W. Ste. 300A",
		"city": "Toronto, ON",
		"postCode": "M5V 1K4",
		"contact": "Reza Ghazi",
		"phone": "(416) 712-3210",
		"website": "http://greenflow.ca"
	},
	{
		"company": "Greenhorizons Group of Farms Ltd.",
		"link": "/member_directory/36898",
		"street": "1400 Middleblock Rd.",
		"city": "Cambridge, ON",
		"postCode": "N2H 4R6",
		"contact": "Vince Girardi",
		"phone": "(519) 653-7494",
		"website": "http://justsodit.com"
	},
	{
		"company": "Greening Homes Ltd.",
		"link": "/member_directory/33617",
		"street": "1-1398 Bloor St. W.",
		"city": "Toronto, ON",
		"postCode": "M6P 4H6",
		"contact": "Chris Phillips",
		"phone": "(416) 532-6811",
		"website": "http://greeninghomes.com"
	},
	{
		"company": "Greening Marketing Inc.",
		"link": "/member_directory/35408",
		"street": "175 Longwood Rd. S.",
		"city": "Hamilton, ON",
		"postCode": "L8P 0A1",
		"contact": "Glenn Marshall",
		"phone": "(905) 667-5792",
		"website": "http://greeningmarketing.ca"
	},
	{
		"company": "Greenmark Builders Inc.",
		"link": "/member_directory/34676",
		"street": "7381 Blue Water Cres.",
		"city": "Greely, ON",
		"postCode": "K4P 0C8",
		"contact": "Mark Kranenburg",
		"phone": "(613) 898-5940",
		"website": "http://greenmarkbuilders.com"
	},
	{
		"company": "Greenpark Homes",
		"link": "/member_directory/33019",
		"street": "8700 Dufferin St.",
		"city": "Vaughan, ON",
		"postCode": "L4K 4S6",
		"contact": "Ted Wine",
		"phone": "(416) 661-5329",
		"website": "http://greenparkhomes.com"
	},
	{
		"company": "Greenvilla Homes",
		"link": "/member_directory/33020",
		"street": "390 Edgeley Blvd. Unit 18",
		"city": "Vaughan, ON",
		"postCode": "L4K 3Z6",
		"contact": "Alan Lam",
		"phone": "(905) 761-8899",
		"website": "http://greenvillahomes.com"
	},
	{
		"company": "Greenwood Construction",
		"link": "/member_directory/34638",
		"street": "205467 County Rd. 109",
		"city": "Amaranth, ON",
		"postCode": "L9W 0V1",
		"contact": "Kris Neilson",
		"phone": "(519) 941-0732",
		"website": "http://greenwoodconst.ca"
	},
	{
		"company": "Greg Brown Construction",
		"link": "/member_directory/35252",
		"street": "1030 Amaleen Dr., Box 705",
		"city": "Haliburton, ON",
		"postCode": "K0M 1S0",
		"contact": "Greg Brown",
		"phone": "(705) 457-3470",
		"website": null
	},
	{
		"company": "Gregor Homes Ltd.",
		"link": "/member_directory/36396",
		"street": "P.O. Box 131",
		"city": "Barrie, ON",
		"postCode": "L4M 4S9",
		"contact": "James Bazely",
		"phone": "(705) 721-3354",
		"website": null
	},
	{
		"company": "Gregory Reuter Architect",
		"link": "/member_directory/33874",
		"street": "115 Danforth Ave. Ste. 304",
		"city": "Toronto, ON",
		"postCode": "M4K 1N2",
		"contact": "Greg Reuter",
		"phone": "(647) 261-8052",
		"website": "http://rdcabuild.com"
	},
	{
		"company": "Grey Forest Homes Ltd.",
		"link": "/member_directory/35918",
		"street": "570 Welland Ave.",
		"city": "St. Catharines, ON",
		"postCode": "L2M 5V6",
		"contact": "Ron Berard",
		"phone": "(905) 687-9416",
		"website": "http://greyforesthomes.ca"
	},
	{
		"company": "Grieve Home Maintenance Ltd.",
		"link": "/member_directory/33618",
		"street": "5163 Mount Nemo Cres.",
		"city": "Burlington, ON",
		"postCode": "L7M 0T7",
		"contact": "David Grieve",
		"phone": "(905) 336-0088",
		"website": "http://grievehome.com"
	},
	{
		"company": "Grit Contracting",
		"link": "/member_directory/36930",
		"street": "180 Wellington St. N.",
		"city": "Kitchener, ON",
		"postCode": "N2H 5K2",
		"contact": "Phillippe Quirion",
		"phone": "(519) 588-4993",
		"website": "http://gritcontracting.com"
	},
	{
		"company": "Grogan Walsh Group (Royal LePage RCR)",
		"link": "/member_directory/33875",
		"street": "320 McDonald St.",
		"city": "Inglewood, ON",
		"postCode": "L7C 1G7",
		"contact": "Karl Walsh",
		"phone": "(905) 857-0651",
		"website": "http://royallepage.ca"
	},
	{
		"company": "Groundswell Urban Planners",
		"link": "/member_directory/33876",
		"street": "30 W. Beaver Creek Rd. Ste. 109",
		"city": "Richmond Hill, ON",
		"postCode": "L4B 3K1",
		"contact": "Kerigan Kelly",
		"phone": "(905) 597-8204",
		"website": "http://groundswellplan.com"
	},
	{
		"company": "GS Engineering Consultants",
		"link": "/member_directory/36967",
		"street": "2080 N. Talbot",
		"city": "Wndsor, ON",
		"postCode": "N9A 6J3",
		"contact": "Albert Schepers",
		"phone": "(519) 737-9162",
		"website": "http://gsengineering.ca"
	},
	{
		"company": "GSP Group Inc.",
		"link": "/member_directory/35119",
		"street": "72 Victoria St. S., Suite 201",
		"city": "Kitchener, ON",
		"postCode": "N2G 4Y9",
		"contact": "Hugh Handy",
		"phone": "(519) 569-8883",
		"website": null
	},
	{
		"company": "GSP Group Inc.",
		"link": "/member_directory/35409",
		"street": "200-162 Locke Street",
		"city": "Hamilton, ON",
		"postCode": "L8P 4A9",
		"contact": "Brenda Khes",
		"phone": "(905) 572-7477",
		"website": "http://gspgroup.ca"
	},
	{
		"company": "GSP Group Inc.",
		"link": "/member_directory/33877",
		"street": "72 Victoria St. S. Ste. 201",
		"city": "Kitchener, ON",
		"postCode": "N2G 4Y9",
		"contact": "William Green",
		"phone": "(519) 569-8883",
		"website": "http://gspgroup.ca"
	},
	{
		"company": "GSP Group Inc.",
		"link": "/member_directory/36557",
		"street": "201 - 72 Victoria St. S.",
		"city": "Kitchener, ON",
		"postCode": "N2G 4Y9",
		"contact": "Caroline Baker",
		"phone": "(519) 569-8883",
		"website": null
	},
	{
		"company": "GSP Group Inc.",
		"link": "/member_directory/36847",
		"street": "72 Victoria St. S., Suite 201",
		"city": "Kitchener, ON",
		"postCode": "N3H 4R7",
		"contact": "Eric Saulesleja",
		"phone": "(519) 569-8883",
		"website": "http://gspgroup.ca"
	},
	{
		"company": "GTA Mechanical Ltd.",
		"link": "/member_directory/34211",
		"street": "101 Torran Rd.",
		"city": "Woodbridge, ON",
		"postCode": "L4L 3B4",
		"contact": "Nancy Monaco",
		"phone": "(416) 213-7495",
		"website": null
	},
	{
		"company": "Guarantee Company of North America",
		"link": "/member_directory/33878",
		"street": "4950 Yonge St. Ste. 1400",
		"city": "North York, ON",
		"postCode": "M2N 6K1",
		"contact": "Pamela Martin",
		"phone": "(416) 223-9580",
		"website": "http://theguarantee.com"
	},
	{
		"company": "Guelph Tribune",
		"link": "/member_directory/35120",
		"street": "8-14 Macdonell St.  P.O. Box 3604",
		"city": "Guelph, ON",
		"postCode": "N1H 6P7",
		"contact": "Michael Bennett",
		"phone": "(519) 822-4310",
		"website": null
	},
	{
		"company": "Guidelines Advertising Inc.",
		"link": "/member_directory/33879",
		"street": "1063 Eglinton Ave. W.",
		"city": "Toronto, ON",
		"postCode": "M6C 2C9",
		"contact": "April Casali",
		"phone": "(416) 783-3311",
		"website": null
	},
	{
		"company": "Guildcrest Building Corporation",
		"link": "/member_directory/34677",
		"street": "20 Mill St., P.O. Box 10",
		"city": "Morewood, ON",
		"postCode": "K0A 2R0",
		"contact": "David Poupore",
		"phone": "(613) 448-2349",
		"website": "http://guildcrest.com"
	},
	{
		"company": "Guthrie Muscovitch Architects",
		"link": "/member_directory/33880",
		"street": "770 Browns Line",
		"city": "Toronto, ON",
		"postCode": "M8W 3W2",
		"contact": "G. Guthrie",
		"phone": "(416) 252-5679",
		"website": "http://gmarch.ca"
	},
	{
		"company": "Gutter Depot (8048975 Canada Inc.)",
		"link": "/member_directory/34212",
		"street": "1239 Aerowood Dr. Unit A &amp; B",
		"city": "Mississauga, ON",
		"postCode": "L4W 1B9",
		"contact": "Azzam Abultijleh",
		"phone": "(905) 206-9916",
		"website": "http://gutterdepot.ca"
	},
	{
		"company": "H & R Developments",
		"link": "/member_directory/33021",
		"street": "3625 Dufferin St. Ste. 500",
		"city": "Downsview, ON",
		"postCode": "M3K 1N4",
		"contact": "Peter DeBiasio",
		"phone": "(416) 635-7520",
		"website": "http://hr-newhomes.com"
	},
	{
		"company": "H&W Development Corp.",
		"link": "/member_directory/33022",
		"street": "2950 Birchmount Rd. Ste. 202",
		"city": "Toronto, ON",
		"postCode": "M1W 3G5",
		"contact": "Amy Wang",
		"phone": "(416) 493-2950",
		"website": "http://fontanamarkham.com"
	},
	{
		"company": "H.T. Homes",
		"link": "/member_directory/35691",
		"street": "740 Hyde Park Rd. P.O Box 28010 Oakridge R.O",
		"city": "London, ON",
		"postCode": "N6H 5E1",
		"contact": "Jose Santos",
		"phone": "(519) 660-8594",
		"website": "http://hthomes.ca"
	},
	{
		"company": "H2 Systems Inc.",
		"link": "/member_directory/35499",
		"street": "3245 Harvester Rd. Unit#4",
		"city": "Burlington, ON",
		"postCode": "L7N 3T7",
		"contact": "Clinton Howell",
		"phone": "(905) 632-4209",
		"website": null
	},
	{
		"company": "H5 Interiors",
		"link": "/member_directory/33881",
		"street": "9 Valleywoods Rd. Ste. 149",
		"city": "Toronto, ON",
		"postCode": "M3A 2R4",
		"contact": "Naveed Hyder",
		"phone": "(416) 629-2040",
		"website": "http://artoflivingcanada.com"
	},
	{
		"company": "Ha2 Architecture Design",
		"link": "/member_directory/34825",
		"street": "907 Rob Roy Ave.",
		"city": "Ottawa, ON",
		"postCode": "K2B 5V8",
		"contact": "Houry Avedissian",
		"phone": "(613) 883-3830",
		"website": "http://ha2d.com"
	},
	{
		"company": "Habitat For Humanity",
		"link": "/member_directory/35085",
		"street": "104 Dawson Rd., Suite 300",
		"city": "Guelph, ON",
		"postCode": "N1H 1A7",
		"contact": "Jeff Born",
		"phone": "(519) 767-9752",
		"website": null
	},
	{
		"company": "Habitat for Humanity ",
		"link": "/member_directory/36397",
		"street": "128 Brock St.",
		"city": "Barrie, ON",
		"postCode": "L4N 2M2",
		"contact": "Lee Pigeau",
		"phone": "(705) 727-0802",
		"website": null
	},
	{
		"company": "Habitat for Humanity",
		"link": "/member_directory/34623",
		"street": "104 Dawson Rd., Suite 300",
		"city": "Guelph, ON",
		"postCode": "N1H 1A7",
		"contact": "Sharron Riley-Persson",
		"phone": "(519) 767-9752",
		"website": null
	},
	{
		"company": "Habitat For Humanity",
		"link": "/member_directory/35919",
		"street": "150 Bunting Rd.",
		"city": "St. Catharines, ON",
		"postCode": "L2P 3G5",
		"contact": "Alastair Davis",
		"phone": "(905) 685-7395",
		"website": "http://habitatniagara.on.ca"
	},
	{
		"company": "Habitat for Humanity",
		"link": "/member_directory/35692",
		"street": "40 Pacific Crt., Unit 2",
		"city": "London, ON",
		"postCode": "N5V 3K4",
		"contact": "Jeff Duncan",
		"phone": "(519) 659-1949",
		"website": "http://habitat.london.on.ca"
	},
	{
		"company": "Habitat for Humanity ",
		"link": "/member_directory/36204",
		"street": "365 Bell Blvd.",
		"city": "Belleville, ON",
		"postCode": "K8P 5H9",
		"contact": "Len Kennedy",
		"phone": "(613) 969-1415",
		"website": null
	},
	{
		"company": "Habitat for Humanity ",
		"link": "/member_directory/34523",
		"street": "85 Chambers Dr. Unit 6 &amp; 7",
		"city": "Ajax, ON",
		"postCode": "L1Z1E2",
		"contact": "Mary Bone",
		"phone": "(905) 428-7434",
		"website": "http://habitatdurham.com"
	},
	{
		"company": "Habitat for Humanity ",
		"link": "/member_directory/36329",
		"street": "1787 London Line",
		"city": "Sarnia, ON",
		"postCode": "N7T 7H2",
		"contact": "Kim Racher",
		"phone": "(519) 339-7957",
		"website": "http://habitatsarnia.org"
	},
	{
		"company": "Habitat For Humanity",
		"link": "/member_directory/35307",
		"street": "1800 Appleby Line Unit 10",
		"city": "Burlington, ON",
		"postCode": "L7L 6A1",
		"contact": "John Gerrard",
		"phone": "(905) 637-4446",
		"website": "http://habitathalton.ca"
	},
	{
		"company": "Habitat For Humanity ",
		"link": "/member_directory/35308",
		"street": "285 Nash Rd. N. Unit #1",
		"city": "Hamilton, ON",
		"postCode": "L8H 7P4",
		"contact": "Linda Lawson",
		"phone": "(905) 560-6707",
		"website": "http://habitathamilton.ca"
	},
	{
		"company": "Habitat for Humanity ",
		"link": "/member_directory/33023",
		"street": "155 Bermondsey Rd.",
		"city": "Toronto, ON",
		"postCode": "M4A 1X9",
		"contact": "Angela Solomos",
		"phone": "(416) 755-7353",
		"website": "http://habitatgta.ca"
	},
	{
		"company": "Habitat for Humanity Brant",
		"link": "/member_directory/37053",
		"street": "408 Henry St Unit 2",
		"city": "Brantford, ON",
		"postCode": "N3S 7W1",
		"contact": "Russ Janiec",
		"phone": "519-759-8600",
		"website": "http://habitatbrant.org"
	},
	{
		"company": "Habitat for Humanity Peterborough and Kawartha District",
		"link": "/member_directory/36068",
		"street": "550 Braidwood Ave.",
		"city": "Peterborough, ON",
		"postCode": "K9J 1W1",
		"contact": "Sarah Burke",
		"phone": "(705) 750-1456",
		"website": "http://habitatpkr.ca"
	},
	{
		"company": "Habitations Roy Joly Inc.",
		"link": "/member_directory/34999",
		"street": "260 St. Patrick, Suite 102",
		"city": "Ottawa, ON",
		"postCode": "K1N 5K5",
		"contact": "Linda Maurice",
		"phone": "(613) 324-8216",
		"website": null
	},
	{
		"company": "Hadley-Irvine General Contracting Ltd.",
		"link": "/member_directory/33619",
		"street": "71 Robinson Rd.",
		"city": "Georgetown, ON",
		"postCode": "L7G 6L8",
		"contact": "Kirk Irvine",
		"phone": "(416) 910-8419",
		"website": "http://hadley-irvine.com"
	},
	{
		"company": "Haggerty Homes",
		"link": "/member_directory/34334",
		"street": "P.O. Box 517",
		"city": "Brantford, ON",
		"postCode": "N3T 5N9",
		"contact": "Steve Haggerty",
		"phone": "(519) 755-0241",
		"website": null
	},
	{
		"company": "Haldimand County Hydro Inc.",
		"link": "/member_directory/35219",
		"street": "1 Greendale Dr.",
		"city": "Caledonia, ON",
		"postCode": "N3W 2J3",
		"contact": "Jane Albert",
		"phone": "(905) 765-5211",
		"website": null
	},
	{
		"company": "Haliburton North Construction",
		"link": "/member_directory/35253",
		"street": "Box 220",
		"city": "Dorset, ON",
		"postCode": "P0A 1E0",
		"contact": "Sandy MacKay",
		"phone": "(705) 766-2881",
		"website": null
	},
	{
		"company": "Haliburton Timber Mart",
		"link": "/member_directory/35269",
		"street": "Box 534",
		"city": "Haliburton, ON",
		"postCode": "K0M 1S0",
		"contact": "Greg Scheffee",
		"phone": "(705) 457-2510",
		"website": null
	},
	{
		"company": "Hall Developments",
		"link": "/member_directory/33620",
		"street": "31 Columbine Ave.",
		"city": "Toronto, ON",
		"postCode": "M4L 1P4",
		"contact": "Dan Hall",
		"phone": "(416) 254-5114",
		"website": "http://halldevelopments.com"
	},
	{
		"company": "Hallman Construction and Land Development",
		"link": "/member_directory/36755",
		"street": "20 Crestview Place",
		"city": "Kitchener, ON",
		"postCode": "N2B 0A2",
		"contact": "Jim Hallman",
		"phone": "(519) 744-6353",
		"website": "http://hallmanconstruction.ca"
	},
	{
		"company": "Halloway Developments Ltd.",
		"link": "/member_directory/33024",
		"street": "177 Nonquon Rd. 20th Flr.",
		"city": "Oshawa, ON",
		"postCode": "L1G 3S2",
		"contact": "Wayne Clarke",
		"phone": "(905) 579-1626",
		"website": null
	},
	{
		"company": "Halloway Developments Ltd.",
		"link": "/member_directory/34458",
		"street": "177 Nonquon Rd., 20th Floor",
		"city": "Oshawa, ON",
		"postCode": "L1G 3S2",
		"contact": "Wayne Clarke Beth Kelly",
		"phone": "(905) 579-1629",
		"website": null
	},
	{
		"company": "Halminen Homes",
		"link": "/member_directory/33025",
		"street": "1748 Baseline Rd. W.",
		"city": "Courtice, ON",
		"postCode": "L1E 2T1",
		"contact": "Hannu Halminen",
		"phone": "(905) 436-2600",
		"website": "http://halminenhomes.com"
	},
	{
		"company": "Halminen Homes",
		"link": "/member_directory/34459",
		"street": "1748 Baseline Rd. W.",
		"city": "Courtice, ON",
		"postCode": "L1E 2T1",
		"contact": "Heidi Stephenson",
		"phone": "(905) 436-2600",
		"website": "http://halminenhomes.com"
	},
	{
		"company": "Hamel Design Inc",
		"link": "/member_directory/34826",
		"street": "170 Main St.",
		"city": "Ottawa, ON",
		"postCode": "K1S 1C2",
		"contact": "Jacques Hamel",
		"phone": "(613) 232 9081",
		"website": "http://hameldesign.ca"
	},
	{
		"company": "Hamilton Builders' Supply Inc.",
		"link": "/member_directory/35500",
		"street": "164 Limeridge Rd. E.",
		"city": "Hamilton, ON",
		"postCode": "L9A 2S3",
		"contact": "John Moed",
		"phone": "(905) 544-3680",
		"website": "http://hamiltonbuilders.com"
	},
	{
		"company": "Hamilton Community News Group",
		"link": "/member_directory/35410",
		"street": "333 Arvin Ave.",
		"city": "Stoney Creek, ON",
		"postCode": "L8E 2M6",
		"contact": "Holly Aitchison",
		"phone": "(905) 664-8800",
		"website": "http://hamiltonnews.com"
	},
	{
		"company": "Hamilton Custom Homes Inc.",
		"link": "/member_directory/35605",
		"street": "Box 846",
		"city": "Kingston, ON",
		"postCode": "K7L 4X6",
		"contact": "Mike Hamilton",
		"phone": "(613) 583-4705",
		"website": "http://hamiltoncustomhomes.ca"
	},
	{
		"company": "Hamilton Sod/Greenhorizons",
		"link": "/member_directory/35501",
		"street": "2907 Hwy. #6 S.",
		"city": "Mount Hope, ON",
		"postCode": "L0R 1W0",
		"contact": "Steve Schiedel",
		"phone": "(905) 389-1315",
		"website": "http://justsodit.com"
	},
	{
		"company": "Hamilton Spectator (The)",
		"link": "/member_directory/35411",
		"street": "44 Frid St.",
		"city": "Hamilton, ON",
		"postCode": "L8N 3G3",
		"contact": "Kelly Montague",
		"phone": "(905) 526-3545",
		"website": "http://thespec.com"
	},
	{
		"company": "Hammond Haliburton Inc.",
		"link": "/member_directory/35277",
		"street": "Box 135, 1094 Eagle Lake Rd.",
		"city": "West Guilford, ON",
		"postCode": "K0M 2S0",
		"contact": "Stephen Searle",
		"phone": "(705) 457-5900",
		"website": null
	},
	{
		"company": "Hampton Group Inc. (The)",
		"link": "/member_directory/36530",
		"street": "1255 Commissioners Rd. West Ste. 225",
		"city": "London, ON",
		"postCode": "N6K 3N5",
		"contact": "David Tennent Jr.",
		"phone": "(519) 471-3662",
		"website": null
	},
	{
		"company": "Hampton Homes",
		"link": "/member_directory/33621",
		"street": "2857 Sherwood Heights Dr. Unit 1",
		"city": "Oakville, ON",
		"postCode": "L6J 7J9",
		"contact": "Michael Paul",
		"phone": "(905) 829-5000",
		"website": "http://hamptonhomes.ca"
	},
	{
		"company": "Handyman Connection",
		"link": "/member_directory/33622",
		"street": "561 Edward Ave. Unit 3",
		"city": "Richmond Hill, ON",
		"postCode": "L4C 9W6",
		"contact": "Alex Lloy",
		"phone": "(905) 884-7678",
		"website": "http://york.handymanconnection.com"
	},
	{
		"company": "Hanson Brick",
		"link": "/member_directory/33387",
		"street": "1570 Yorkton Crt",
		"city": "Burlington, ON",
		"postCode": "L7P 5B7",
		"contact": "Lionel O&apos;Connor",
		"phone": "(905) 335-3401",
		"website": "http://hansonbrick.com"
	},
	{
		"company": "Hanson Brick Ltd.",
		"link": "/member_directory/34909",
		"street": "1570 Yorkton Crt",
		"city": "Burlington, ON",
		"postCode": "L7P 5B7",
		"contact": "Lionel O&apos;Connor",
		"phone": "(905) 335-3401",
		"website": "http://hansonbrick.com"
	},
	{
		"company": "Harasym Developments Inc.",
		"link": "/member_directory/35693",
		"street": "P.O. Box 8079 1225 Wonderland Road North",
		"city": "London, ON",
		"postCode": "N6G 2B0",
		"contact": "Michael Harasym",
		"phone": "(519) 680-1605",
		"website": "http://harasym.com"
	},
	{
		"company": "Harasym Homes Inc. (Aleck)",
		"link": "/member_directory/35694",
		"street": "P.O. Box 28030",
		"city": "London, ON",
		"postCode": "N6H 5E1",
		"contact": "Aleck Harasym",
		"phone": "(519) 472-5400",
		"website": "http://harasymhomesinc.com"
	},
	{
		"company": "Hard Wear Promotions Inc.",
		"link": "/member_directory/33388",
		"street": "120 Shields Crt.",
		"city": "Markham, ON",
		"postCode": "L3R 9T5",
		"contact": "Tony Canto",
		"phone": "(905) 415-9510",
		"website": "http://hardwearpromo.com"
	},
	{
		"company": "Hard-Co Construction Ltd.",
		"link": "/member_directory/34596",
		"street": "625 Conlin Rd.",
		"city": "Whitby, ON",
		"postCode": "L1R 2W8",
		"contact": "Barry Harding Larry Harding",
		"phone": "(905) 655-2001",
		"website": "http://hard-co.com"
	},
	{
		"company": "Hardcore Paint & Stain",
		"link": "/member_directory/35278",
		"street": "1061 HarCrt. Rd., Box 115",
		"city": "Harcourt, ON",
		"postCode": "K0L 1X0",
		"contact": "Shawn Heasman",
		"phone": "(705) 448-9603",
		"website": null
	},
	{
		"company": "Hardcore Renos",
		"link": "/member_directory/37073",
		"street": "4388 Sedgefield Road",
		"city": "Mississauga, ON",
		"postCode": "L5M 3B4",
		"contact": "Manny Neves",
		"phone": "416-433-5737",
		"website": null
	},
	{
		"company": "Harding Heating & Air Conditioning",
		"link": "/member_directory/35000",
		"street": "2210 Cavanmore Rd.",
		"city": "Carp, ON",
		"postCode": "K0A 1L0",
		"contact": "Richard Harding",
		"phone": "(613) 831-2257",
		"website": "http://teamhardingcomfort.com"
	},
	{
		"company": "Harding the Fireplace",
		"link": "/member_directory/35001",
		"street": "2755 Carp Rd.",
		"city": "Ottawa, ON",
		"postCode": "K0A 1L0",
		"contact": "Rob Carswell",
		"phone": "(613) 831-8789",
		"website": "http://teamhardingcomfort.com"
	},
	{
		"company": "Hariri Pontarini Architects",
		"link": "/member_directory/33882",
		"street": "602 King St. W.",
		"city": "Toronto, ON",
		"postCode": "M5V 1M6",
		"contact": "Carol Choi",
		"phone": "(416) 929-4901",
		"website": "http://hariripontarini.com"
	},
	{
		"company": "Harlequin Homes Ltd.",
		"link": "/member_directory/33623",
		"street": "52 Under Hill Cres.",
		"city": "Aurora, ON",
		"postCode": "L4G 5T1",
		"contact": "Michael McCabe",
		"phone": "(416) 771-8597",
		"website": "http://harlequinhomes.ca"
	},
	{
		"company": "Harmony Village Inc.",
		"link": "/member_directory/33026",
		"street": "3260 Sheppard Ave. E.",
		"city": "Scarborough, ON",
		"postCode": "M1T 3K3",
		"contact": "Jack Pong",
		"phone": "(416) 493-0123",
		"website": "http://harmonyvillage.ca"
	},
	{
		"company": "Harper House Contracting Ltd.",
		"link": "/member_directory/33624",
		"street": "318 Feasby Rd.",
		"city": "Uxbridge, ON",
		"postCode": "L9P 1R1",
		"contact": "Scott Harper",
		"phone": "(416) 266-7896",
		"website": null
	},
	{
		"company": "Harrigan Builders Ltd.",
		"link": "/member_directory/36631",
		"street": "P.O. Box 25",
		"city": "Val Caron, ON",
		"postCode": "P3N 1N6",
		"contact": "Al Harrigan",
		"phone": "(705) 897-6917",
		"website": "http://harrigancustomhomes.com"
	},
	{
		"company": "Harris Management Group",
		"link": "/member_directory/36848",
		"street": "P.O. Box 2302",
		"city": "Port Elgin, ON",
		"postCode": "N0H 2C0",
		"contact": "Steven Harris",
		"phone": "(519) 389-1387",
		"website": null
	},
	{
		"company": "Harris, Sheaffer LLP",
		"link": "/member_directory/33883",
		"street": "4100 Yonge St. Ste. 610, Yonge Corporate Ctr",
		"city": "Toronto, ON",
		"postCode": "M2P 2B5",
		"contact": "Stephen Karr",
		"phone": "(416) 250-5800",
		"website": "http://harris-sheaffer.com"
	},
	{
		"company": "Harvey Kalles Real Estate Ltd, Brokerage - Builder Services",
		"link": "/member_directory/33884",
		"street": "2145 Ave. Rd.",
		"city": "Toronto, ON",
		"postCode": "M5M 4B2",
		"contact": "Jeremy Finkelstein",
		"phone": "(416) 441-2888",
		"website": "http://harveykalles.com"
	},
	{
		"company": "Harwood Kitchens",
		"link": "/member_directory/36158",
		"street": "27 Lansdowne St. W",
		"city": "Peterborough, ON",
		"postCode": "K9J 1X8",
		"contact": "Charles Harwood",
		"phone": "(705) 742-6241",
		"website": "http://harwoodkitchens.com"
	},
	{
		"company": "Haslett Construction Inc.",
		"link": "/member_directory/34678",
		"street": "529 Roosevelt Ave.",
		"city": "Ottawa, ON",
		"postCode": "K2A 1Z9",
		"contact": "Robert Haslett",
		"phone": "(613) 223-9600",
		"website": "http://haslettconstruction.com"
	},
	{
		"company": "Hastings Pet Services",
		"link": "/member_directory/36252",
		"street": "421 Airport Parkway",
		"city": "Belleville, ON",
		"postCode": "K8N 4Z6",
		"contact": "Tracy Trumble",
		"phone": "(613) 966-2263",
		"website": null
	},
	{
		"company": "Havelock Metal Products",
		"link": "/member_directory/36253",
		"street": "856 Belmont 11th Line P.O. Box 253",
		"city": "Havelock, ON",
		"postCode": "K0L 1Z0",
		"contact": "Jennie Lawson",
		"phone": "(705) 639-2857",
		"website": null
	},
	{
		"company": "Hawk River Construction Ltd.",
		"link": "/member_directory/35279",
		"street": "Box 1041",
		"city": "Haliburton, ON",
		"postCode": "K0M 1S0",
		"contact": "Larry Hewitt",
		"phone": "(795) 457-1386",
		"website": null
	},
	{
		"company": "Hawksview Homes Ltd.",
		"link": "/member_directory/36756",
		"street": "550 - B1 Parkside Dr",
		"city": "Waterloo, ON",
		"postCode": "N2L 5V4",
		"contact": "David Reid",
		"phone": "(519) 669-3100",
		"website": "http://hawksviewhomes.com"
	},
	{
		"company": "Hayhoe Homes",
		"link": "/member_directory/36485",
		"street": "1 Barrie Blvd.",
		"city": "St. Thomas, ON",
		"postCode": "N5P 4B9",
		"contact": "Lesley Hutton",
		"phone": "(519) 633-2050",
		"website": "http://hayhoehomes.com"
	},
	{
		"company": "Haylacon Construction Inc.",
		"link": "/member_directory/33625",
		"street": "2050 Deer Park Rd.",
		"city": "Oakville, ON",
		"postCode": "L6M 3V6",
		"contact": "Jimmy Masovic",
		"phone": "(416) 219-5381",
		"website": null
	},
	{
		"company": "Haynes Classic Homes",
		"link": "/member_directory/35606",
		"street": "690 Innovation Dr.",
		"city": "Kingston, ON",
		"postCode": "K7K 7E7",
		"contact": "Robert Haynes",
		"phone": "(613) 389-1552",
		"website": "http://haynesclassichomes.com"
	},
	{
		"company": "Hays Specialist Recruitment (Canada) Inc.",
		"link": "/member_directory/33885",
		"street": "6 Adelaide St. E. Ste. 600",
		"city": "Toronto, ON",
		"postCode": "M5C 1H6",
		"contact": "Sean Heron",
		"phone": "(416) 367-4297",
		"website": "http://hays.com"
	},
	{
		"company": "Hayter & Associates Inc.",
		"link": "/member_directory/34301",
		"street": "320 Victoria St., Box 1147",
		"city": "Clinton, ON",
		"postCode": "N0M 1L0",
		"contact": "Glenn Hayter",
		"phone": "(519) 482-5840",
		"website": null
	},
	{
		"company": "Hayward HVAC Consulting & Design",
		"link": "/member_directory/33886",
		"street": "75 French Dr.",
		"city": "Mono, ON",
		"postCode": "L9W 6T2",
		"contact": "Terry Hayward",
		"phone": "(416) 709-7313",
		"website": "http://haywardhvacdesign.com"
	},
	{
		"company": "Healthiest Home Inc. (The)",
		"link": "/member_directory/34679",
		"street": "1523 Laperriere Ave.",
		"city": "Ottawa, ON",
		"postCode": "K1Z 7T1",
		"contact": "Tosh Serafini",
		"phone": "(613) 715-9014",
		"website": "http://thehealthiesthome.com"
	},
	{
		"company": "Hearthstone Homes",
		"link": "/member_directory/36757",
		"street": "119 Captain McCallum Dr.",
		"city": "New Hamburg, ON",
		"postCode": "N3A 0B5",
		"contact": "Louis Veenstra",
		"phone": "(519) 634-9989",
		"website": "http://hearthstonehomes.ca"
	},
	{
		"company": "Hearthstone Ridge Estates",
		"link": "/member_directory/36176",
		"street": "67 Windwhisper Dr.",
		"city": "Plainfield, ON",
		"postCode": "K0K 2V0",
		"contact": "Al Osborne",
		"phone": "(613) 969-7593",
		"website": null
	},
	{
		"company": "Heartwood Renovations",
		"link": "/member_directory/35375",
		"street": "468 Green Rd.",
		"city": "Caledonia, ON",
		"postCode": "N3W 1X3",
		"contact": "Joal Roshko",
		"phone": "(905) 902-4434",
		"website": "http://heartwoodrenovations.ca"
	},
	{
		"company": "Heathwood Group Ltd. (The)",
		"link": "/member_directory/33027",
		"street": "245 Yorkland Blvd. Ste. 100",
		"city": "Willowdale, ON",
		"postCode": "M2J 4W9",
		"contact": "Bob Finnigan",
		"phone": "(416) 490-1400",
		"website": "http://heathwood.com"
	},
	{
		"company": "Heathwood Group Ltd. (The)",
		"link": "/member_directory/34460",
		"street": "245 Yorkland Blvd",
		"city": "Toronto, ON",
		"postCode": "M2J 4W9",
		"contact": "Bob Finnigan",
		"phone": "(416) 840-8663",
		"website": "http://heathwood.com"
	},
	{
		"company": "Heavenly Heat Inc.",
		"link": "/member_directory/33389",
		"street": "207 Edgeley Blvd. Unit 6",
		"city": "Vaughan, ON",
		"postCode": "L4K 4B5",
		"contact": "Rick Laljie",
		"phone": "1-877-523-5667",
		"website": "http://heavenly-heat.com"
	},
	{
		"company": "Hedbern Homes",
		"link": "/member_directory/36398",
		"street": "323 Tiffin St.",
		"city": "Barrie, ON",
		"postCode": "L4N 5P4",
		"contact": "Shawn Still",
		"phone": "(705) 721-4612",
		"website": null
	},
	{
		"company": "Heidan Construction Ltd.",
		"link": "/member_directory/33626",
		"street": "550 Eglinton Ave. W. P.O. Box 38059",
		"city": "Toronto, ON",
		"postCode": "M5N 3A8",
		"contact": "Daniel Meirovitz",
		"phone": "(416) 543-2945",
		"website": "http://heidanconstruction.com"
	},
	{
		"company": "Heisler Homes Inc.",
		"link": "/member_directory/36758",
		"street": "256 Terrace Wood Cres",
		"city": "Kitchener, ON",
		"postCode": "N2P 2T3",
		"contact": "Tim Heisler",
		"phone": "(519) 650-9378",
		"website": "http://heislerhomes.ca"
	},
	{
		"company": "Helicon Properties Ltd.",
		"link": "/member_directory/36399",
		"street": "P.O. Box 1014",
		"city": "Barrie, ON",
		"postCode": "L4M 5E1",
		"contact": "Ron Kunce",
		"phone": "(705) 528-1115",
		"website": null
	},
	{
		"company": "Hemson Consulting Ltd.",
		"link": "/member_directory/33887",
		"street": "30 St. Patrick St. Ste. 1000",
		"city": "Toronto, ON",
		"postCode": "M5T 3A3",
		"contact": "Russell Mathew",
		"phone": "(416) 593-5090",
		"website": "http://hemson.com"
	},
	{
		"company": "Henderson Builders Ltd.",
		"link": "/member_directory/36330",
		"street": "753 Evett St.",
		"city": "Sarnia, ON",
		"postCode": "N7S 5N3",
		"contact": "Scott Henderson",
		"phone": "(519) 332-4532",
		"website": "http://hendersonbuilders.com"
	},
	{
		"company": "Henderson Developments",
		"link": "/member_directory/36177",
		"street": "22 Daniels Dr.",
		"city": "Brighton, ON",
		"postCode": "K0K 1H0",
		"contact": "Jim Waterhouse",
		"phone": "(613) 475-0197",
		"website": "http://hendersondevelopments.ca"
	},
	{
		"company": "Henley Heights Construction",
		"link": "/member_directory/35920",
		"street": "2324 Horton Ave.",
		"city": "Jordan Station, ON",
		"postCode": "L0R 1S0",
		"contact": "Laurus Sinke",
		"phone": "(905) 562-0891",
		"website": "http://henleyheights.com"
	},
	{
		"company": "Hennessey & Hogan LLP",
		"link": "/member_directory/36497",
		"street": "Suite 313 450 Sunset Drive",
		"city": "St. Thomas, ON",
		"postCode": "N5R 5V1",
		"contact": "John Hogan",
		"phone": "(519) 633-3310",
		"website": null
	},
	{
		"company": "Henry Kortekaas & Associates Inc.",
		"link": "/member_directory/34524",
		"street": "599 Liverpool Rd.",
		"city": "Pickering, ON",
		"postCode": "L1W 1R1",
		"contact": "Henry Kortekaas",
		"phone": "(905) 839-5599",
		"website": "http://hkla.ca"
	},
	{
		"company": "Heres Renovations Inc.",
		"link": "/member_directory/33627",
		"street": "2267 Bethesda Side Rd.",
		"city": "Gormley, ON",
		"postCode": "L0H 1G0",
		"contact": "Brian Heres",
		"phone": "(416) 738-1895",
		"website": "http://heresrenovations.com"
	},
	{
		"company": "Heritage Stair & Railing Co. Ltd.",
		"link": "/member_directory/35833",
		"street": "1050 Hargrieve Rd., Unit 6",
		"city": "London, ON",
		"postCode": "N6E 1P5",
		"contact": "David Brown",
		"phone": "(519) 652-2343",
		"website": "http://heritagestairandrail.com"
	},
	{
		"company": "Herod Financial Services",
		"link": "/member_directory/36109",
		"street": "403-140 King St.",
		"city": "Peterborough, ON",
		"postCode": "K9J 7Z8",
		"contact": "Kevan Herod",
		"phone": "(705) 741-5287",
		"website": "http://herodfinancial.com"
	},
	{
		"company": "Herrewynen Construction Inc.",
		"link": "/member_directory/35177",
		"street": "669 Hwy 3 W. (R.R.5)",
		"city": "Simcoe, ON",
		"postCode": "N3Y 5E4",
		"contact": "Len Herrewynen",
		"phone": "(519) 426-1779",
		"website": null
	},
	{
		"company": "Hert Inc.",
		"link": "/member_directory/35921",
		"street": "273 Welland Rd., RR5",
		"city": "Fenwick, ON",
		"postCode": "L0S 1C0",
		"contact": "Jack DeKorte",
		"phone": "(905) 892-0880",
		"website": null
	},
	{
		"company": "Hertels Plumbing Inc.",
		"link": "/member_directory/36614",
		"street": "P. O. Box 1044",
		"city": "Stratford, ON",
		"postCode": "N5A 6W4",
		"contact": "Shawn Hertel",
		"phone": "(519) 273-8040",
		"website": null
	},
	{
		"company": "Hewson Brothers Supply Ltd.",
		"link": "/member_directory/34374",
		"street": "70 Roy Blvd.",
		"city": "Brantford, ON",
		"postCode": "N3R 7K2",
		"contact": "Len Hewson",
		"phone": "(519) 752-0325",
		"website": null
	},
	{
		"company": "Heykoop Construction",
		"link": "/member_directory/34323",
		"street": "79417 Bluewater Hwy.",
		"city": "Goderich, ON",
		"postCode": "N7A 3X8",
		"contact": "Nick Heykoop",
		"phone": "(519) 525-6465",
		"website": null
	},
	{
		"company": "HGC Engineering",
		"link": "/member_directory/33888",
		"street": "2000 Argentia Rd. Plaza One, Ste. 203",
		"city": "Mississauga, ON",
		"postCode": "L5N 1P7",
		"contact": "Brian Chapnik",
		"phone": "(905) 826-4044",
		"website": "http://hgcengineering.com"
	},
	{
		"company": "Hickory Homes",
		"link": "/member_directory/36178",
		"street": "P.O. Box 6245",
		"city": "Picton, ON",
		"postCode": "K0K 2T0",
		"contact": "Kyle Den Ouden",
		"phone": "(613) 922-9276",
		"website": "http://hickoryhomes.ca"
	},
	{
		"company": "Hickory Lane Kitchens Inc.",
		"link": "/member_directory/37181",
		"street": "280 Perry St Unit #9",
		"city": "Peterborough, ON",
		"postCode": "K9J 2J4",
		"contact": "Sandy Sillaots",
		"phone": "705 742 7785",
		"website": null
	},
	{
		"company": "Hierarchy Development & Design",
		"link": "/member_directory/34828",
		"street": "1836 Maple Grove Rd.",
		"city": "Ottawa, ON",
		"postCode": "K2S 0M7",
		"contact": "John Paul S. Boisvert",
		"phone": "(613) 274-0289",
		"website": "http://hddottawa.com"
	},
	{
		"company": "Hierarchy Development & Design",
		"link": "/member_directory/35624",
		"street": "1836 Maple Grove Rd.,",
		"city": "Ottawa, ON",
		"postCode": "K2S 0M7",
		"contact": "John Paul S. Boisvert",
		"phone": "(613) 274-0289",
		"website": "http://HDDOttawa.com"
	},
	{
		"company": "Highcastle Homes/2174372 Ontario Inc.",
		"link": "/member_directory/34461",
		"street": "7600 Hwy 27 Unit 1",
		"city": "Woodbridge, ON",
		"postCode": "L4H 0P8",
		"contact": "Domenic Tassone",
		"phone": "(905) 264-5565",
		"website": "http://highcastlehomes.com"
	},
	{
		"company": "Highland Electric Heating & Air Conditioning",
		"link": "/member_directory/35280",
		"street": "Box 337",
		"city": "Minden, ON",
		"postCode": "K0M2K0",
		"contact": "Heinz Huck",
		"phone": "(705) 286-1885",
		"website": null
	},
	{
		"company": "Highland Glass & Window",
		"link": "/member_directory/37043",
		"street": "Box 629",
		"city": "Haliburton, ON",
		"postCode": "K0M 1S0",
		"contact": "Peter Zahn",
		"phone": "705 457 4527",
		"website": "http://peterszahn@me.com"
	},
	{
		"company": "Highland Restoration",
		"link": "/member_directory/34624",
		"street": "9 Commerce Rd.",
		"city": "Orangeville, ON",
		"postCode": "L9W 3X5",
		"contact": "Shane Bradley",
		"phone": "(519) 941-5511",
		"website": null
	},
	{
		"company": "Highlander Roofing And Snow Removal",
		"link": "/member_directory/36615",
		"street": "4969 Line 135,",
		"city": "Rostock, ON",
		"postCode": "N0K 1T0",
		"contact": "Curtis McLean",
		"phone": "(519) 273-2888",
		"website": null
	},
	{
		"company": "Highmark Homes Inc.",
		"link": "/member_directory/33028",
		"street": "9000 Keele St. Unit 13",
		"city": "Concord, ON",
		"postCode": "L4K 0B3",
		"contact": "Philip Lucchese",
		"phone": "(905) 760-2631",
		"website": "http://highmarkhomes.ca"
	},
	{
		"company": "Highmark Homes Inc.",
		"link": "/member_directory/34462",
		"street": "9000 Keele St., Unit 13",
		"city": "Concord, ON",
		"postCode": "L4K 0B3",
		"contact": "Joseph Messina",
		"phone": "(905) 760-2631",
		"website": "http://highmarkhomes.ca"
	},
	{
		"company": "Highstar Building Inc.",
		"link": "/member_directory/33029",
		"street": "331 Cityview Blvd. Ste. 100",
		"city": "Vaughan, ON",
		"postCode": "L4H 3M3",
		"contact": "Rudy Trevisan",
		"phone": "(905) 832-7010",
		"website": "http://highstar.ca"
	},
	{
		"company": "Hightower Homes Corporation",
		"link": "/member_directory/33030",
		"street": "326 Pinehurst Dr.",
		"city": "Oakville, ON",
		"postCode": "L6J 4Y5",
		"contact": "Ivan Curic",
		"phone": "(416) 523-8473",
		"website": "http://hightowerhomes.ca"
	},
	{
		"company": "Hilden Homes Ltd.",
		"link": "/member_directory/36179",
		"street": "393 Sidney St.",
		"city": "Belleville, ON",
		"postCode": "K8P 3Z9",
		"contact": "Eric DenOuden",
		"phone": "(613) 962-4600",
		"website": "http://hildenhomes.com"
	},
	{
		"company": "Hilton Disposal & Demolition Ltd.",
		"link": "/member_directory/34213",
		"street": "125 Edilcan Dr.",
		"city": "Concord, ON",
		"postCode": "L4K 3S6",
		"contact": "Robert Abballe",
		"phone": "(905) 738-7979",
		"website": "http://hiltondisposal.ca"
	},
	{
		"company": "HIP Developments Inc. (Melloul-Blamey Construction)",
		"link": "/member_directory/35086",
		"street": "700 Rupert St.",
		"city": "Waterloo, ON",
		"postCode": "N2V 2B5",
		"contact": "Scott Higgins",
		"phone": "(519) 886-8850",
		"website": null
	},
	{
		"company": "HireSmart Human Resources",
		"link": "/member_directory/34829",
		"street": "303 Moodie Dr.  2nd Flr. P.O. Box 8",
		"city": "Ottawa, ON",
		"postCode": "K2H 9R4",
		"contact": "Patricia Cutler",
		"phone": "(613) 252-3360",
		"website": "http://hiresmarthr.com"
	},
	{
		"company": "History Hill Group",
		"link": "/member_directory/33031",
		"street": "8700 Dufferin St.",
		"city": "Concord, ON",
		"postCode": "L4K 4S6",
		"contact": "Angelo Baldassarra",
		"phone": "(416) 736-9978",
		"website": "http://historyhillgroup.com"
	},
	{
		"company": "HN Homes",
		"link": "/member_directory/34680",
		"street": "2209 Arch St.",
		"city": "Ottawa, ON",
		"postCode": "K1G 2H5",
		"contact": "George Georgaras",
		"phone": "(613) 260-8818",
		"website": "http://hnhomes.com"
	},
	{
		"company": "Hoffmeyers - Ogilvies Planing Mill Ltd.",
		"link": "/member_directory/36588",
		"street": "Box 70, 189 Huron Rd.",
		"city": "Sebringville, ON",
		"postCode": "N0K 1X0",
		"contact": "Reg Ogilvie",
		"phone": "(519) 393-5101",
		"website": null
	},
	{
		"company": "Holden Truss",
		"link": "/member_directory/35270",
		"street": "P.O. Box 1052",
		"city": "Haliburton, ON",
		"postCode": "K0M 1S0",
		"contact": "Kirk Holden",
		"phone": "1-800-668-5635",
		"website": null
	},
	{
		"company": "Holitzner Custom Homes Ltd.",
		"link": "/member_directory/34681",
		"street": "580 Terry Fox Dr., Suite 401",
		"city": "Kanata, ON",
		"postCode": "K2L 4B9",
		"contact": "Carmen Fleguel",
		"phone": "(613) 831-3484",
		"website": "http://holitzner.com"
	},
	{
		"company": "Holland Homes Inc.",
		"link": "/member_directory/37151",
		"street": "36 Millville Ave",
		"city": "Hampton, ON",
		"postCode": "L0B 1J0",
		"contact": "Ryan Holland",
		"phone": "905 263 8888",
		"website": null
	},
	{
		"company": "Hollandale Nurseries Ltd.",
		"link": "/member_directory/36254",
		"street": "16662 County Rd. 2",
		"city": "Trenton, ON",
		"postCode": "K8V 6S3",
		"contact": "Rhonda Parker Boers",
		"phone": "(613) 392-7806",
		"website": null
	},
	{
		"company": "Holman Communications Inc.",
		"link": "/member_directory/33889",
		"street": "5155 Spectrum Way Ste. 33",
		"city": "Mississauga, ON",
		"postCode": "L4W 5A1",
		"contact": "Allan Holman",
		"phone": "(416) 540-2756",
		"website": "http://holmancommunications.com"
	},
	{
		"company": "Home Art Building Group Ltd.",
		"link": "/member_directory/33628",
		"street": "1490 Rogerswood Crt.",
		"city": "Mississauga, ON",
		"postCode": "L5J 1R6",
		"contact": "Artur Schellenberg",
		"phone": "(416) 888-0265",
		"website": "http://home-art.ca"
	},
	{
		"company": "Home Corp Services Inc.",
		"link": "/member_directory/33390",
		"street": "80 Bass Pro Mills Dr. Unit 5",
		"city": "Vaughan, ON",
		"postCode": "L4K 5W9",
		"contact": "Robert Teti",
		"phone": "(905) 660-8886",
		"website": "http://homecorpservices.com"
	},
	{
		"company": "Home Decor Centre",
		"link": "/member_directory/33890",
		"street": "7330 Yonge St. Ste. 100",
		"city": "Thornhill, ON",
		"postCode": "L4J 7Y7",
		"contact": "Corey Libfeld",
		"phone": "(905) 709-8655",
		"website": "http://myhomedecorcentre.com"
	},
	{
		"company": "Home Decor Window & Door Centre",
		"link": "/member_directory/33391",
		"street": "15 Connie Cres. Unit 21",
		"city": "Concord, ON",
		"postCode": "L4K 1L3",
		"contact": "Tony DeBartolo",
		"phone": "(905) 760-8350",
		"website": "http://homedecorwindowsanddoors.com"
	},
	{
		"company": "Home Depot (The)",
		"link": "/member_directory/36255",
		"street": "210 Bell Blvd.",
		"city": "Belleville, ON",
		"postCode": "K8P 2H6",
		"contact": "Stewart Henderson",
		"phone": "(613) 961-5340",
		"website": null
	},
	{
		"company": "Home Depot (The)",
		"link": "/member_directory/35502",
		"street": "3050 Davidson Crt.",
		"city": "Burlington, ON",
		"postCode": "L7M 4M9",
		"contact": "Harry DeFelice",
		"phone": "(905) 331-1700",
		"website": "http://thehomedepot.com"
	},
	{
		"company": "Home Editions Ltd.",
		"link": "/member_directory/33629",
		"street": "126 W.minster Ave.",
		"city": "Toronto, ON",
		"postCode": "M6R 1N5",
		"contact": "Dennis Benoit",
		"phone": "(416) 410-7844",
		"website": "http://homeeditions.com"
	},
	{
		"company": "Home Hardware Building Centre",
		"link": "/member_directory/36899",
		"street": "34 Henry St. W.",
		"city": "St. Jacobs, ON",
		"postCode": "N0B 2N0",
		"contact": "Alec Thompson",
		"phone": "(519) 664-4612",
		"website": "http://homehardware.com"
	},
	{
		"company": "Home Hardware Building Centre",
		"link": "/member_directory/36050",
		"street": "1147 dundas St. E.",
		"city": "Woodstock, ON",
		"postCode": "N4S 8W3",
		"contact": "John Lamprea",
		"phone": "(519) 421-0484",
		"website": null
	},
	{
		"company": "Home Hardware Building Centre",
		"link": "/member_directory/36345",
		"street": "1272 London Rd.",
		"city": "Sarnia, ON",
		"postCode": "N7S 1P5",
		"contact": "Paul Kleinsmith",
		"phone": "(519) 337-5426",
		"website": "http://homehardware.ca/en/dealer-microsites/1707-3/contact-information.htm"
	},
	{
		"company": "Home Hardware Building Centre ",
		"link": "/member_directory/35834",
		"street": "1780 Dundas St. E.",
		"city": "London, ON",
		"postCode": "N5W 3E5",
		"contact": "Bosko Rados",
		"phone": "(519) 659-5185",
		"website": "http://homehardware.ca"
	},
	{
		"company": "Home Inspectors Group Inc. (The)",
		"link": "/member_directory/33891",
		"street": "22 Rose Way",
		"city": "Markham, ON",
		"postCode": "L3P 3V1",
		"contact": "Steve Ramoul",
		"phone": "(416) 276-2706",
		"website": "http://thehomeinspectorsgroup.com"
	},
	{
		"company": "Home Insulation",
		"link": "/member_directory/34214",
		"street": "967 Edgeley Blvd.",
		"city": "Concord, ON",
		"postCode": "L4K 5Z4",
		"contact": "Bill Asaro",
		"phone": "(905) 761-0844",
		"website": "http://homeinsulation.ca"
	},
	{
		"company": "Home Reno Direct",
		"link": "/member_directory/37074",
		"street": "6555 Falconer Dr Unit 136",
		"city": "Mississauga, ON",
		"postCode": "L5N 3N6",
		"contact": "Remon Hanoun",
		"phone": "905 819 0387",
		"website": null
	},
	{
		"company": "Home Trust Company - Retail Credit Services",
		"link": "/member_directory/37094",
		"street": "145 King St W Suite 2500",
		"city": "Toronto, ON",
		"postCode": "M5H 1J8",
		"contact": "Nishant Shah",
		"phone": "888-763-0002",
		"website": null
	},
	{
		"company": "Homecastle",
		"link": "/member_directory/37167",
		"street": "535 First St",
		"city": "London, ON",
		"postCode": "N5V 1Z5",
		"contact": "Jim Versteegh",
		"phone": null,
		"website": "http://homecastle.ca"
	},
	{
		"company": "Homefront Realty Coldwell Banker Brokerage",
		"link": "/member_directory/34354",
		"street": "245 King George Rd.",
		"city": "Brantford, ON",
		"postCode": "N3R 7N7",
		"contact": "Michelle Amey",
		"phone": "(519) 756-8120",
		"website": null
	},
	{
		"company": "HomeLife / Aurora Realty Ltd.",
		"link": "/member_directory/33892",
		"street": "P.O Box 215",
		"city": "Newmarket, ON",
		"postCode": "L3Y 4X1",
		"contact": "Angela Orsi",
		"phone": "(905) 778-1550",
		"website": null
	},
	{
		"company": "Homelife / Metropark Realty Inc.",
		"link": "/member_directory/33893",
		"street": "8700 Dufferin St.",
		"city": "Concord, ON",
		"postCode": "L4K 4S6",
		"contact": "Marino Farano",
		"phone": "(416) 798-7705",
		"website": "http://metroparkrealty.com"
	},
	{
		"company": "HomePoint Webware",
		"link": "/member_directory/33894",
		"street": "35 Coles Ave.",
		"city": "Woodbridge, ON",
		"postCode": "L4L 1L8",
		"contact": "Carmine Coletti",
		"phone": "(416) 735-2276",
		"website": "http://hpwebware.com"
	},
	{
		"company": "Homes by DayCor",
		"link": "/member_directory/36400",
		"street": "2C Penetanguishene Rd.",
		"city": "Barrie, ON",
		"postCode": "L4M 4R9",
		"contact": "Bob Graves",
		"phone": "(705) 792-0580",
		"website": "http://homesbydaycore.com"
	},
	{
		"company": "Homes By DeSantis Inc.",
		"link": "/member_directory/35922",
		"street": "461 Green Rd.",
		"city": "Stoney Creek, ON",
		"postCode": "L8E 5B4",
		"contact": "Serina Carbone",
		"phone": "(905) 664-7288",
		"website": "http://homesbydesantis.com"
	},
	{
		"company": "Homes By DeSantis Inc.",
		"link": "/member_directory/35309",
		"street": "461 Green Rd.",
		"city": "Stoney Creek, ON",
		"postCode": "L8E 5B4",
		"contact": "Gabriel DeSantis",
		"phone": "(905) 664-7288",
		"website": "http://homesbydesantis.com"
	},
	{
		"company": "Homes By Hendriks",
		"link": "/member_directory/35923",
		"street": "4618 Sandy Cove Dr.",
		"city": "Beamsville, ON",
		"postCode": "L0R 1B1",
		"contact": "Darren Hendriks",
		"phone": "(905) 563-7681",
		"website": "http://homesbyhendriks.com"
	},
	{
		"company": "HOMES Publishing Group",
		"link": "/member_directory/33895",
		"street": "178 Main St.",
		"city": "Unionville, ON",
		"postCode": "L3R 2G9",
		"contact": "Michael Rosset",
		"phone": "(905) 479-4663",
		"website": "http://homespublishinggroup.com"
	},
	{
		"company": "Homes Publishing Group",
		"link": "/member_directory/34525",
		"street": "178 Main St.",
		"city": "Unionville, ON",
		"postCode": "L3R 2G9",
		"contact": "Michael Rosset",
		"phone": "(905) 479-4663",
		"website": "http://homesmag.com"
	},
	{
		"company": "HomeScope Residential Construction Management Ltd.",
		"link": "/member_directory/34753",
		"street": "1500 Bank St. Suite 415",
		"city": "Ottawa, ON",
		"postCode": "K1H 1B8",
		"contact": "Jim Levie",
		"phone": "(613) 447-2971",
		"website": "http://homescopeottawa.com"
	},
	{
		"company": "Homesol Building Solutions",
		"link": "/member_directory/34830",
		"street": "53 Herriott St Suite 202 B",
		"city": "Perth, ON",
		"postCode": "K7H 1A0",
		"contact": "Ross Elliott",
		"phone": "(613) 466-0664",
		"website": "http://homesol.ca"
	},
	{
		"company": "Homespec Inspections",
		"link": "/member_directory/35193",
		"street": "14 O&apos;Mahoney Rd.",
		"city": "Simcoe, ON",
		"postCode": "N3Y 4K4",
		"contact": "Pat deRulter",
		"phone": "(519) 428-3687",
		"website": null
	},
	{
		"company": "HomesPlus Magazine",
		"link": "/member_directory/36849",
		"street": "160 Frobisher Dr. Unit 6",
		"city": "Waterloo, ON",
		"postCode": "N2V 2B1",
		"contact": "Greg Crawford",
		"phone": "(519) 725-1631",
		"website": "http://buysellimprove.com"
	},
	{
		"company": "Homestead Land Holding Ltd.",
		"link": "/member_directory/35607",
		"street": "80 Johnson St.",
		"city": "Kingston, ON",
		"postCode": "K7L 1X7",
		"contact": "Paul Ireland",
		"phone": "(613) 546-0584",
		"website": "http://homestead.ca"
	},
	{
		"company": "Honeyfield Communities",
		"link": "/member_directory/33032",
		"street": "333 Humberline Dr.",
		"city": "Rexdale, ON",
		"postCode": "M9W 5X3",
		"contact": "Alfio Manarin",
		"phone": "(416) 675-4174",
		"website": "http://honeyfield.ca"
	},
	{
		"company": "Horizon Utilities Corporation",
		"link": "/member_directory/35412",
		"street": "55 John St. N. PO Box 2249 Stn LCD",
		"city": "Hamilton, ON",
		"postCode": "L8N 3E4",
		"contact": "Kathy Lerette",
		"phone": "(905) 317-4721",
		"website": "http://horizonutilities.com"
	},
	{
		"company": "Horizon Utilities Corporation",
		"link": "/member_directory/35994",
		"street": "55 John St. N.",
		"city": "Hamilton, ON",
		"postCode": "L8R 3M8",
		"contact": "Kathy Lerette",
		"phone": "(905) 317-4721",
		"website": "http://horizonutilities.com"
	},
	{
		"company": "Horseshoe Ridge Homes",
		"link": "/member_directory/33033",
		"street": "1101 Horseshoe Valley Rd. Ste. 50",
		"city": "Barrie, ON",
		"postCode": "L4M 4Y8",
		"contact": "Julie Boville",
		"phone": "(705) 835-9300",
		"website": "http://horseshoeridgehomes.com"
	},
	{
		"company": "Horton and Horton Legal Services",
		"link": "/member_directory/35066",
		"street": "P.O. Box 787",
		"city": "Owen Sound, ON",
		"postCode": "N4K 5W9",
		"contact": "Ted Horton",
		"phone": "(519) 371-0316",
		"website": null
	},
	{
		"company": "Horton's Concrete Finishing",
		"link": "/member_directory/35072",
		"street": "R. R. #2",
		"city": "Chatsworth, ON",
		"postCode": "N0H 1G0",
		"contact": "Kelly Horton",
		"phone": "(519) 794-4601",
		"website": null
	},
	{
		"company": "Hotwire Electric",
		"link": "/member_directory/34215",
		"street": "60 Basaltic Rd. Ste. 20",
		"city": "Vaughan, ON",
		"postCode": "L4K 1G7",
		"contact": "Hanna Taylor",
		"phone": "(416) 553-5533",
		"website": "http://hotwire-electric.com"
	},
	{
		"company": "House of Fine Carpentry",
		"link": "/member_directory/35002",
		"street": "5 - 790 Industrial Ave.",
		"city": "Ottawa, ON",
		"postCode": "K1G 4H3",
		"contact": "Paul St. Germain",
		"phone": "(613) 736-9930",
		"website": "http://houseoffinecarpentry.com"
	},
	{
		"company": "House Tune Up",
		"link": "/member_directory/33630",
		"street": "3274 Victoria St.",
		"city": "Oakville, ON",
		"postCode": "L6L 5R3",
		"contact": "Maciej Falger",
		"phone": "(416) 837-5242",
		"website": "http://housetuneup.ca"
	},
	{
		"company": "Housing Lab Toronto",
		"link": "/member_directory/33896",
		"street": "90 Stadium Rd. TH117",
		"city": "Toronto, ON",
		"postCode": "M5V 3W5",
		"contact": "Jeanhy Shim",
		"phone": "(416) 738-0448",
		"website": "http://housinglabtoronto.com"
	},
	{
		"company": "Howick Homes Ltd.",
		"link": "/member_directory/36369",
		"street": "77 Centre St. P.O. Box 128",
		"city": "Wroxeter, ON",
		"postCode": "N0G 2X0",
		"contact": "George Oriold",
		"phone": "(519) 335-3156",
		"website": "http://howickhomes.com"
	},
	{
		"company": "Hub International (Gamble Ins)",
		"link": "/member_directory/36341",
		"street": "265 Exmouth St.",
		"city": "Sarnia, ON",
		"postCode": "N7T 5M7",
		"contact": "Cam Shipley",
		"phone": "519 332 4081",
		"website": "http://gamble-ins.com"
	},
	{
		"company": "Hucker Floor Coverings",
		"link": "/member_directory/36357",
		"street": "1383 Confederation St.",
		"city": "Sarnia, ON",
		"postCode": "N7S 5P1",
		"contact": "Charlie Hucker",
		"phone": "(519) 337-3743",
		"website": "http://huckerfloorcoverings.com"
	},
	{
		"company": "Hudson Doors",
		"link": "/member_directory/35835",
		"street": "990 Pond Mills Rd. Unit B",
		"city": "London, ON",
		"postCode": "N6N 1A2",
		"contact": "Darren Hagan",
		"phone": "(519) 668-3016",
		"website": "http://doors-plus.ca"
	},
	{
		"company": "Hullmark Developments Inc.",
		"link": "/member_directory/33034",
		"street": "495 King St. W. 2nd Flr.",
		"city": "Toronto, ON",
		"postCode": "M5V 1K4",
		"contact": "Jeff Hull",
		"phone": "(416) 510-1700",
		"website": "http://hullmark.ca"
	},
	{
		"company": "Hummel Properties",
		"link": "/member_directory/35924",
		"street": "329 Creek Rd.",
		"city": "St. Davids, ON",
		"postCode": "L0S 1J0",
		"contact": "Pam Cupola",
		"phone": "(905) 262-0346",
		"website": "http://pavcdevelopments.ca"
	},
	{
		"company": "Humphries Planning Group Inc.",
		"link": "/member_directory/33897",
		"street": "216 Chrislea Rd. Ste. 103",
		"city": "Woodbridge, ON",
		"postCode": "L4L 8S5",
		"contact": "Rosemarie Humphries",
		"phone": "(905) 264-7678",
		"website": "http://humphriesplanning.com"
	},
	{
		"company": "Hunke Construction Inc.",
		"link": "/member_directory/36817",
		"street": "1177 Trussler Rd",
		"city": "Kitchener, ON",
		"postCode": "N2R 1S7",
		"contact": "Jason Hunke",
		"phone": "(519) 745-7495",
		"website": "http://hunkeconstruction.com"
	},
	{
		"company": "Hunt Club Valley Inc.",
		"link": "/member_directory/36759",
		"street": "2000 Garth St., Suite 201",
		"city": "Hamilton, ON",
		"postCode": "L9B 0C1",
		"contact": "Ian Rawlings",
		"phone": "(905) 667-8800",
		"website": "http://starwardhomes.com"
	},
	{
		"company": "Hunt Design Associates",
		"link": "/member_directory/33898",
		"street": "8966 Woodbine Ave. Ste. 200",
		"city": "Markham, ON",
		"postCode": "L3R 0J7",
		"contact": "Stephen Hunt",
		"phone": "(905) 737-5133",
		"website": "http://huntdesign.ca"
	},
	{
		"company": "Hunt Homes",
		"link": "/member_directory/36036",
		"street": "P.O. Box 20145",
		"city": "Woodstock, ON",
		"postCode": "N4S 8X8",
		"contact": "Steve Hunt",
		"phone": "(519) 539-2262",
		"website": "http://hunthomes.ca"
	},
	{
		"company": "Hunter Douglas Canada Inc.",
		"link": "/member_directory/33392",
		"street": "132 First Gulf Blvd.",
		"city": "Brampton, ON",
		"postCode": "L6W 4T7",
		"contact": "Sue Rainville",
		"phone": "(905) 796-7883",
		"website": "http://hunterdouglas.com"
	},
	{
		"company": "Hunter Steel Sales",
		"link": "/member_directory/36589",
		"street": "500 Lorne Ave., P.O. Box 456",
		"city": "Stratford, ON",
		"postCode": "N5A 6T7",
		"contact": "Chris Carr",
		"phone": "(519) 273-3151",
		"website": null
	},
	{
		"company": "Huntington General Inc.",
		"link": "/member_directory/33631",
		"street": "6-6150 Highway 7 Ste. 4308",
		"city": "Woodbridge, ON",
		"postCode": "L4H 0R6",
		"contact": "Jerry Caringi",
		"phone": "(647) 258-9315",
		"website": "http://huntingtongeneralinc.ca"
	},
	{
		"company": "Huntingwood Developments Ltd.",
		"link": "/member_directory/33035",
		"street": "152 Dalemount Ave.",
		"city": "Toronto, ON",
		"postCode": "M6B 3C9",
		"contact": "Edward Weisz",
		"phone": "(416) 844-4423",
		"website": null
	},
	{
		"company": "Huron Contractors",
		"link": "/member_directory/35751",
		"street": "246 Hazelton Lane",
		"city": "Exeter, ON",
		"postCode": "N0M 1S3",
		"contact": "Dean Ducharme",
		"phone": "(519) 235-4726",
		"website": "http://huroncontractors.ca"
	},
	{
		"company": "Huron Creek Developments",
		"link": "/member_directory/37157",
		"street": "216 Brant Rd",
		"city": "St George, ON",
		"postCode": "N0E 1E0",
		"contact": "Rick Martins",
		"phone": "226 802 0536",
		"website": null
	},
	{
		"company": "Husson Ltd.",
		"link": "/member_directory/33899",
		"street": "1725 16th Ave. Ste. 103",
		"city": "Richmond Hill, ON",
		"postCode": "L4B 4C6",
		"contact": "Paul Husson",
		"phone": "(905) 709-5825",
		"website": "http://husson.ca"
	},
	{
		"company": "Hutchinson Homes and Renovations",
		"link": "/member_directory/36379",
		"street": "3602 Joseph St.",
		"city": "Cornwall, ON",
		"postCode": "K6K 1V1",
		"contact": "Jamie Hutchinson",
		"phone": "(613) 938-2585",
		"website": null
	},
	{
		"company": "Hutchinson, Thompson, Henderson & Mott",
		"link": "/member_directory/33900",
		"street": "264 Main St. E.",
		"city": "Milton, ON",
		"postCode": "L9T 1P2",
		"contact": "Howard Mott",
		"phone": "(905) 878-2841",
		"website": "http://lawmilton.com"
	},
	{
		"company": "HVAC Designs Ltd.",
		"link": "/member_directory/33901",
		"street": "65 Church St. S.",
		"city": "Ajax, ON",
		"postCode": "L1S 6A7",
		"contact": "Michael O&apos;Rourke",
		"phone": "(905) 420-5300",
		"website": "http://hvacdesigns.ca"
	},
	{
		"company": "Hyde Construction Ltd.",
		"link": "/member_directory/36531",
		"street": "P.O. Box 1010, 89 Lorne Ave. E.",
		"city": "Stratford, ON",
		"postCode": "N5A 6W4",
		"contact": "Peter Hyde",
		"phone": "(519) 271-1771",
		"website": null
	},
	{
		"company": "Hyde Park Fine Wholesale Cabinets",
		"link": "/member_directory/35503",
		"street": "4087 Harvester Rd. Units 3&amp;4",
		"city": "Burlington, ON",
		"postCode": "L7L 5M3",
		"contact": "Dan Miller",
		"phone": "(905) 639-1099",
		"website": "http://hydeparkcabinets.com"
	},
	{
		"company": "Hyde Park Properties Inc.",
		"link": "/member_directory/33036",
		"street": "3655 Keele St.",
		"city": "Toronto, ON",
		"postCode": "M3J 1M8",
		"contact": "Antoinette Benedetto",
		"phone": "(416) 638-6300",
		"website": null
	},
	{
		"company": "Hydro One Network Services Inc.",
		"link": "/member_directory/34560",
		"street": "913 Crawford Dr.",
		"city": "Peterborough, ON",
		"postCode": "K9J 3X1",
		"contact": "Todd Stone",
		"phone": "(905) 623-1071",
		"website": "http://hydroone.com"
	},
	{
		"company": "Hydro One Network Services Inc.",
		"link": "/member_directory/34910",
		"street": "636 St. Lawrence St.  P.O. Box 400",
		"city": "Winchester, ON",
		"postCode": "K0C 2K0",
		"contact": "Michele Finney",
		"phone": "(613) 774-4120",
		"website": "http://hydroone.com"
	},
	{
		"company": "Hydro One Networks Services Inc.",
		"link": "/member_directory/36654",
		"street": "957 Falconbridge Rd.",
		"city": "Sudbury, ON",
		"postCode": "P3A 5K8",
		"contact": "Claude Legault",
		"phone": "(705) 566-8955",
		"website": "http://hydroone.com"
	},
	{
		"company": "Hydro Ottawa",
		"link": "/member_directory/34911",
		"street": "1970 Merivale Rd.",
		"city": "Ottawa, ON",
		"postCode": "K2G 6Y9",
		"contact": "Keith McRoberts",
		"phone": "(613) 738-6400",
		"website": "http://hydroottawa.com"
	},
	{
		"company": "I.K.O. Industries Ltd.",
		"link": "/member_directory/36900",
		"street": "80 Stafford Rd",
		"city": "Brampton, ON",
		"postCode": "L6W 1L4",
		"contact": "Jeff Tessaro",
		"phone": "1-800-268-0878",
		"website": "http://iko.com"
	},
	{
		"company": "Iacobelli Construction",
		"link": "/member_directory/36331",
		"street": "1928 Blackwell Rd.",
		"city": "Sarnia, ON",
		"postCode": "N7T 7H4",
		"contact": "Frank Iacobelli",
		"phone": "(519) 542-9645",
		"website": "http://iacobelliconstruction.ca/html/residential/home.html"
	},
	{
		"company": "Ian A. R. Graham, Planning Consultant Ltd.",
		"link": "/member_directory/33902",
		"street": "34B McMurrich St.",
		"city": "Toronto, ON",
		"postCode": "M5R 2A2",
		"contact": "Ian Graham",
		"phone": "(416) 440-0073",
		"website": null
	},
	{
		"company": "IBI Group",
		"link": "/member_directory/34831",
		"street": "333 Preston St., Suite 400",
		"city": "Ottawa, ON",
		"postCode": "K1S 5N4",
		"contact": "Demetrius Yannoulopoulos",
		"phone": "(613) 225-1311",
		"website": "http://ibigroup.com"
	},
	{
		"company": "IBI Group",
		"link": "/member_directory/34355",
		"street": "246 Brant Ave.",
		"city": "Brantford, ON",
		"postCode": "N3T 3J5",
		"contact": "Odete Gomes",
		"phone": "(519) 759-8788",
		"website": null
	},
	{
		"company": "IBI Group",
		"link": "/member_directory/35413",
		"street": "360 James St N Suite 200 E. Wing",
		"city": "Hamilton, ON",
		"postCode": "L8L 1H5",
		"contact": "John Ariens",
		"phone": "(905) 546-1010",
		"website": "http://ibigroup.com"
	},
	{
		"company": "IBI Group",
		"link": "/member_directory/35925",
		"street": "360 James St. N., Ste 200",
		"city": "Hamilton, ON",
		"postCode": "L8L 1H5",
		"contact": "John Ariens",
		"phone": "(905)- 546-1010",
		"website": "http://ibigroup.com"
	},
	{
		"company": "IBI Group",
		"link": "/member_directory/33903",
		"street": "55 St. Clair Ave. W. 7th Flr.",
		"city": "Toronto, ON",
		"postCode": "M4V 2Y7",
		"contact": "Audrey Jacob",
		"phone": "(416) 596-1930",
		"website": "http://ibigroup.com"
	},
	{
		"company": "IBI Group",
		"link": "/member_directory/35777",
		"street": "350 Oxford St. W. Suite 203",
		"city": "London, ON",
		"postCode": "N6H 1T3",
		"contact": "Joe Heyninck",
		"phone": "(519) 472-7328",
		"website": "http://ibigroup.com"
	},
	{
		"company": "IBI Group",
		"link": "/member_directory/36558",
		"street": "Waterloo Technology Campus, 410 Albert St..",
		"city": "Kitchener, ON",
		"postCode": "N2L 3V3",
		"contact": "Stephen Morriss",
		"phone": "(519) 585-2255",
		"website": null
	},
	{
		"company": "IBI Group",
		"link": "/member_directory/36850",
		"street": "Waterloo Technology Campus 410 Albert St. Ste. 101",
		"city": "Waterloo, ON",
		"postCode": "N2L 3V3",
		"contact": "Betty White",
		"phone": "(519) 585-2255",
		"website": "http://ibigroup.com"
	},
	{
		"company": "Icon Homes",
		"link": "/member_directory/33037",
		"street": "70 Don Park Rd. Unit 15",
		"city": "Markham, ON",
		"postCode": "L3R 1G4",
		"contact": "Corey Brown",
		"phone": "(905) 470-8227",
		"website": "http://iconhomes.com"
	},
	{
		"company": "Iconic Realty Inc.",
		"link": "/member_directory/37075",
		"street": "3800 Steeles Ave West Unit 400",
		"city": "Vaughan, ON",
		"postCode": "L4L 4G9",
		"contact": "Pino Allevato",
		"phone": "416-623-7521",
		"website": null
	},
	{
		"company": "Icynene",
		"link": "/member_directory/33393",
		"street": "6747 Campobello Rd.",
		"city": "Mississauga, ON",
		"postCode": "L5N 2L7",
		"contact": "Bruce Young",
		"phone": "(905) 363-4040",
		"website": "http://icynene.com"
	},
	{
		"company": "ID Integrated Marketing Corporation",
		"link": "/member_directory/33904",
		"street": "42 Unicorn Ave.",
		"city": "Toronto, ON",
		"postCode": "M2K 2L4",
		"contact": "Ryan Gale",
		"phone": "(416) 277-5244",
		"website": "http://idintegrated.com"
	},
	{
		"company": "Ideal Combustion",
		"link": "/member_directory/35003",
		"street": "68-5450 Canotek Rd.",
		"city": "Gloucester, ON",
		"postCode": "K1J 9G5",
		"contact": "Greg Hiebert",
		"phone": "(613) 747-8454",
		"website": "http://idealcombustion.com"
	},
	{
		"company": "Ideal Railings Ltd.",
		"link": "/member_directory/33394",
		"street": "3076 Lenworth Dr.",
		"city": "Mississauga, ON",
		"postCode": "L4X 2G1",
		"contact": "Michael Romanin",
		"phone": "(905) 206-9674",
		"website": "http://idealrailings.com"
	},
	{
		"company": "Ideal Supply Co. Ltd.",
		"link": "/member_directory/36590",
		"street": "400 Lorne Ave.",
		"city": "Stratford, ON",
		"postCode": "N5A 6S4",
		"contact": "Dave Dubrick",
		"phone": "(519) 273-0650",
		"website": null
	},
	{
		"company": "Identity Developments Inc.",
		"link": "/member_directory/33038",
		"street": "345 Horner Ave. Ste. 100",
		"city": "Toronto, ON",
		"postCode": "M8W 1Z6",
		"contact": "Domenic Santaguida",
		"phone": "(416) 252-6767",
		"website": "http://identitydevelopments.ca"
	},
	{
		"company": "IKO Industries Ltd.",
		"link": "/member_directory/35357",
		"street": "71 Orenda Rd.",
		"city": "Brampton, ON",
		"postCode": "L6W 1V8",
		"contact": "Jeff Tessaro",
		"phone": "1-800-268-0878",
		"website": "http://iko.com"
	},
	{
		"company": "IKO Industries Ltd.",
		"link": "/member_directory/36135",
		"street": "71 Orenda Road",
		"city": "Brampton, ON",
		"postCode": "L6W 1V8",
		"contact": "James Bradburn",
		"phone": "(705) 760-5560",
		"website": null
	},
	{
		"company": "IKO Industries Ltd.",
		"link": "/member_directory/33395",
		"street": "71 Orenda Rd.",
		"city": "Brampton, ON",
		"postCode": "L6W 1V8",
		"contact": "Rob Davidson",
		"phone": "(905) 457-2880",
		"website": "http://iko.com"
	},
	{
		"company": "IKO Industries Ltd.",
		"link": "/member_directory/36256",
		"street": "71 Orenda Rd.",
		"city": "Brampton, ON",
		"postCode": "L6W 1V8",
		"contact": "James Bradburn",
		"phone": "(705) 760-5560",
		"website": null
	},
	{
		"company": "Imperial Park Developments Ltd.",
		"link": "/member_directory/33039",
		"street": "5690 Steeles Ave. W.",
		"city": "Vaughan, ON",
		"postCode": "L4L 9T4",
		"contact": "Harrison Sadr",
		"phone": "(416) 875-3824",
		"website": "http://imperialparkdevelopments.com"
	},
	{
		"company": "Imperial Trim Supply & Installation Ltd.",
		"link": "/member_directory/33396",
		"street": "421 Rowntree Dairy Rd. Unit 1",
		"city": "Woodbridge, ON",
		"postCode": "L4L 8H1",
		"contact": "Joe Ceccarelli",
		"phone": "(905) 851-5030",
		"website": "http://imperialtrim.com"
	},
	{
		"company": "Impresscrete",
		"link": "/member_directory/36289",
		"street": "R. R. #2, P.O. Box 285",
		"city": "Carrying Place, ON",
		"postCode": "K0K 1L0",
		"contact": "John Kuipers",
		"phone": "(613) 392-5039",
		"website": null
	},
	{
		"company": "Improve Inc.",
		"link": "/member_directory/33397",
		"street": "2180 Steeles Ave. W. Unit 3",
		"city": "Vaughan, ON",
		"postCode": "L4K 2Z8",
		"contact": "Oleg Chekhter",
		"phone": "1-877-875-1112",
		"website": "http://improvecanada.com"
	},
	{
		"company": "In-Sink-Erator (Canada)",
		"link": "/member_directory/35358",
		"street": "306 Town Centre Blvd.",
		"city": "Markham, ON",
		"postCode": "L3R 0Y6",
		"contact": "David Coffey",
		"phone": "(905) 948-3362",
		"website": "http://insinkerator.com"
	},
	{
		"company": "IN2ITION Realty",
		"link": "/member_directory/33905",
		"street": "465 Burnhamthorpe Rd. W. Ste. 200",
		"city": "Mississauga, ON",
		"postCode": "L5B 0E3",
		"contact": "Debbie Cosic",
		"phone": "(905) 286-5270",
		"website": "http://in2ition.ca"
	},
	{
		"company": "Incredible Printing Co. Inc.",
		"link": "/member_directory/33398",
		"street": "30 St. Regis Cres. N.",
		"city": "North York, ON",
		"postCode": "M3J 1Z2",
		"contact": "Mendl Schwartz",
		"phone": "(416) 630-5200",
		"website": "http://incredibleprinting.com"
	},
	{
		"company": "Independent Energy Services",
		"link": "/member_directory/36708",
		"street": "2869 White St.",
		"city": "Val Caron, ON",
		"postCode": "P3N 1B2",
		"contact": "Jody Villeneuve",
		"phone": "(705) 897-3334",
		"website": "http://independentenergyservices.com"
	},
	{
		"company": "Infinity Custom Homes",
		"link": "/member_directory/34463",
		"street": "863 Matterhorn St.",
		"city": "Oshawa, ON",
		"postCode": "L1K 2M5",
		"contact": "Emidio DiPalo",
		"phone": "(905) 261-7318",
		"website": null
	},
	{
		"company": "Infinity Home & Vacuum",
		"link": "/member_directory/35376",
		"street": "5435 Jacada Rd.",
		"city": "Burlington, ON",
		"postCode": "L7L 7N3",
		"contact": "Panos Caltsounzs",
		"phone": "(289) 288-1021",
		"website": "http://infinityvacuumandhome.com"
	},
	{
		"company": "Informa Canada",
		"link": "/member_directory/33906",
		"street": "10 Alcorn Ave. Ste. 100",
		"city": "Toronto, ON",
		"postCode": "M4V 3A9",
		"contact": "Sarah Segal",
		"phone": "(416) 512-3809",
		"website": "http://informacanada.com"
	},
	{
		"company": "Infrastructure Ontario",
		"link": "/member_directory/33907",
		"street": "1 Dundas St. W.",
		"city": "Toronto, ON",
		"postCode": "M5G 2L5",
		"contact": "David Macey",
		"phone": "(416) 326-7845",
		"website": "http://infrastructureontario.ca"
	},
	{
		"company": "Innisfil Air Conditioning",
		"link": "/member_directory/36468",
		"street": "565 Welham Rd.,",
		"city": "Barrie, ON",
		"postCode": "L4M 6E7",
		"contact": "Chris Luchkiw",
		"phone": "(705) 739-9541",
		"website": null
	},
	{
		"company": "Innocon",
		"link": "/member_directory/33399",
		"street": "50 Newkirk Rd.",
		"city": "Richmond Hill, ON",
		"postCode": "L4C 3G3",
		"contact": "Bahee Sooriyakumar",
		"phone": "(647) 228-9009",
		"website": "http://innocon.on.ca"
	},
	{
		"company": "Innovative Electrical Contracting Inc.",
		"link": "/member_directory/35004",
		"street": "2523 Brickland Dr.",
		"city": "Cumberland, ON",
		"postCode": "K4C 1R8",
		"contact": "Michael Gurklys",
		"phone": "(613) 833-1644",
		"website": null
	},
	{
		"company": "InSinkErator Canada",
		"link": "/member_directory/33400",
		"street": "306 Town Centre Blvd. 4th Flr.",
		"city": "Markham, ON",
		"postCode": "L3R 0Y6",
		"contact": "David Coffey",
		"phone": "(905) 948-3400",
		"website": "http://insinkerator.ca"
	},
	{
		"company": "InSinkErator Canada",
		"link": "/member_directory/35836",
		"street": "306 Town Centre Blvd.",
		"city": "Markham, ON",
		"postCode": "L3R 0Y6",
		"contact": "David Coffey",
		"phone": "(905) 948-3362",
		"website": null
	},
	{
		"company": "InSite Realty Corp.",
		"link": "/member_directory/33908",
		"street": "17 Gristmill Lane",
		"city": "Toronto, ON",
		"postCode": "M5A 3C4",
		"contact": "Janice Mackie",
		"phone": "(416) 485-2374",
		"website": "http://insitetoronto.com"
	},
	{
		"company": "Insoho Developments Inc.",
		"link": "/member_directory/33040",
		"street": "35 Alvin Ave.",
		"city": "Toronto, ON",
		"postCode": "M4T 2A7",
		"contact": "Ronald Herczeg",
		"phone": "(416) 920-8880",
		"website": "http://insohodevelopments.com"
	},
	{
		"company": "InspirDEN Designs Inc.",
		"link": "/member_directory/33909",
		"street": "31 Bobolink Ave.",
		"city": "Toronto, ON",
		"postCode": "M1X 1Y6",
		"contact": "Godfrey De Freitas",
		"phone": "(416) 895-1697",
		"website": "http://inspirdendesigns.com"
	},
	{
		"company": "Inspire Homes Inc.",
		"link": "/member_directory/33632",
		"street": "7550 Mill Lane",
		"city": "Caledon, ON",
		"postCode": "L7E 0M7",
		"contact": "Lou Orazem",
		"phone": "(416) 765-2020",
		"website": "http://inspirehomes.ca"
	},
	{
		"company": "Inspired Drapes + Budget Blinds of South East Toronto",
		"link": "/member_directory/33401",
		"street": "283 Danforth Ave. Ste. 483",
		"city": "Toronto, ON",
		"postCode": "M4K 1N2",
		"contact": "Karen Pemberton",
		"phone": "(416) 243-0007",
		"website": "http://budgetblinds.com/southeasttoronto"
	},
	{
		"company": "Inspired Mortgage Management Solutions",
		"link": "/member_directory/35414",
		"street": "392 John St.",
		"city": "Burlington, ON",
		"postCode": "L7R 2K4",
		"contact": "Tina Fattore",
		"phone": "(905) 635-9074",
		"website": "http://imms-mortgage.com"
	},
	{
		"company": "Insta Insulation",
		"link": "/member_directory/34392",
		"street": "R. R. # 1",
		"city": "Scotland, ON",
		"postCode": "N0E 1R0",
		"contact": "Bruce Jackson",
		"phone": "(519) 443-4951",
		"website": null
	}
]