[
	{
		"company": "1 Riser Designs",
		"link": "/member_directory/33730",
		"street": "1681 Langstaff Rd. Unit 1A",
		"city": "Concord, ON",
		"postCode": "L4K 5T3",
		"contact": "Ian Robertson",
		"phone": "(905) 669-2111",
		"website": "http://1riser.com"
	},
	{
		"company": "1 Riser Designs",
		"link": "/member_directory/34511",
		"street": "1681 Langstaff Rd",
		"city": "Vaughan, ON",
		"postCode": "L4K 5T3",
		"contact": "Ian Robertson",
		"phone": "(905) 669-2111",
		"website": "http://1riser.com"
	},
	{
		"company": "1-800-NEW-ROOF Canada",
		"link": "/member_directory/34964",
		"street": "206 - 73 William St.",
		"city": "Ottawa, ON",
		"postCode": "K1N 7A4",
		"contact": "Brad DeFazio",
		"phone": "1-800-639-7663",
		"website": "http://1800newroof.ca"
	},
	{
		"company": "1796730 Ontario Ltd.",
		"link": "/member_directory/36719",
		"street": "277 Hwy 527",
		"city": "Shuniah, ON",
		"postCode": "P7A 0N4",
		"contact": "Stephanie Sorensen",
		"phone": "(807) 768-2934",
		"website": null
	},
	{
		"company": "1867 Confederation Log Homes",
		"link": "/member_directory/36118",
		"street": "P.O. Box 9",
		"city": "Bobcaygeon, ON",
		"postCode": "K0M 1A0",
		"contact": "Rich Kinsman",
		"phone": "(705) 738-5131",
		"website": null
	},
	{
		"company": "1st Choice Home Solutions Inc.",
		"link": "/member_directory/35739",
		"street": "P.O. Box 231",
		"city": "Dorchester, ON",
		"postCode": "N0L 1G0",
		"contact": "Glen Chard",
		"phone": "(519) 268-6331",
		"website": "http://1stchoicehs.ca"
	},
	{
		"company": "21 Degrees, A Union Energy Company",
		"link": "/member_directory/36274",
		"street": "44 Hwy #33",
		"city": "Trenton, ON",
		"postCode": "K8V 5P6",
		"contact": "Kevin Dentremont",
		"phone": "(613) 392-6558",
		"website": null
	},
	{
		"company": "2722682 Canada Inc.",
		"link": "/member_directory/34965",
		"street": "Box 15, 4285 Boundary Rd.",
		"city": "Carlsbad Springs, ON",
		"postCode": "K0A 1K0",
		"contact": "Peter St.Jacques",
		"phone": "(613) 822-0250",
		"website": null
	},
	{
		"company": "2H Interior Design",
		"link": "/member_directory/34781",
		"street": "139 Spruce St.",
		"city": "Ottawa, ON",
		"postCode": "K1R 6P1",
		"contact": "Danielle Hannah",
		"phone": "(613) 729-3044",
		"website": "http://2hinteriordesign.com"
	},
	{
		"company": "4 Star Drywall Ltd.",
		"link": "/member_directory/34134",
		"street": "115 Sharer Rd. Unit 1",
		"city": "Woodbridge, ON",
		"postCode": "L4L 8Z3",
		"contact": "Robert Pirocchi",
		"phone": "(905) 660-9676",
		"website": "http://4stardrywall.ca"
	},
	{
		"company": "52 Pick-up Inc.",
		"link": "/member_directory/33731",
		"street": "672 Dupont St. Ste. 314",
		"city": "Toronto, ON",
		"postCode": "M6G 1Z6",
		"contact": "Susan McIntee",
		"phone": "(416) 537-5200",
		"website": "http://52pick-up.com"
	},
	{
		"company": "637899 Ontario Inc. FM Audio Video",
		"link": "/member_directory/35189",
		"street": "213 King George Rd.",
		"city": "Brantford, ON",
		"postCode": "N3R 6S8",
		"contact": "Greg Forrest",
		"phone": "(519) 753-7006",
		"website": null
	},
	{
		"company": "843326 Ontario Ltd.",
		"link": "/member_directory/33732",
		"street": "3636 Bathurst St. PH 4",
		"city": "Toronto, ON",
		"postCode": "M6A 2Y5",
		"contact": "Joseph Hayeems",
		"phone": "(416) 225-1009",
		"website": null
	},
	{
		"company": "89 Electric Ltd",
		"link": "/member_directory/37205",
		"street": "3049 Hwy 69 N Unit 2",
		"city": "Val Caron, ON",
		"postCode": "P3N 1R8",
		"contact": "Troy Troscinski",
		"phone": "705 588 3016",
		"website": null
	},
	{
		"company": "@homeEnergy",
		"link": "/member_directory/36648",
		"street": "500 Regent St.",
		"city": "Sudbury, ON",
		"postCode": "P3E 4P1",
		"contact": "Victoria Davis",
		"phone": "(705) 675-0525",
		"website": "http://athomeenergy.ca"
	},
	{
		"company": "A & A Custom Homes and Renovations Inc.",
		"link": "/member_directory/33540",
		"street": "19 Malaren Rd.",
		"city": "Vaughan, ON",
		"postCode": "L6A 1E5",
		"contact": "Artur Harutyunyan",
		"phone": "1-855-228-6736",
		"website": "http://aacustomhomes.ca"
	},
	{
		"company": "A & B Bulat Homes Ltd.",
		"link": "/member_directory/34650",
		"street": "11 Gifford St., Suite 202",
		"city": "Nepean, ON",
		"postCode": "K2E 7S3",
		"contact": "Ankica Bulat",
		"phone": "(613) 723-1008",
		"website": "http://bulathomes.com"
	},
	{
		"company": "A & B Precast Mfg. Ltd.",
		"link": "/member_directory/36230",
		"street": "R.R. #5",
		"city": "Belleville, ON",
		"postCode": "K8N 4Z5",
		"contact": "Charles Buckley",
		"phone": "(613) 962-9111",
		"website": null
	},
	{
		"company": "A & E Ceramic Tile & Marble Ltd.",
		"link": "/member_directory/36231",
		"street": "101 College St. W.",
		"city": "Belleville, ON",
		"postCode": "K8P 2G3",
		"contact": "Elvis Leonarduzzi",
		"phone": "(613) 966-2767",
		"website": null
	},
	{
		"company": "A & J Energy Consultants",
		"link": "/member_directory/33733",
		"street": "78 Wood St.",
		"city": "Kitchener, ON",
		"postCode": "N2G 2H6",
		"contact": "Al Schmidt",
		"phone": "(519) 896-1059",
		"website": "http://ajenergyconsultants.com"
	},
	{
		"company": "A & J Ferreira Homes",
		"link": "/member_directory/36015",
		"street": "343 Airport Rd.",
		"city": "North Bay, ON",
		"postCode": "P1B 8W8",
		"contact": "Tony Ferreira",
		"phone": "(705) 476-7044",
		"website": null
	},
	{
		"company": "A & J Home Hardware Ltd.",
		"link": "/member_directory/36663",
		"street": "469 Bouchard St.",
		"city": "Sudbury, ON",
		"postCode": "P3E 2K8",
		"contact": "Arnel Michel",
		"phone": "(705) 522-3780",
		"website": null
	},
	{
		"company": "A Village Fireplace Shop Ltd.",
		"link": "/member_directory/36352",
		"street": "PO Box 880, 623 BRd.way St.",
		"city": "Wyoming, ON",
		"postCode": "N0N 1T0",
		"contact": "Tina Neville",
		"phone": "(519) 845-9915",
		"website": "http://villagefireplaceshop.com"
	},
	{
		"company": "A-1 Flooring Canada, St. Catharines",
		"link": "/member_directory/36005",
		"street": "166 Bunting Rd.",
		"city": "St. Catharines, ON",
		"postCode": "L2M 3Y1",
		"contact": "Chantal Visi",
		"phone": "(905) 688-9200",
		"website": null
	},
	{
		"company": "A-1 Railing Ltd.",
		"link": "/member_directory/33279",
		"street": "14 Melanie Dr. Unit 7 &amp; 8",
		"city": "Brampton, ON",
		"postCode": "L6T 4L3",
		"contact": "Bruno Camacho",
		"phone": "(905) 792-2498",
		"website": "http://a-1railings.com"
	},
	{
		"company": "A-1 Siding and Windows",
		"link": "/member_directory/35559",
		"street": "325 Barton St. Unit 1",
		"city": "Stoney Creek, ON",
		"postCode": "L8E 2K8",
		"contact": "Jakov Ojvan",
		"phone": "(905) 662-5757",
		"website": null
	},
	{
		"company": "A-Plus Air",
		"link": "/member_directory/36006",
		"street": "110-1100 S. Service Rd.",
		"city": "Stoney Creek, ON",
		"postCode": "L8E 0C5",
		"contact": "Steve Brogan",
		"phone": "(905) 385-6450",
		"website": "http://aplusair.ca"
	},
	{
		"company": "A. Belsito Construction Ltd.",
		"link": "/member_directory/32858",
		"street": "48 Pike Rd.",
		"city": "Oakville, ON",
		"postCode": "L6H 6C3",
		"contact": "Heather Belsito",
		"phone": "(905) 257-6740",
		"website": "http://belsitohomes.ca"
	},
	{
		"company": "A. Brown Construction",
		"link": "/member_directory/33541",
		"street": "49 Norval St.",
		"city": "Toronto, ON",
		"postCode": "M6N 3Z1",
		"contact": "Aubrey Brown",
		"phone": "(416) 766-9892",
		"website": "http://abrownconstruction.ca"
	},
	{
		"company": "A. DeSantis Developments Ltd.",
		"link": "/member_directory/35288",
		"street": "8 Main St. E. Suite 202",
		"city": "Hamilton, ON",
		"postCode": "L8N 1E8",
		"contact": "Anthony DeSantis Jr.",
		"phone": "(905) 777-0252",
		"website": "http://desantis.com"
	},
	{
		"company": "A. Lifetime Contractor Ltd.",
		"link": "/member_directory/33542",
		"street": "73 Railside Rd. Unit 5",
		"city": "Toronto, ON",
		"postCode": "M3A 1B2",
		"contact": "Sandra Baldwin",
		"phone": "(416) 483-2151",
		"website": "http://lifetimecontractor.com"
	},
	{
		"company": "A. Mazzucco Construction",
		"link": "/member_directory/33543",
		"street": "369 Bering Ave.",
		"city": "Toronto, ON",
		"postCode": "M8Z 3B1",
		"contact": "Joseph Mazzucco",
		"phone": "(416) 207-0388",
		"website": "http://amazzucco.on.ca"
	},
	{
		"company": "A. Potvin Construction Ltd.",
		"link": "/member_directory/34966",
		"street": "P.O. Box 969, 8850 County Rd.",
		"city": "Rockland, ON",
		"postCode": "K4K 1L6",
		"contact": "Charles Carriere",
		"phone": "(613) 446-5181",
		"website": "http://potvinconst.com"
	},
	{
		"company": "A.C.E. Cleaning Services",
		"link": "/member_directory/35563",
		"street": "46 Rosemore Rd.",
		"city": "St. Catharines, ON",
		"postCode": "L2S 1B2",
		"contact": "Lori Page",
		"phone": "(905) 359-3728",
		"website": "http://acecleaning.ca"
	},
	{
		"company": "A.D.C. Aluminum Contracting Ltd.",
		"link": "/member_directory/34135",
		"street": "16 Spinnaker Way Unit 16",
		"city": "Concord, ON",
		"postCode": "L4K 2T8",
		"contact": "Domenic De Cesare",
		"phone": "(905) 669-1172",
		"website": "http://adcaluminum.com"
	},
	{
		"company": "A.E. Murphy Forming Ltd.",
		"link": "/member_directory/35659",
		"street": "R.R. #1",
		"city": "Balderson, ON",
		"postCode": "K0G 1A0",
		"contact": "Alan Murphy",
		"phone": "(613) 267-9982",
		"website": null
	},
	{
		"company": "A.J. Clarke and Associates Ltd.",
		"link": "/member_directory/35387",
		"street": "25 Main St. W. Suite 300",
		"city": "Hamilton, ON",
		"postCode": "L8P 1H1",
		"contact": "Adi Irani",
		"phone": "(905) 528-8761",
		"website": "http://ajclarke.com"
	},
	{
		"company": "A.J. Vanderzalm-Custom Builder",
		"link": "/member_directory/35910",
		"street": "2827 Effingham Rd., R.R. #1",
		"city": "St. Catharines, ON",
		"postCode": "L2R 6P7",
		"contact": "Arnold Vanderzalm",
		"phone": "(905) 685-1393",
		"website": "http://arnoldvanderzalm.com"
	},
	{
		"company": "A.N.T. Construction",
		"link": "/member_directory/36386",
		"street": "950 Shoreview Dr.",
		"city": "Innisfil, ON",
		"postCode": "L9S 5A7",
		"contact": "Wayne Ezekiel",
		"phone": "(705) 431-2268",
		"website": null
	},
	{
		"company": "A.T. McLaren Ltd., Legal and Engineering Surveys",
		"link": "/member_directory/35388",
		"street": "69 John St. S. Suite 230",
		"city": "Hamilton, ON",
		"postCode": "L8N 2B9",
		"contact": "Dan McLaren",
		"phone": "(905) 527-8559",
		"website": null
	},
	{
		"company": "Aable Construction Ltd.",
		"link": "/member_directory/34967",
		"street": "2430 Delzotto Ave.",
		"city": "Gloucester, ON",
		"postCode": "K1T 3V7",
		"contact": "Dominic Giampaolo",
		"phone": "(613) 822-0731",
		"website": null
	},
	{
		"company": "AallstoneGranite",
		"link": "/member_directory/35208",
		"street": "35 Henry St., Unit 8",
		"city": "Brantford, ON",
		"postCode": "N3R 1Z9",
		"contact": "Michael Coulter",
		"phone": "(519) 759-7776",
		"website": "http://aallstone.com"
	},
	{
		"company": "Aareas Interactive Inc.",
		"link": "/member_directory/33734",
		"street": "1120 Finch Ave. W. Ste. 300",
		"city": "Toronto, ON",
		"postCode": "M3J 3H7",
		"contact": "Frank Guido",
		"phone": "(416) 661-2244",
		"website": "http://aareas.com"
	},
	{
		"company": "Aarts Trucking",
		"link": "/member_directory/35765",
		"street": "2517 Fanshawe Park Rd. E.",
		"city": "London, ON",
		"postCode": "N5X 4A1",
		"contact": "Ryan Declercq",
		"phone": "(519) 455-1988",
		"website": "http://aartstrucking.ca"
	},
	{
		"company": "AB Renovations UnLtd.",
		"link": "/member_directory/33544",
		"street": "26 Warden Lane",
		"city": "Stouffville, ON",
		"postCode": "L4A 7X5",
		"contact": "Brian D&apos;Souza",
		"phone": "(416) 809-5025",
		"website": "http://abreno.com"
	},
	{
		"company": "AB8 Group Ltd.",
		"link": "/member_directory/32859",
		"street": "45 Dunloe Rd.",
		"city": "Toronto, ON",
		"postCode": "M5P 2T5",
		"contact": "Arash Beheshti",
		"phone": "(416) 919-2222",
		"website": "http://ab8group.ca"
	},
	{
		"company": "Abacus Architect Inc.",
		"link": "/member_directory/33735",
		"street": "51 Roysun Rd. Unit 1",
		"city": "Woodbridge, ON",
		"postCode": "L4L 8P9",
		"contact": "Mike Suriano",
		"phone": "(905) 264-5524",
		"website": null
	},
	{
		"company": "Abbey Road Contracting",
		"link": "/member_directory/35352",
		"street": "1173 Hwy 6, RR 2",
		"city": "Flamborough, ON",
		"postCode": "L8N 2Z7",
		"contact": "Ben Janicki",
		"phone": "(905) 547-9727",
		"website": "http://abbeyroadcontracting.com"
	},
	{
		"company": "Abbotsford Homes Ltd.",
		"link": "/member_directory/35289",
		"street": "209 Colleen Cres.",
		"city": "Ancaster, ON",
		"postCode": "L9G 1J2",
		"contact": "Charlie Campbell",
		"phone": "(905) 648-2073",
		"website": null
	},
	{
		"company": "Aberdeen Homes",
		"link": "/member_directory/36727",
		"street": "20 Crestview Place",
		"city": "Kitchener, ON",
		"postCode": "N2B 0A2",
		"contact": "Nathan Hallman",
		"phone": "(519) 744-1991",
		"website": "http://aberdeenhomes.ca"
	},
	{
		"company": "Able Rental & Supply",
		"link": "/member_directory/36664",
		"street": "885 Lapointe St.",
		"city": "Sudbury, ON",
		"postCode": "P3A 5N8",
		"contact": "Terry Morin",
		"phone": "(705) 525-2253",
		"website": null
	},
	{
		"company": "Abode Home Building Inc.",
		"link": "/member_directory/33545",
		"street": "570 Wellington St. W. Ste. 5B",
		"city": "Toronto, ON",
		"postCode": "M5V 2X5",
		"contact": "Jesse Sargent",
		"phone": "(416) 689-7473",
		"website": "http://abodebuildinginc.com"
	},
	{
		"company": "Above All Building",
		"link": "/member_directory/35594",
		"street": "1052 Gardiners Rd.",
		"city": "Kingston, ON",
		"postCode": "K7P 1R7",
		"contact": "Dane Sabourin",
		"phone": "(613) 767-6852",
		"website": "http://aboveallcustomhomes.ca"
	},
	{
		"company": "Absolute Contracting Inc.",
		"link": "/member_directory/35366",
		"street": "2254 Kilbride St.",
		"city": "Burlington, ON",
		"postCode": "L7P 0J4",
		"contact": "James Smith",
		"phone": "(905) 320-4080",
		"website": "http://absolutecontracting.biz"
	},
	{
		"company": "Absolute Exterior Solutions",
		"link": "/member_directory/35878",
		"street": "131 Consortium Ct.",
		"city": "London, ON",
		"postCode": "N6E 2S8",
		"contact": "Jerome Fabian",
		"phone": "(519) 852-6521",
		"website": "http://absoluteroofing.ca"
	},
	{
		"company": "Absolute Home Creations",
		"link": "/member_directory/35367",
		"street": "2186 Mountain Grove Ave. Suite #403",
		"city": "Burlington, ON",
		"postCode": "L7P 2J3",
		"contact": "Peter Glover",
		"phone": "(905) 570-1881",
		"website": "http://absolutehomecreations.com"
	},
	{
		"company": "Absolute Home Creations",
		"link": "/member_directory/35740",
		"street": "131 Constortium Crt.",
		"city": "London, ON",
		"postCode": "N6E 1S8",
		"contact": "Peter Glover",
		"phone": "(519) 852-6521",
		"website": "http://absolutehomecreations.com"
	},
	{
		"company": "Abtron Automation (2014) Inc.",
		"link": "/member_directory/36603",
		"street": "44 Griffith Rd. W.",
		"city": "Stratford, ON",
		"postCode": "N5A 6S4",
		"contact": "Jeff Diebolt",
		"phone": "(519) 273-4315",
		"website": "http://abtronautomation.com"
	},
	{
		"company": "Accell Roofing Inc.",
		"link": "/member_directory/35741",
		"street": "76 Byron Ave. E.",
		"city": "London, ON",
		"postCode": "N6C 1C7",
		"contact": "John Acton",
		"phone": "(519) 434-0571",
		"website": "http://accellroofing.ca"
	},
	{
		"company": "Access Electric",
		"link": "/member_directory/36150",
		"street": "1377 Holloway Dr.",
		"city": "Peterborough, ON",
		"postCode": "K9J 6G1",
		"contact": "Doug Peachey",
		"phone": "(705) 750-7858",
		"website": null
	},
	{
		"company": "Accubuilt Construction Ltd",
		"link": "/member_directory/34501",
		"street": "1122 Brock St. S.",
		"city": "Whitby, ON",
		"postCode": "L1N 4L9",
		"contact": "Manuel DeSousa",
		"phone": "(905) 430-0655",
		"website": "http://accubuilt.ca"
	},
	{
		"company": "Accuflo Plumbing Solutions Inc.",
		"link": "/member_directory/34136",
		"street": "68 Heather Dr.",
		"city": "Richmond Hill, ON",
		"postCode": "L4E 0N1",
		"contact": "Peter Szymansky",
		"phone": "(416) 614-2228",
		"website": "http://accuflosolutions.com"
	},
	{
		"company": "ACI Survey Consultants Inc.",
		"link": "/member_directory/36822",
		"street": "582 Frederick St.",
		"city": "Kitchener, ON",
		"postCode": "N2B 2A9",
		"contact": "Larry Hrivnak",
		"phone": "(519) 578-2220",
		"website": "http://landsurveyor.ca"
	},
	{
		"company": "Acorn Development Corporation (The)",
		"link": "/member_directory/32860",
		"street": "3520 Pharmacy Ave. Ste. 2",
		"city": "Scarborough, ON",
		"postCode": "M1W 2T8",
		"contact": "Joseph Durante",
		"phone": "(416) 499-4900",
		"website": "http://acornhomes.ca"
	},
	{
		"company": "Acorn Developments",
		"link": "/member_directory/36728",
		"street": "80 S.gate Dr.",
		"city": "Guelph, ON",
		"postCode": "N1G 4P5",
		"contact": "Pete Graham",
		"phone": "(519) 827-1023",
		"website": "http://acorndevelopments.ca"
	},
	{
		"company": "Acrytec Panel Industries",
		"link": "/member_directory/37132",
		"street": "40 Gaudaur Road",
		"city": "Woodridge, ON",
		"postCode": "L4L 4S6",
		"contact": "Bruno Matteo",
		"phone": "905 326 3749",
		"website": null
	},
	{
		"company": "Activa Holdings Inc.",
		"link": "/member_directory/36729",
		"street": "55 Columbia St. E., Suite 1",
		"city": "Waterloo, ON",
		"postCode": "N2J 4N7",
		"contact": "Peter Armbruster",
		"phone": "(519) 886-9400",
		"website": "http://activagroup.ca"
	},
	{
		"company": "Active Engineering",
		"link": "/member_directory/35799",
		"street": "24 Thomas Janes Dr.",
		"city": "London, ON",
		"postCode": "N6J 2N9",
		"contact": "Cliff Boyle",
		"phone": "(519) 870-6988",
		"website": "http://activeengineering.com"
	},
	{
		"company": "Adbro Forming Ltd.",
		"link": "/member_directory/34968",
		"street": "110 W.hunt Dr.",
		"city": "Carp, ON",
		"postCode": "K0A 1L0",
		"contact": "David Brown",
		"phone": "(613) 831-0970",
		"website": null
	},
	{
		"company": "Adeo Contracting Ltd.",
		"link": "/member_directory/34137",
		"street": "11904 Woodbine Ave. S.",
		"city": "Gormley, ON",
		"postCode": "L0H 1G0",
		"contact": "Ernie Ortino",
		"phone": "(905) 887-4544",
		"website": null
	},
	{
		"company": "ADH Canada Inc.",
		"link": "/member_directory/33546",
		"street": "8108 Yonge St. Ste. 212",
		"city": "Thornhill, ON",
		"postCode": "L4J 1W4",
		"contact": "Farzad Sodagar",
		"phone": "(905) 513-7876",
		"website": "http://adhcanada.com"
	},
	{
		"company": "ADhoc Studio",
		"link": "/member_directory/33736",
		"street": "825 Denison St. Ste. 3",
		"city": "Markham, ON",
		"postCode": "L3R 5E4",
		"contact": "Tim Ng",
		"phone": "(905) 944-9300",
		"website": "http://adhocstudio.ca"
	},
	{
		"company": "Adi Development Group Inc.",
		"link": "/member_directory/32861",
		"street": "4190 S. Service Rd. Ste. 200",
		"city": "Burlington, ON",
		"postCode": "L7L 4X5",
		"contact": "Rosanna Di Carlo",
		"phone": "(905) 592-1140",
		"website": "http://adidevelopments.com"
	},
	{
		"company": "Adi Development Group Inc.",
		"link": "/member_directory/35290",
		"street": "4190 S. Service Rd. Suite 200",
		"city": "Burlington, ON",
		"postCode": "L7L 4X5",
		"contact": "Tariq Adi",
		"phone": "(905) 592-1140",
		"website": "http://adidevelopments.com"
	},
	{
		"company": "Adison Construction",
		"link": "/member_directory/36339",
		"street": "755 Manor Park",
		"city": "Sarnia, ON",
		"postCode": "N7T 4L7",
		"contact": "Aaron Jamieson",
		"phone": "(519) 381-8474",
		"website": null
	},
	{
		"company": "ADT Security Services",
		"link": "/member_directory/34875",
		"street": "14 Concourse Gate Ste. 100",
		"city": "Ottawa, ON",
		"postCode": "K2E 7S6",
		"contact": "Stephane Messier",
		"phone": "(613) 222-1037",
		"website": "http://adt.ca"
	},
	{
		"company": "ADT Security Systems",
		"link": "/member_directory/37177",
		"street": "298 Brock St",
		"city": "Ganonoque, ON",
		"postCode": "K7G 1K4",
		"contact": "Richard Makin",
		"phone": "613 328 7289",
		"website": null
	},
	{
		"company": "Advance Marble & Granite Ltd.",
		"link": "/member_directory/33280",
		"street": "157 Toryork Dr.",
		"city": "Toronto, ON",
		"postCode": "M9L 1X9",
		"contact": "Nicolas Gosselin",
		"phone": "(416) 748-0800",
		"website": "http://advancemarble.com"
	},
	{
		"company": "Advance Tile & Floor Covering Toronto Ltd.",
		"link": "/member_directory/34138",
		"street": "89 Edilcan Dr.",
		"city": "Concord, ON",
		"postCode": "L4K 3S6",
		"contact": "Jim DeAngelis",
		"phone": "(416) 630-1960",
		"website": "http://advancetile.com"
	},
	{
		"company": "Advanced Air",
		"link": "/member_directory/36604",
		"street": "1080 Erie St.",
		"city": "Stratford, ON",
		"postCode": "N5A 6S4",
		"contact": "Rick Everett",
		"phone": "(519) 271-0755",
		"website": null
	},
	{
		"company": "Advantage Flooring Inc",
		"link": "/member_directory/34876",
		"street": "340 Riversedge Cres.",
		"city": "Ottawa, ON",
		"postCode": "K1V 0Y6",
		"contact": "Jay Behl",
		"phone": "(613) 627-3887",
		"website": "http://advantagefloor.com"
	},
	{
		"company": "Aeon Sodding Corp.",
		"link": "/member_directory/34139",
		"street": "50 Gwendolen Cres.",
		"city": "Toronto, ON",
		"postCode": "M2N 2L7",
		"contact": "Adriel Ortino",
		"phone": "(647) 712-2336",
		"website": "http://aeonsodding.com"
	},
	{
		"company": "Aeroseal by GreenHome",
		"link": "/member_directory/35800",
		"street": "2083 W.point Heights",
		"city": "London, ON",
		"postCode": "N6P 0A2",
		"contact": "Morgan McKay",
		"phone": "(519) 200-1237",
		"website": "http://aerosealbygreenhome.com"
	},
	{
		"company": "Affordable Woodworking Inc.",
		"link": "/member_directory/33547",
		"street": "160 Finchdene Square Unit 15",
		"city": "Toronto, ON",
		"postCode": "M1X 1B2",
		"contact": "Richard Zedzian",
		"phone": "(416) 831-6741",
		"website": "http://affordablewoodworking.com"
	},
	{
		"company": "AGA Marvel",
		"link": "/member_directory/37089",
		"street": "6900 Airport Rd Unit 205",
		"city": "Mississauga, ON",
		"postCode": "L4V 1E8",
		"contact": "Tanya Watters",
		"phone": "855-213-2785",
		"website": null
	},
	{
		"company": "Agent Realty Pro Inc. Brokerage",
		"link": "/member_directory/35766",
		"street": "620 Richmond St.",
		"city": "London, ON",
		"postCode": "N6A 5J9",
		"contact": "Jason Sims",
		"phone": "(519) 640-1900",
		"website": "http://agentrealty.com"
	},
	{
		"company": "AGM Surveying - Engineering",
		"link": "/member_directory/35767",
		"street": "3515 White Oak Rd.",
		"city": "London, ON",
		"postCode": "N6E 2Z9",
		"contact": "Bruce Baker",
		"phone": "(519) 685-5300",
		"website": "http://agm.on.ca"
	},
	{
		"company": "AGT Products Inc.",
		"link": "/member_directory/33281",
		"street": "2311 Royal Windsor Dr. Unit 2",
		"city": "Mississauga, ON",
		"postCode": "L5J 1K5",
		"contact": "Rob Treml",
		"phone": "(905) 491-3882",
		"website": "http://dricore.com"
	},
	{
		"company": "Ainley Group",
		"link": "/member_directory/36193",
		"street": "45 S. Front St.",
		"city": "Belleville, ON",
		"postCode": "K8N 2Y5",
		"contact": "Lois Ann Hayes",
		"phone": "(613) 966-4243",
		"website": null
	},
	{
		"company": "Air 1 One Mechanical Services Inc",
		"link": "/member_directory/34877",
		"street": "2283 Richardson Side Rd.",
		"city": "Carp, ON",
		"postCode": "K0A 1L0",
		"contact": "Duane Stever",
		"phone": "(613) 831-6811",
		"website": "http://airone.ca"
	},
	{
		"company": "Air Crafters Inc.",
		"link": "/member_directory/35135",
		"street": "12 Woodland Glen Dr.",
		"city": "Guelph, ON",
		"postCode": "N1G 3P8",
		"contact": "Jean-Guy Marchand",
		"phone": "(519) 400-6549",
		"website": null
	},
	{
		"company": "Aird & Berlis LLP",
		"link": "/member_directory/33737",
		"street": "181 Bay St., Brookfield Place Ste. 1800, Box 754",
		"city": "Toronto, ON",
		"postCode": "M5J 2T9",
		"contact": "Patricia Foran",
		"phone": "(416) 865-1500",
		"website": "http://airdberlis.com"
	},
	{
		"company": "Airex Inc.",
		"link": "/member_directory/33282",
		"street": "5 Sandhill Crt. Unit C",
		"city": "Brampton, ON",
		"postCode": "L6T 5J5",
		"contact": "Enzo Iantorno",
		"phone": "(905) 790-8667",
		"website": "http://airex.ca"
	},
	{
		"company": "Airia Brands Inc. (Lifebreath)",
		"link": "/member_directory/35801",
		"street": "511 McCormick Blvd.",
		"city": "London, ON",
		"postCode": "N5W 4C8",
		"contact": "Paul Manning",
		"phone": "(519) 457-1904",
		"website": "http://lifebreath.com"
	},
	{
		"company": "Airia Manufacturing Inc/ Lifebreath",
		"link": "/member_directory/37055",
		"street": "511 McCormick Blvd",
		"city": "London, ON",
		"postCode": "N5W 4V8",
		"contact": "Chatal Poirier",
		"phone": "613-327-2935",
		"website": "http://supplier"
	},
	{
		"company": "Airmax Technologies",
		"link": "/member_directory/33283",
		"street": "209 Citation Dr. Unit 5 &amp; 6",
		"city": "Concord, ON",
		"postCode": "L4K 2Y8",
		"contact": "Jack Van Beurden",
		"phone": "(905) 264-1414",
		"website": "http://airmaxtechnologies.com"
	},
	{
		"company": "Aito Solutions Inc.",
		"link": "/member_directory/37069",
		"street": "56 The Esplanade, Unit 205",
		"city": "Toronto, ON",
		"postCode": "M5E 1A6",
		"contact": "David Baker",
		"phone": "416-450-5452",
		"website": null
	},
	{
		"company": "AJD Construction Group Inc.",
		"link": "/member_directory/33548",
		"street": "25 Riverstone Crt.",
		"city": "Sharon, ON",
		"postCode": "L0G 1V0",
		"contact": "Albert Donadio",
		"phone": "1-877-999-0934",
		"website": "http://ajdconstructiongroup.com"
	},
	{
		"company": "AK Enterprises (2321923 ON Ltd.)",
		"link": "/member_directory/36464",
		"street": "40 Mills Rd. Unit L",
		"city": "Barrie, ON",
		"postCode": "L4N 6H4",
		"contact": "Trevor Bowering",
		"phone": "(705) 737-1142",
		"website": null
	},
	{
		"company": "Akins-Brewer Lumber",
		"link": "/member_directory/36575",
		"street": "Box 202",
		"city": "Shakespeare, ON",
		"postCode": "N0B 2P0",
		"contact": "Jean Guy Poirier",
		"phone": "(519) 625-8221",
		"website": null
	},
	{
		"company": "AKR Consulting Canada Inc.",
		"link": "/member_directory/33738",
		"street": "151 Courtneypark Dr. W. Unit 100",
		"city": "Mississauga, ON",
		"postCode": "L5W 0Y5",
		"contact": "Stig Erenbjerg",
		"phone": "(905) 678-6368",
		"website": "http://akrconsulting.com"
	},
	{
		"company": "Al White Landscaping & Excavating",
		"link": "/member_directory/36275",
		"street": "P.O. Box 606",
		"city": "Belleville, ON",
		"postCode": "K8N 5B3",
		"contact": "Aaron White",
		"phone": "(613) 966-4482",
		"website": null
	},
	{
		"company": "Al-mar Home Improvements",
		"link": "/member_directory/34411",
		"street": "11812 Longwoods Rd. R.R. #6",
		"city": "Thameville, ON",
		"postCode": "N0P 2K0",
		"contact": "Al Weiberg",
		"phone": "(519) 351-5666",
		"website": null
	},
	{
		"company": "Alair Homes ",
		"link": "/member_directory/33549",
		"street": "230 Scarborough Cres.",
		"city": "Scarborough, ON",
		"postCode": "M1M 2J4",
		"contact": "John Popp",
		"phone": "(416) 417-1961",
		"website": "http://alairhomes.com"
	},
	{
		"company": "Alair Homes ",
		"link": "/member_directory/33550",
		"street": "68 Young Crt.",
		"city": "Orangeville, ON",
		"postCode": "L9W 0A8",
		"contact": "Robert May",
		"phone": "(416) 988-1661",
		"website": "http://alairhomes.com"
	},
	{
		"company": "Alair Homes",
		"link": "/member_directory/36387",
		"street": "748 Trinity St.",
		"city": "Innisfil, ON",
		"postCode": "L9S 2G8",
		"contact": "Ryan Johnson",
		"phone": "(705) 309-9863",
		"website": "http://alairhomes.com"
	},
	{
		"company": "Alair Homes",
		"link": "/member_directory/36057",
		"street": "459 George St. N.",
		"city": "Peterborough, ON",
		"postCode": "K9H 3R6",
		"contact": "Joanna Smeeth",
		"phone": "(705) 772-7655",
		"website": "http://alairhomes.com"
	},
	{
		"company": "Alair Homes & Renovations",
		"link": "/member_directory/35665",
		"street": "35140 Coursey Line",
		"city": "London, ON",
		"postCode": "N0M 2J0",
		"contact": "Brian Schon",
		"phone": "(519) 318-4777",
		"website": "http://reniaissance-homes.ca"
	},
	{
		"company": "Alan Didone Construction",
		"link": "/member_directory/36058",
		"street": "1694 Waddell Cres.",
		"city": "Peterborough, ON",
		"postCode": "K9K 2G8",
		"contact": "Alan Didone",
		"phone": "(705) 745-0503",
		"website": null
	},
	{
		"company": "Alan Heron Homes Inc.",
		"link": "/member_directory/33551",
		"street": "245 Yorkland Blvd. Unit 100",
		"city": "Toronto, ON",
		"postCode": "M2J 4W9",
		"contact": "Alan Heron",
		"phone": "(416) 642-7651",
		"website": "http://alanheronhomes.ca"
	},
	{
		"company": "Alarm Systems",
		"link": "/member_directory/36232",
		"street": "P.O. Box 868, 260 Adam St.",
		"city": "Belleville, ON",
		"postCode": "K8N 5S4",
		"contact": "Heather Hedley",
		"phone": "(613) 969-5100",
		"website": null
	},
	{
		"company": "Alarmtech Systems for Life Inc.",
		"link": "/member_directory/35879",
		"street": "549 Huron St.",
		"city": "London, ON",
		"postCode": "N5Y 4J6",
		"contact": "Bob Hoevenaars",
		"phone": "(519) 434-3996",
		"website": "http://alarmtech.ca"
	},
	{
		"company": "Alarmtech Systems For Life Inc.",
		"link": "/member_directory/36505",
		"street": "549 Huron St.",
		"city": "London, ON",
		"postCode": "N5Y 4J6",
		"contact": "Bob Hoevenaars",
		"phone": "(519) 434-3996",
		"website": "http://alarmtech.ca"
	},
	{
		"company": "AlarVac Systems Inc.",
		"link": "/member_directory/34140",
		"street": "6010 Yonge St.",
		"city": "North York, ON",
		"postCode": "M2M 3V9",
		"contact": "Sam Sabri",
		"phone": "(416) 520-4080",
		"website": "http://alarvac.com"
	},
	{
		"company": "Aldershot Homes",
		"link": "/member_directory/37029",
		"street": "33 Memorial Dr Suite101",
		"city": "Brantford, ON",
		"postCode": "N3R 5R8",
		"contact": "Gabriel Gasbarrini",
		"phone": "519-752-0557",
		"website": null
	},
	{
		"company": "Aldershot Homes",
		"link": "/member_directory/37030",
		"street": "33 Memorial Drive Suite 101",
		"city": "Brantford, ON",
		"postCode": "N3R 5R8",
		"contact": "Gabriel Gabarrini",
		"phone": "519-752-0557",
		"website": null
	},
	{
		"company": "Alert Restoration Inc.",
		"link": "/member_directory/33552",
		"street": "1291 Saddler Circle",
		"city": "Oakville, ON",
		"postCode": "L6M 2X7",
		"contact": "Robert Russell",
		"phone": "(905) 301-8196",
		"website": "http://alertreno.ca"
	},
	{
		"company": "Alexander and Tencate Design Build Inc.",
		"link": "/member_directory/33553",
		"street": "259 Queensdale Ave.",
		"city": "Toronto, ON",
		"postCode": "M4C 2B3",
		"contact": "Seth Alexander",
		"phone": "(416) 561-7384",
		"website": "http://alexandertencate.com"
	},
	{
		"company": "Alexander Budrevics & Associates Ltd.",
		"link": "/member_directory/33739",
		"street": "895 Don Mills Rd. Ste. 212, Two Park Centre",
		"city": "Toronto, ON",
		"postCode": "M3C 1W3",
		"contact": "Arnis Budrevics",
		"phone": "(416) 444-5201",
		"website": "http://budrevics.com"
	},
	{
		"company": "Alexanian Carpet & Flooring",
		"link": "/member_directory/36988",
		"street": "1225 Wonderland Rd N",
		"city": "London, ON",
		"postCode": "NG 2V9",
		"contact": "Kevin Bowers",
		"phone": "519-641-2830",
		"website": "http://alexanian.com"
	},
	{
		"company": "Alf Curtis Home Improvements Inc.",
		"link": "/member_directory/36119",
		"street": "370 Parkhill Rd. E.",
		"city": "Peterborough, ON",
		"postCode": "K9L 1C3",
		"contact": "Chris Curtis",
		"phone": "(705) 742-4690",
		"website": null
	},
	{
		"company": "Alf Curtis Home Improvemets",
		"link": "/member_directory/37179",
		"street": "1983 Hwy #2",
		"city": "Belleville, ON",
		"postCode": "K8N 4Z2",
		"contact": "Preston Collins",
		"phone": "613 966 3990",
		"website": null
	},
	{
		"company": "Alfred's Carpet One Floor & Home",
		"link": "/member_directory/35802",
		"street": "4487 Wellington Rd. S.",
		"city": "London, ON",
		"postCode": "N6E 2Z8",
		"contact": "Quentin Yake",
		"phone": "(519) 686-1212",
		"website": "http://carpetone.com"
	},
	{
		"company": "Algonquin College",
		"link": "/member_directory/36314",
		"street": "315 Pembroke St. W.",
		"city": "Pembroke, ON",
		"postCode": "K8A 3K2",
		"contact": "Adam Johns",
		"phone": "(613) 735-4700",
		"website": null
	},
	{
		"company": "Algonquin College First Campus",
		"link": "/member_directory/35643",
		"street": "7 Craig St.",
		"city": "Perth, ON",
		"postCode": "K7H 1X7",
		"contact": "Andrew Edmondson",
		"phone": "(613) 267-2859",
		"website": null
	},
	{
		"company": "Algonquin College of Applied Arts",
		"link": "/member_directory/34782",
		"street": "1385 Woodroffe Ave. Room C214B",
		"city": "Ottawa, ON",
		"postCode": "K1R 7Y6",
		"contact": "Joanne Snell",
		"phone": "(613) 727-4723",
		"website": "http://algonquincollege.com"
	},
	{
		"company": "Algonquin Projects",
		"link": "/member_directory/35264",
		"street": "Box 307",
		"city": "Minden, ON",
		"postCode": "K0M2K0",
		"contact": "Karen McCloy",
		"phone": "(705) 286-6730",
		"website": null
	},
	{
		"company": "All Angles Renovations Ltd.",
		"link": "/member_directory/33554",
		"street": "17 Natal Ave.",
		"city": "Scarborough, ON",
		"postCode": "M1N 3V3",
		"contact": "Ken George",
		"phone": "(416) 261-9732",
		"website": "http://allanglesrenovations.ca"
	},
	{
		"company": "All Weather Windows",
		"link": "/member_directory/33284",
		"street": "3100 Caravelle Dr.",
		"city": "Mississauga, ON",
		"postCode": "L4V 1K9",
		"contact": "Sante Cigana",
		"phone": "(905) 696-0005",
		"website": "http://allweatherwindows.com"
	},
	{
		"company": "All Weather Windows",
		"link": "/member_directory/36882",
		"street": "3100 Caravelle Dr.",
		"city": "Mississauga, ON",
		"postCode": "L4V 1K9",
		"contact": "Rob Nesbitt",
		"phone": "(905) 696-0005",
		"website": "http://allweatherwindows.com"
	},
	{
		"company": "All Weather Windows",
		"link": "/member_directory/34539",
		"street": "3100 Caravelle Dr",
		"city": "Mississauga, ON",
		"postCode": "L4V 1K9",
		"contact": "Ed Derks",
		"phone": "(416) 707-3566",
		"website": "http://allweatherwindows.com"
	},
	{
		"company": "Allen Interiors & Design Centre Inc.",
		"link": "/member_directory/36576",
		"street": "188 Huron Rd.",
		"city": "Sebringville, ON",
		"postCode": "N0K 1X0",
		"contact": "Patti Allen",
		"phone": "(519) 393-6344",
		"website": null
	},
	{
		"company": "Allen Lumber Holdings Ltd.",
		"link": "/member_directory/36045",
		"street": "668 Peel St.",
		"city": "Woodstock, ON",
		"postCode": "N4S 1L1",
		"contact": "Jamie Adams",
		"phone": "(519) 539-1211",
		"website": null
	},
	{
		"company": "AllForm Group Ltd.",
		"link": "/member_directory/34141",
		"street": "6201 Highway 7 Unit 4",
		"city": "Vaughan, ON",
		"postCode": "L4H OK7",
		"contact": "Tony Paglia",
		"phone": "(905) 856-6474",
		"website": "http://allform.ca"
	},
	{
		"company": "Alliance Creative Marketing",
		"link": "/member_directory/37117",
		"street": "15 West Pearce St Unit 3A",
		"city": "Richmond Hill, ON",
		"postCode": "L54B 1H6",
		"contact": "Liza Tam",
		"phone": "416 822 0222",
		"website": "http://alliancecreative.ca"
	},
	{
		"company": "Alliance Flooring Inc.",
		"link": "/member_directory/34142",
		"street": "1006 Magnetic Dr.",
		"city": "Toronto, ON",
		"postCode": "M3J 2C4",
		"contact": "Lehel Fabok",
		"phone": "(416) 398-5344",
		"website": "http://allianceflooringinc.com"
	},
	{
		"company": "Alliance Homes Inc.",
		"link": "/member_directory/35232",
		"street": "111 Creditstone Rd.",
		"city": "Concord, ON",
		"postCode": "L4K 4N7",
		"contact": "Alex Troop",
		"phone": "(905) 761-7086",
		"website": null
	},
	{
		"company": "Alliance Homes Ltd.",
		"link": "/member_directory/32862",
		"street": "6048 Highway 9 Unit 7",
		"city": "Schomberg, ON",
		"postCode": "L0G 1T0",
		"contact": "Alex Troop",
		"phone": "(905) 761-7086",
		"website": "http://alliancehomes.ca"
	},
	{
		"company": "Alliance Security Systems",
		"link": "/member_directory/35190",
		"street": "50 Hopeton St.",
		"city": "Cambridge, ON",
		"postCode": "N1R 3T3",
		"contact": "Paul Harding",
		"phone": "(519) 750-2475",
		"website": null
	},
	{
		"company": "AllPro Roofing Inc",
		"link": "/member_directory/37180",
		"street": "234 Broadway Suite 3",
		"city": "Orangeville, ON",
		"postCode": "L9W 1K5",
		"contact": "James Bates",
		"phone": "519-216-5533",
		"website": null
	},
	{
		"company": "Allstate Insurance",
		"link": "/member_directory/35389",
		"street": "2176 Rymal Rd. E. Unit 103",
		"city": "Hamilton, ON",
		"postCode": "L0R 1P0",
		"contact": "Mathew Bulbrook",
		"phone": "(905) 692-6563",
		"website": "http://allstate.ca"
	},
	{
		"company": "Allumination Siding & Windows",
		"link": "/member_directory/34391",
		"street": "101 Catharine Ave.",
		"city": "Brantford, ON",
		"postCode": "N3T 1X8",
		"contact": "Wilf Hogeveen",
		"phone": "(519) 753-4084",
		"website": null
	},
	{
		"company": "Allyn Construction Ltd.",
		"link": "/member_directory/33555",
		"street": "5173 Fifth Line R.R. 4",
		"city": "Milton, ON",
		"postCode": "L9T 2X8",
		"contact": "Greg Dabrowski",
		"phone": "(416) 347-7548",
		"website": "http://allynconstruction.com"
	},
	{
		"company": "Alma Mechanical",
		"link": "/member_directory/34587",
		"street": "2365 S. Service Rd. Unit Unit 10",
		"city": "Bowmanville, ON",
		"postCode": "L1C 3K3",
		"contact": "Dave Decker",
		"phone": "(905) 697-5775",
		"website": null
	},
	{
		"company": "Alma Mechanical",
		"link": "/member_directory/36151",
		"street": "2365 S. Service Rd., Unit 4",
		"city": "Bowmanville, ON",
		"postCode": "L1C 3K3",
		"contact": "Dave Decker",
		"phone": "(905) 697-5775",
		"website": null
	},
	{
		"company": "Alpha Comfort Control Ltd.",
		"link": "/member_directory/34143",
		"street": "2410 Dunwin Dr. Ste. 10",
		"city": "Mississauga, ON",
		"postCode": "L5L 1J9",
		"contact": "Branko Mijatovic",
		"phone": "(905) 607-7706",
		"website": "http://alphacomfortcontrol.com"
	},
	{
		"company": "Alpha Omega Signs Inc.",
		"link": "/member_directory/33285",
		"street": "11700 Lake Ridge Rd.",
		"city": "Sunderland, ON",
		"postCode": "L0C 1H0",
		"contact": "Stefan Makovskis",
		"phone": "(905) 852-2647",
		"website": "http://signfixer.com"
	},
	{
		"company": "Alphyn Construction Inc.",
		"link": "/member_directory/33556",
		"street": "35 Oak St.",
		"city": "Toronto, ON",
		"postCode": "M5A 0A2",
		"contact": "Sean Baradaran",
		"phone": "(416) 737-8607",
		"website": "http://alphynconstruction.com"
	},
	{
		"company": "Alterra Group of Companies",
		"link": "/member_directory/32863",
		"street": "920 Yonge St. Ste. 1000",
		"city": "Toronto, ON",
		"postCode": "M4W 3C7",
		"contact": "Robert Cooper",
		"phone": "(416) 964-1800",
		"website": "http://alterra.com"
	},
	{
		"company": "Altra Homes Inc.",
		"link": "/member_directory/32864",
		"street": "345 Lakeshore Rd E  Unit 402",
		"city": "Oakville, ON",
		"postCode": "L6J 1J5",
		"contact": "Paul McNally",
		"phone": "647-533-8016",
		"website": null
	},
	{
		"company": "Altus Data Solutions",
		"link": "/member_directory/36867",
		"street": "220 King St. W., 4th Floor",
		"city": "Toronto, ON",
		"postCode": "M5H 1K4",
		"contact": "Phong Ngo",
		"phone": "(416) 596-7676",
		"website": "http://realnet.ca"
	},
	{
		"company": "Altus Data Soutions",
		"link": "/member_directory/34033",
		"street": "220 King St. W. 4th Flr.",
		"city": "Toronto, ON",
		"postCode": "M5H 1K4",
		"contact": "George Carras",
		"phone": "1-877-992-9933",
		"website": "http://realnet.ca"
	},
	{
		"company": "Altus Group Ltd.",
		"link": "/member_directory/33740",
		"street": "33 Yonge St. Ste. 500",
		"city": "Toronto, ON",
		"postCode": "M5E 1G4",
		"contact": "Peter Norman",
		"phone": "(416) 641-9500",
		"website": "http://altusgroup.com"
	},
	{
		"company": "Altwood Garage Doors Ltd.",
		"link": "/member_directory/33286",
		"street": "140 Ashwarren Rd.",
		"city": "Downsview, ON",
		"postCode": "M3J 1Z8",
		"contact": "Diane Urbano",
		"phone": "(416) 635-5500",
		"website": "http://altwooddoors.com"
	},
	{
		"company": "AM Roofing London Inc.",
		"link": "/member_directory/35880",
		"street": "207 Exeter Rd., Unit C",
		"city": "London, ON",
		"postCode": "N4L 1A4",
		"contact": "Andrew Mischuk",
		"phone": "(519) 668-1555",
		"website": null
	},
	{
		"company": "Amacon Construction Ltd.",
		"link": "/member_directory/32865",
		"street": "37 Bay St. Ste. 400",
		"city": "Toronto, ON",
		"postCode": "M5J 3B2",
		"contact": "Frank Da Silva",
		"phone": "(416) 369-9069",
		"website": "http://amacon.com"
	},
	{
		"company": "Amanda Berloni Professional Corporation",
		"link": "/member_directory/37008",
		"street": "254 Larch St",
		"city": "Sudbury, ON",
		"postCode": "P3B 1M1",
		"contact": "Amanda Berloni",
		"phone": "705 586 3555",
		"website": "http://berlonilaw.ca"
	},
	{
		"company": "Amanda Fournier with Investors Group",
		"link": "/member_directory/37115",
		"street": "138 Commerce Park Dr",
		"city": "Barrie, ON",
		"postCode": "L4N 8W8",
		"contact": "Amanda Fournier",
		"phone": "705 719 6773",
		"website": null
	},
	{
		"company": "Amati Plumbing Supply Ltd.",
		"link": "/member_directory/33287",
		"street": "105 Doncaster Ave.",
		"city": "Thornhill, ON",
		"postCode": "L3T 1L6",
		"contact": "Anthony Gaudio",
		"phone": "(905) 709-0881",
		"website": "http://amaticanada.com"
	},
	{
		"company": "Amazing Window Fashions",
		"link": "/member_directory/33288",
		"street": "7695 Jane St. Ste. 7",
		"city": "Concord, ON",
		"postCode": "L4K 1A8",
		"contact": "Alex Livshe",
		"phone": "(905) 660-1127",
		"website": "http://amazingwindowfashions.com"
	},
	{
		"company": "Amazon Home Improvements",
		"link": "/member_directory/33557",
		"street": "165 Tansley Rd.",
		"city": "Thornhill, ON",
		"postCode": "L4J 2Y8",
		"contact": "Ruben Yshaia",
		"phone": "(905) 763-9000",
		"website": "http://amazonhomeimprovements.ca"
	},
	{
		"company": "Ambassador Fine Custom Homes Inc.",
		"link": "/member_directory/32866",
		"street": "6-2400 Dundas St. W. Ste. 109",
		"city": "Mississauga, ON",
		"postCode": "L5K 2R8",
		"contact": "Michal Cerny",
		"phone": "(416) 777-2324",
		"website": "http://ambassadorfinecustomhomesinc.com"
	},
	{
		"company": "Ambassador HVAC Inc",
		"link": "/member_directory/34969",
		"street": "101 Innes Parkway Unit 190",
		"city": "Ottawa, ON",
		"postCode": "K1 1E3",
		"contact": "Joseph Yammine",
		"phone": "(613) 741-9595",
		"website": "http://ambassadorhvac.com"
	},
	{
		"company": "Amber Stairs & Railings Ltd.",
		"link": "/member_directory/35979",
		"street": "10 N.rup Cres.",
		"city": "St. Catharines, ON",
		"postCode": "L2M 7M4",
		"contact": "Elnita Post",
		"phone": "(905) 935-2590",
		"website": "http://norwoodstairs.com"
	},
	{
		"company": "Ambia Windows and Doors Inc.",
		"link": "/member_directory/33558",
		"street": "400 Applewood Cres. Ste. 100",
		"city": "Vaughan, ON",
		"postCode": "L4K 0C3",
		"contact": "Tony Radocchia",
		"phone": "(416) 831-3719",
		"website": "http://ambiawindowsdoors.com"
	},
	{
		"company": "Ambience Design Group",
		"link": "/member_directory/33741",
		"street": "111 Regina Rd. Ste. 10",
		"city": "Woodbridge, ON",
		"postCode": "L4L 8N5",
		"contact": "Sara Abate Rezvanifar",
		"phone": "(905) 264-0883",
		"website": "http://ambience.ca"
	},
	{
		"company": "Ambrose Plumbing & Heating Ltd.",
		"link": "/member_directory/36520",
		"street": "1227 Talbot St.",
		"city": "St. Thomas, ON",
		"postCode": "N5P 1G8",
		"contact": "Jacques Roy",
		"phone": "(519) 631-5011",
		"website": "http://ambroseplumbing.com"
	},
	{
		"company": "Amcraft Plumbing & Heating Ltd.",
		"link": "/member_directory/34970",
		"street": "3255 Sarsfield Rd.",
		"city": "Sarsfield, ON",
		"postCode": "K0A 3E0",
		"contact": "Richard C. Lalonde",
		"phone": "(613) 223-4800",
		"website": null
	},
	{
		"company": "Amec Environment & Infastructure",
		"link": "/member_directory/35390",
		"street": "3215 N. Service Rd.",
		"city": "Burlington, ON",
		"postCode": "L7N 3G2",
		"contact": "Angelo Cutaia",
		"phone": "(905) 335-2353",
		"website": "http://amec.com"
	},
	{
		"company": "American Standard",
		"link": "/member_directory/33289",
		"street": "5900 Avebury Rd.",
		"city": "Mississauga, ON",
		"postCode": "L5R 3M3",
		"contact": "Frank Leone",
		"phone": "(905) 949-4800",
		"website": "http://americanstandard.ca"
	},
	{
		"company": "American Standard ",
		"link": "/member_directory/36190",
		"street": "410 Lakeshore Dr.",
		"city": "Cobourg, ON",
		"postCode": "K9A 1S1",
		"contact": "Mark Tullock",
		"phone": "(613) 391-1500",
		"website": null
	},
	{
		"company": "Amexon Development Corporation",
		"link": "/member_directory/32867",
		"street": "150 Ferrand Dr. Ste. 100",
		"city": "Toronto, ON",
		"postCode": "M3C 3E5",
		"contact": "Ashling Evans",
		"phone": "(416) 467-1893",
		"website": "http://amexon.com"
	},
	{
		"company": "Amico Design Build Inc.",
		"link": "/member_directory/36935",
		"street": "2199 Blackacre Dr.",
		"city": "Windsor, ON",
		"postCode": "N0R 1L0",
		"contact": "Greg Gemi",
		"phone": "(519) 737-1577",
		"website": "http://amicoaffiliates.com"
	},
	{
		"company": "Amos Environment and Planning",
		"link": "/member_directory/33742",
		"street": "1236 Butter and Egg Rd.",
		"city": "Bracebridge, ON",
		"postCode": "P1L 1X4",
		"contact": "Janet Amos",
		"phone": "(705) 764-0580",
		"website": null
	},
	{
		"company": "Amsted Design-Build",
		"link": "/member_directory/34731",
		"street": "7725 Flewellyn Rd.",
		"city": "Ottawa, ON",
		"postCode": "K2S 1B6",
		"contact": "Steve Barkhouse",
		"phone": "(613) 836-7434",
		"website": "http://amsted.ca"
	},
	{
		"company": "Andelwood Homes",
		"link": "/member_directory/34440",
		"street": "3 Coulcliff Blvd",
		"city": "Port Perry, ON",
		"postCode": "L9L 1P8",
		"contact": "Bas Van Andel",
		"phone": "(905) 242-9900",
		"website": "http://andelwoodhomes.ca"
	},
	{
		"company": "Anden Design / Build",
		"link": "/member_directory/35742",
		"street": "523 Bathurst St.",
		"city": "London, ON",
		"postCode": "N6B 1P5",
		"contact": "Marcus Plowright",
		"phone": "(519) 858-2999",
		"website": "http://anden.ca"
	},
	{
		"company": "Anderson Windows",
		"link": "/member_directory/36026",
		"street": "P.O. Box 510",
		"city": "Sundridge, ON",
		"postCode": "P0A 1Z0",
		"contact": "Rick White",
		"phone": "(705) 384-5341",
		"website": null
	},
	{
		"company": "Andes Construction",
		"link": "/member_directory/33559",
		"street": "233 Albany Ave.",
		"city": "Toronto, ON",
		"postCode": "M5R 3C7",
		"contact": "Mario Savone",
		"phone": "(416) 531-9727",
		"website": "http://andesconstruction.com"
	},
	{
		"company": "Andre Godin Design Inc.",
		"link": "/member_directory/34783",
		"street": "6 Shiregreen Dr.",
		"city": "Nepean, ON",
		"postCode": "K2J 3M7",
		"contact": "Andre Godin",
		"phone": "(613) 823-8833",
		"website": "http://andregodindesign.com"
	},
	{
		"company": "Andrin Homes",
		"link": "/member_directory/32868",
		"street": "26 Lesmill Rd. Unit 3",
		"city": "Toronto, ON",
		"postCode": "M3B 2T5",
		"contact": "Peter Smith",
		"phone": "(416) 733-3128",
		"website": "http://andrinhomes.com"
	},
	{
		"company": "Andrin Homes",
		"link": "/member_directory/36730",
		"street": "26 Lesmill Rd. Unit 3",
		"city": "Toronto, ON",
		"postCode": "M3B 2T5",
		"contact": "Anne Marchildon",
		"phone": "(416) 733-3128",
		"website": "http://andrinhomes.com"
	},
	{
		"company": "Anew Building Corporation",
		"link": "/member_directory/32869",
		"street": "3 Winnipeg Rd.",
		"city": "Toronto, ON",
		"postCode": "M9P 2E2",
		"contact": "Sam DeCaria",
		"phone": "(416) 240-1776",
		"website": "http://anewbldg.com"
	},
	{
		"company": "Angus Glen Development Ltd./Kylemore Communities",
		"link": "/member_directory/32870",
		"street": "10080 Kennedy Rd.",
		"city": "Markham, ON",
		"postCode": "L6C 1N9",
		"contact": "Patrick O&apos;Hanlon",
		"phone": "(905) 887-5799",
		"website": "http://kylemorecommunities.com"
	},
	{
		"company": "Anndale Properties Ltd.",
		"link": "/member_directory/32871",
		"street": "28 Saranac Blvd. Ste. 1",
		"city": "Toronto, ON",
		"postCode": "M6A 2G5",
		"contact": "David Holmes",
		"phone": "(416) 444-5228",
		"website": "http://anndaleproperties.com"
	},
	{
		"company": "Annis, OSullivan Vollebekk Ltd.",
		"link": "/member_directory/34784",
		"street": "500 - 14 Concourse Gate",
		"city": "Nepean, ON",
		"postCode": "K2E 7S6",
		"contact": "Ed Herweyer",
		"phone": "(613) 727-0850",
		"website": null
	},
	{
		"company": "Annspell Holdings Ltd.",
		"link": "/member_directory/34327",
		"street": "19 Smith&apos;s Lane",
		"city": "Brantford, ON",
		"postCode": "N3V 1E6",
		"contact": "Debby Speelziek",
		"phone": "(519) 758-5188",
		"website": null
	},
	{
		"company": "Antec Appraisal Group East",
		"link": "/member_directory/34512",
		"street": "170 Water St.",
		"city": "Port Perry, ON",
		"postCode": "L9L 1C4",
		"contact": "Brett Puckrin",
		"phone": "(905) 985-6291",
		"website": "http://antecappraisals.com"
	},
	{
		"company": "Anthony Abraham Construction",
		"link": "/member_directory/36936",
		"street": "16 Island Park Crt.",
		"city": "Leamington, ON",
		"postCode": "N8H 5C9",
		"contact": "Anthony Abraham",
		"phone": "(519) 791-1464",
		"website": "http://anthonyabrahamhomes.com"
	},
	{
		"company": "Antique Impressions by Creative at Home",
		"link": "/member_directory/36120",
		"street": "114 Willits Cres.",
		"city": "St. George, ON",
		"postCode": "N0E 1N0",
		"contact": "Rob Bishop",
		"phone": "(905) 746-8895",
		"website": "http://creativeathome.com"
	},
	{
		"company": "Anvale Homes Inc.",
		"link": "/member_directory/32872",
		"street": "160 Cidermill Ave. Ste. 10",
		"city": "Concord, ON",
		"postCode": "L4K 4K5",
		"contact": "Valerie Gerardi",
		"phone": "(905) 669-0471",
		"website": "http://anvalehomes.com"
	},
	{
		"company": "Anything Electric",
		"link": "/member_directory/36276",
		"street": "584 Belleville Rd.",
		"city": "Deseronto, ON",
		"postCode": "K0K 1X0",
		"contact": "Wendon Wattan",
		"phone": "(613) 396-5470",
		"website": null
	},
	{
		"company": "Aon Inc.",
		"link": "/member_directory/36059",
		"street": "307 Aylmer St., P.O. Box 296",
		"city": "Peterborough, ON",
		"postCode": "K9J 6Y8",
		"contact": "Brad Smith",
		"phone": "(705) 742-3801",
		"website": "http://aoninc.com"
	},
	{
		"company": "Aon Risk Services",
		"link": "/member_directory/35961",
		"street": "5500 N. Service Rd., Suite 402",
		"city": "Burlington, ON",
		"postCode": "L7L 6W6",
		"contact": "Judi Smith",
		"phone": "1-855-777-4342",
		"website": null
	},
	{
		"company": "APA The Engineered Wood Association",
		"link": "/member_directory/33743",
		"street": "16 Crestwood Ave.",
		"city": "Lindsay, ON",
		"postCode": "K9V 6A7",
		"contact": "David Birmingham",
		"phone": "(705) 878-8943",
		"website": "http://apawood.org"
	},
	{
		"company": "Appconic",
		"link": "/member_directory/37103",
		"street": "1150-45 O&apos;Connor Street",
		"city": "Ottawa, ON",
		"postCode": "K1P 1A4",
		"contact": "Philip Tabet",
		"phone": "613-854-9090",
		"website": null
	},
	{
		"company": "Apple Homes - 2274581 Ont. Inc.",
		"link": "/member_directory/36032",
		"street": "3523 Huron Rd.",
		"city": "New Hamburg, ON",
		"postCode": "N3A 3C5",
		"contact": "John Day",
		"phone": "(519) 662-4511",
		"website": null
	},
	{
		"company": "Applewood Air Conditioning Ltd.",
		"link": "/member_directory/34144",
		"street": "3525 Hawkestone Rd.",
		"city": "Mississauga, ON",
		"postCode": "L5C 2V1",
		"contact": "Brendan O&apos;Brien",
		"phone": "(905) 275-4500",
		"website": "http://applewoodair.com"
	},
	{
		"company": "Appliance Canada a division of Leon's Furniture Ltd.",
		"link": "/member_directory/33290",
		"street": "8701 Jane St. Unit 1",
		"city": "Concord, ON",
		"postCode": "L4K 2M6",
		"contact": "Derek Keyes",
		"phone": "(905) 761-2461",
		"website": "http://appliancecanada.com"
	},
	{
		"company": "Appliance Love",
		"link": "/member_directory/33291",
		"street": "950 Dupont St.",
		"city": "Toronto, ON",
		"postCode": "M6H 1Z4",
		"contact": "Marco Tallarico",
		"phone": "(416) 516-9500",
		"website": "http://appliancelove.com"
	},
	{
		"company": "Aqua Bay Ltd.",
		"link": "/member_directory/36989",
		"street": "223 Cannifton Rd N",
		"city": "Belleville, ON",
		"postCode": "K0K 1H0",
		"contact": "Mike O&apos;Shughnessy",
		"phone": "613-962-2415",
		"website": "http://aquabay.com"
	},
	{
		"company": "Aqua Timber Inc.",
		"link": "/member_directory/33292",
		"street": "8520 Highway 93",
		"city": "Midland, ON",
		"postCode": "L4R 4K4",
		"contact": "Mark Hamelin",
		"phone": "(705) 526-6912",
		"website": "http://aquatimber.com"
	},
	{
		"company": "Aragon Development (Ontario) Ltd.",
		"link": "/member_directory/32873",
		"street": "35 King St. E. Ste. 201",
		"city": "Hamilton, ON",
		"postCode": "L8N 4A9",
		"contact": "David Page",
		"phone": "(416) 531-6361",
		"website": "http://aragon.ca"
	},
	{
		"company": "Arbourdale Construction Inc.",
		"link": "/member_directory/33560",
		"street": "143 Golfdale Rd.",
		"city": "Toronto, ON",
		"postCode": "M4N 2B8",
		"contact": "J.D. Burnes",
		"phone": "(416) 576-0541",
		"website": "http://arbourdaleconstruction.ca"
	},
	{
		"company": "ARC Document Solutions",
		"link": "/member_directory/33293",
		"street": "111 Zenway Blvd. Unit 18-20",
		"city": "Woodbridge, ON",
		"postCode": "L4H 3H9",
		"contact": "Earl Shiller",
		"phone": "(905) 264-1616",
		"website": "http://e-arc.com"
	},
	{
		"company": "Archeological Research Associates Ltd.",
		"link": "/member_directory/36823",
		"street": "154 Otonabee Dr.",
		"city": "Kitchener, ON",
		"postCode": "N2C 1L7",
		"contact": "Dean Knight",
		"phone": "(519) 591-9857",
		"website": "http://arch-research.com"
	},
	{
		"company": "Archer Construction Group Ltd.",
		"link": "/member_directory/33561",
		"street": "4617 Crosscreek Crt.",
		"city": "Mississauga, ON",
		"postCode": "L5V 1G5",
		"contact": "Pawel Matonog",
		"phone": "(416) 427-2437",
		"website": "http://archerconstruction.ca"
	},
	{
		"company": "Arco Construction Co.",
		"link": "/member_directory/37060",
		"street": "5000 Yonge St Suite 1901",
		"city": "Toronto, ON",
		"postCode": "M2N 7E9",
		"contact": "Majid Masaberkhah",
		"phone": "416-890-4488",
		"website": null
	},
	{
		"company": "Ardel Concrete Services Inc.",
		"link": "/member_directory/34971",
		"street": "8435 Copeland Rd.",
		"city": "Ottawa, ON",
		"postCode": "K0A 1B0",
		"contact": "Steve de la Roche",
		"phone": "(613) 761-8919",
		"website": "http://ardelconcrete.com"
	},
	{
		"company": "Ardington and Assoicates Design Inc",
		"link": "/member_directory/34785",
		"street": "126 York St. Ste. 502",
		"city": "Ottawa, ON",
		"postCode": "K1N 9C7",
		"contact": "Steve Ardington",
		"phone": "(613) 882-3425",
		"website": "http://ardington.ca"
	},
	{
		"company": "ARG Devco",
		"link": "/member_directory/36626",
		"street": "76 Loach&apos;s Rd.",
		"city": "Sudbury, ON",
		"postCode": "P3E 2P7",
		"contact": "Steve Vaccaro",
		"phone": "(705) 522-9444",
		"website": null
	},
	{
		"company": "Argo Development Corporation",
		"link": "/member_directory/32874",
		"street": "2173 Turnberry Rd.",
		"city": "Burlington, ON",
		"postCode": "L7M 4P8",
		"contact": "Gord Buck",
		"phone": "(905) 336-5545",
		"website": "http://argoland.ca"
	},
	{
		"company": "Argyris and Clinkard Inc.",
		"link": "/member_directory/33562",
		"street": "52 Albertus Ave.",
		"city": "Toronto, ON",
		"postCode": "M4R 1J4",
		"contact": "Paul Clinkard",
		"phone": "(416) 717-3396",
		"website": "http://argyrisandclinkard.com"
	},
	{
		"company": "Arisim Homes Ltd.",
		"link": "/member_directory/35291",
		"street": "1 James St. S., 14th Floor",
		"city": "Hamilton, ON",
		"postCode": "L8P 4R5",
		"contact": "Dennis Beraldo",
		"phone": "(905) 379-1052",
		"website": null
	},
	{
		"company": "Arisim Homes Ltd.",
		"link": "/member_directory/35292",
		"street": "1 James St. S. 14th Floor",
		"city": "Hamilton, ON",
		"postCode": "L8P 4R5",
		"contact": "Dennis Beraldo",
		"phone": "(905) 379-1052",
		"website": "http://arisim.com"
	},
	{
		"company": "Arista Homes Ltd.",
		"link": "/member_directory/32875",
		"street": "600 Applewood Cres.",
		"city": "Vaughan, ON",
		"postCode": "L4K 4B4",
		"contact": "Michael DeGasperis",
		"phone": "(905) 660-5000",
		"website": "http://aristahomes.com"
	},
	{
		"company": "Ariston Marble & Granite Ltd.",
		"link": "/member_directory/34145",
		"street": "119 Winges Rd.",
		"city": "Woodbridge, ON",
		"postCode": "L4L 6C2",
		"contact": "Diego Serrao",
		"phone": "(905) 850-5175",
		"website": "http://ariston.ca"
	},
	{
		"company": "Arko Drywall Inc.",
		"link": "/member_directory/35881",
		"street": "19 Rines Dr.",
		"city": "Dorchester, ON",
		"postCode": "N0L 1G3",
		"contact": "Aaron Baljko",
		"phone": "(519) 200-4649",
		"website": "http://arkodrywall.com"
	},
	{
		"company": "Arky Designs/ NA Engineering Associates",
		"link": "/member_directory/36550",
		"street": "107 Erie St. Suite #2",
		"city": "Stratford, ON",
		"postCode": "N5A 2M5",
		"contact": "John Hood Tidman",
		"phone": "(519) 273-3205",
		"website": null
	},
	{
		"company": "ArmentaLevy Interiors Ltd.",
		"link": "/member_directory/33563",
		"street": "1 Alderwood St.",
		"city": "Stouffville, ON",
		"postCode": "L4A 5C9",
		"contact": "Noah Armenta",
		"phone": "(416) 561-6204",
		"website": "http://armentalevy.com"
	},
	{
		"company": "Armour Heights Developments Inc.",
		"link": "/member_directory/32876",
		"street": "81 Zenway Blvd. Unit 24",
		"city": "Vaughan, ON",
		"postCode": "L4H 0S5",
		"contact": "Frank Mazzotta",
		"phone": "(905) 303-7800",
		"website": "http://armourhd.com"
	},
	{
		"company": "Armour Shield",
		"link": "/member_directory/37108",
		"street": "2338 Tom Bolton Road",
		"city": "Haliburton, ON",
		"postCode": "K0M 1S0",
		"contact": "Darryl Winder",
		"phone": "705 754 5800",
		"website": "http://armourshieldcoatings.com"
	},
	{
		"company": "Arnies Appliances and Home Furnishings",
		"link": "/member_directory/36233",
		"street": "5301 B Old Hwy 2",
		"city": "Shannonville, ON",
		"postCode": "K0K 3E0",
		"contact": "Bill Smith",
		"phone": "(613) 969-1824",
		"website": null
	},
	{
		"company": "Arnott Brothers Construction Ltd.",
		"link": "/member_directory/35631",
		"street": "36 Hwy 511",
		"city": "Perth, ON",
		"postCode": "K7H 3C9",
		"contact": "Rob Crain",
		"phone": "(613) 267-5722",
		"website": null
	},
	{
		"company": "Arriscraft International ",
		"link": "/member_directory/33294",
		"street": "P.O. Box 3190 Speedsville Road",
		"city": "Cambridge, ON",
		"postCode": "N3H 4S8",
		"contact": "Joe Ippolito",
		"phone": "1-800-265-8123",
		"website": "http://arriscraft.com/ca"
	},
	{
		"company": "Arriscraft International",
		"link": "/member_directory/36121",
		"street": "P.O. Box 3190, 875 Speedsville Rd.",
		"city": "Cambridge, ON",
		"postCode": "N3H 4S8",
		"contact": "Dave McCargar",
		"phone": "(905) 434-9141",
		"website": null
	},
	{
		"company": "Arriscraft International ",
		"link": "/member_directory/34878",
		"street": "28 De Lacaune",
		"city": "Gatineau, Quebec",
		"postCode": "J8V 3R9",
		"contact": "Steve Lacelle",
		"phone": "(613) 769-4396",
		"website": "http://arriscraft.com/"
	},
	{
		"company": "Arriscraft International",
		"link": "/member_directory/36969",
		"street": "51 Hillsmount Rd.",
		"city": "London, ON",
		"postCode": "N6K 1W1",
		"contact": "George Winsor",
		"phone": "(519) 817-7600",
		"website": "http://arriscraft.com/ca"
	},
	{
		"company": "Arriscraft International",
		"link": "/member_directory/34425",
		"street": "51 Hillsmount Rd.",
		"city": "London, ON",
		"postCode": "N6K 1W1",
		"contact": "George Winsor",
		"phone": "(519) 817-7600",
		"website": null
	},
	{
		"company": "Arriscraft International",
		"link": "/member_directory/36234",
		"street": "57 Bar Harbour Square",
		"city": "Toronto, ON",
		"postCode": "M1C 5E7",
		"contact": "Dave McCargar",
		"phone": "(905) 434-9141",
		"website": null
	},
	{
		"company": "Arriscraft International ",
		"link": "/member_directory/35467",
		"street": "P. O. Box 3190 875 Speedsville Rd.",
		"city": "Cambridge, ON",
		"postCode": "N3H 4S8",
		"contact": "Rui Carvalho",
		"phone": "(905) 512-6100",
		"website": "http://arriscraft.com/"
	},
	{
		"company": "Arriscraft International",
		"link": "/member_directory/35980",
		"street": "875 Speedsville Rd. Box 3190",
		"city": "Cambridge, ON",
		"postCode": "N3H 4S8",
		"contact": "Rui Carvalho",
		"phone": "(905) 512-6100",
		"website": "http://arriscraft.com/ca"
	},
	{
		"company": "Arriscraft International",
		"link": "/member_directory/36798",
		"street": "875 Speedsville Rd., P.O. Box 3190",
		"city": "Cambridge, ON",
		"postCode": "N3H 4S8",
		"contact": "Linus Laugalys",
		"phone": "(519) 653-2556",
		"website": "http://arriscraft.com/ca"
	},
	{
		"company": "Arriscraft International",
		"link": "/member_directory/34498",
		"street": "P.O. Box 3190, 875 Speedsville Rd.",
		"city": "Cambridge, ON",
		"postCode": "N3H 4S8",
		"contact": "Dave McCargar",
		"phone": "(905) 434-9141",
		"website": "http://arriscraft.com/ca"
	},
	{
		"company": "Arriscraft International",
		"link": "/member_directory/35803",
		"street": "51 Hillsmount Rd.",
		"city": "London, ON",
		"postCode": "N6K 1W1",
		"contact": "George Winsor",
		"phone": "(519) 817-7600",
		"website": "http://arriscraft.com/ca"
	},
	{
		"company": "Art House Developments Ltd.",
		"link": "/member_directory/34651",
		"street": "46 Claudet Cres.",
		"city": "Ottawa, ON",
		"postCode": "K1G 4R5",
		"contact": "Alex Diaz",
		"phone": "(613) 252-5931",
		"website": "http://arthousedevelopments.com (or ca)"
	},
	{
		"company": "Artcraft Kitchens",
		"link": "/member_directory/35981",
		"street": "4417 Kent Ave.",
		"city": "Niagara Falls, ON",
		"postCode": "L2H 1J1",
		"contact": "Daniel C Trabucco",
		"phone": "(905) 354-5657",
		"website": "http://artcraftkitchens.com"
	},
	{
		"company": "Arthur's Fuel",
		"link": "/member_directory/34633",
		"street": "20 Robb Blvd",
		"city": "Orangeville, ON",
		"postCode": "L9W 3L2",
		"contact": "Scott Arthur",
		"phone": "(519) 941-0004",
		"website": "http://arthursfuel.ca"
	},
	{
		"company": "Arva Appliances",
		"link": "/member_directory/35804",
		"street": "21593 Richmond St. N.",
		"city": "Arva, ON",
		"postCode": "N0M 1C0",
		"contact": "Karl Gutcher",
		"phone": "(519) 660-8314",
		"website": "http://arvaappliances.com"
	},
	{
		"company": "ARX Custom Homes Inc.",
		"link": "/member_directory/32877",
		"street": "81 Gordon Rowe Cres.",
		"city": "Richmond Hill, ON",
		"postCode": "L4C 8R5",
		"contact": "Siamak Sanie",
		"phone": "(416) 471-0947",
		"website": "http://arxcustomhomes.com"
	},
	{
		"company": "Ascot Homes",
		"link": "/member_directory/34441",
		"street": "43 Orlon Cres",
		"city": "Richmond Hill, ON",
		"postCode": "L4C 6S3",
		"contact": "Igor Cot",
		"phone": "(905) 881-9606",
		"website": "http://ascothomes.ca"
	},
	{
		"company": "Ashcroft Homes Inc.",
		"link": "/member_directory/34652",
		"street": "18 Antares Dr.",
		"city": "Nepean, ON",
		"postCode": "K2E 1A9",
		"contact": "Mary Pham",
		"phone": "(613) 226-7266",
		"website": "http://ashcroft-homes.com"
	},
	{
		"company": "Ashlar Crosby Cairo Realty Inc.",
		"link": "/member_directory/33744",
		"street": "60 Renfrew Dr. Ste. 240",
		"city": "Markham, ON",
		"postCode": "L3R 0E1",
		"contact": "Glenn Crosby",
		"phone": "(905) 695-9170",
		"website": "http://ashlarcc.com"
	},
	{
		"company": "Aspen Aluminum (div of Klondike Vinyl Building Products Ltd.)",
		"link": "/member_directory/34146",
		"street": "27 Klondike Dr.",
		"city": "Toronto, ON",
		"postCode": "M9L 1S1",
		"contact": "Michael Foerster",
		"phone": "(416) 745-3440",
		"website": "http://aspenhomereno.ca"
	},
	{
		"company": "Aspen Builders",
		"link": "/member_directory/36937",
		"street": "1506 Caille",
		"city": "Belle River, ON",
		"postCode": "N0R 1A0",
		"contact": "Mark Waters",
		"phone": "(519) 979-0300",
		"website": "http://aspenbuilders.ca"
	},
	{
		"company": "Aspen Ridge Homes",
		"link": "/member_directory/32878",
		"street": "29 Floral Parkway",
		"city": "Concord, ON",
		"postCode": "L4K 5C5",
		"contact": "Andrew DeGasperis",
		"phone": "(905) 669-9292",
		"website": "http://aspenridgehomes.com"
	},
	{
		"company": "Aspen Wood Floors",
		"link": "/member_directory/34147",
		"street": "505 Queensway E. Unit 8",
		"city": "Mississauga, ON",
		"postCode": "L5A 4B4",
		"contact": "Michael Feltham",
		"phone": "(905) 281-2900",
		"website": "http://aspenwoodfloors.com"
	},
	{
		"company": "Asset Beam Publishing Ltd.",
		"link": "/member_directory/34786",
		"street": "57 - 1554 Carling Ave.",
		"city": "Ottawa, ON",
		"postCode": "K1Z 7M4",
		"contact": "Mark Buckshon",
		"phone": "(613) 699-2057",
		"website": "http://constructionmarketingideas.com"
	},
	{
		"company": "Astone Home Studio Inc.",
		"link": "/member_directory/33295",
		"street": "9000 Keele St. Ste. 11",
		"city": "Vaughan, ON",
		"postCode": "L4K 0B3",
		"contact": "Enzo Astone",
		"phone": "(905) 738-1015",
		"website": "http://astonehomestudio.com"
	},
	{
		"company": "Astrid J. Clos Planning Consultants",
		"link": "/member_directory/35109",
		"street": "423 Woolwich St., Suite 201",
		"city": "Guelph, ON",
		"postCode": "N1H 3X3",
		"contact": "Astrid Clos",
		"phone": "(519) 836-7526",
		"website": null
	},
	{
		"company": "Astro Design Centre",
		"link": "/member_directory/34879",
		"street": "1818 Woodward Dr.",
		"city": "Ottawa, ON",
		"postCode": "K2C 0P7",
		"contact": "Jimmy Georgitsos",
		"phone": "(613) 749-1902",
		"website": null
	},
	{
		"company": "At Home Realty",
		"link": "/member_directory/37104",
		"street": "96 Milson Cres",
		"city": "GUelph, ON",
		"postCode": "N1C 1B8",
		"contact": "Lezlie O&apos;Reilly",
		"phone": "519-546-4095",
		"website": "http://loreilly@homegrouprealty.ca"
	},
	{
		"company": "ATA Architects Inc.",
		"link": "/member_directory/33745",
		"street": "211 Lakeshore Rd. E.",
		"city": "Oakville, ON",
		"postCode": "L6J 1H7",
		"contact": "Alexander Temporale",
		"phone": "(905) 849-6986",
		"website": "http://ataarchitectsinc.com"
	},
	{
		"company": "Atchison Plumbing & Heating Ltd.",
		"link": "/member_directory/35882",
		"street": "794 Lenore St.",
		"city": "London, ON",
		"postCode": "N6J 2W3",
		"contact": "Scott Atchison",
		"phone": "(519) 652-2968",
		"website": "http://atchisonplumbing.com"
	},
	{
		"company": "Athens Printing Art",
		"link": "/member_directory/35391",
		"street": "1480 Barton St. E.",
		"city": "Hamilton, ON",
		"postCode": "L8H 2W9",
		"contact": "Joe Kubina",
		"phone": "(905) 549-6719",
		"website": null
	},
	{
		"company": "Atrel Engineering Ltd.",
		"link": "/member_directory/34788",
		"street": "1-2884 Chamberland St",
		"city": "Rockland, ON",
		"postCode": "K4K 1M6",
		"contact": "Jean Decoeur",
		"phone": "(613) 446-7423",
		"website": null
	},
	{
		"company": "Atrium Mortgage Investment Corporation",
		"link": "/member_directory/36986",
		"street": "20 Adelaide Street E.",
		"city": "Toronto, ON",
		"postCode": "M5C 2T6",
		"contact": "Michael Lovett",
		"phone": "416-607-4203",
		"website": "http://atriummic.com"
	},
	{
		"company": "Atrium Mortgage Investment Corporation",
		"link": "/member_directory/37026",
		"street": "20 Adelaide Street E.",
		"city": "Toronto, ON",
		"postCode": "M5C 2T6",
		"contact": "Michael Lovett",
		"phone": "416-607-4203",
		"website": null
	},
	{
		"company": "Atrium Mortgage Investment Corporation",
		"link": "/member_directory/33253",
		"street": "20 Adelaide St. E. Ste. 900",
		"city": "Toronto, ON",
		"postCode": "M5C 2T6",
		"contact": "Robert Goodall",
		"phone": "(416) 867-1053",
		"website": "http://atriummic.com"
	},
	{
		"company": "Attard Construction Corporation",
		"link": "/member_directory/33564",
		"street": "3190 Ridgeway Rd. Unit 21",
		"city": "Mississauga, ON",
		"postCode": "L5L 5S8",
		"contact": "Chad Attard",
		"phone": "(905) 824-6300",
		"website": "http://attard.net"
	},
	{
		"company": "Auburn Homes Inc.",
		"link": "/member_directory/35666",
		"street": "560 Wellington St., 2nd floor",
		"city": "London, ON",
		"postCode": "N6A 3R4",
		"contact": "Karen Crich",
		"phone": "(519) 434-1808",
		"website": "http://auburnhomes.ca"
	},
	{
		"company": "Auburn Homes Inc.",
		"link": "/member_directory/36731",
		"street": "560 Wellington St. 2nd Floor",
		"city": "London, ON",
		"postCode": "N6A 3R4",
		"contact": "Christine Campbell",
		"phone": "(519) 434-1808",
		"website": "http://arrowlofts.com"
	},
	{
		"company": "AUDAX Architecture Inc.",
		"link": "/member_directory/37070",
		"street": "152 Davenport Rd 2rd Floor",
		"city": "Toronto, ON",
		"postCode": "M5R 1J2",
		"contact": "Gianpiero Pugliese",
		"phone": "416-862-8329",
		"website": null
	},
	{
		"company": "Aurivia",
		"link": "/member_directory/33296",
		"street": "80 Marycroft Ave.",
		"city": "Woodbridge, ON",
		"postCode": "L4L 5Y5",
		"contact": "Tony Galloro",
		"phone": "(905) 264-2829",
		"website": "http://aurivia.com"
	},
	{
		"company": "Automated Interiors Inc.",
		"link": "/member_directory/34148",
		"street": "2901 Steeles Ave. W. Unit 6",
		"city": "Toronto, ON",
		"postCode": "M3J 3A5",
		"contact": "Remo D&apos;Angelo",
		"phone": "(416) 736-8600",
		"website": "http://taggroup.ca"
	},
	{
		"company": "Automatic Steel (Tools & Metals)",
		"link": "/member_directory/36465",
		"street": "220 John St.",
		"city": "Barrie, ON",
		"postCode": "L4N 2L2",
		"contact": "John Litherland",
		"phone": "(705) 728-1643",
		"website": null
	},
	{
		"company": "Automatic Switching Inc.",
		"link": "/member_directory/34149",
		"street": "391 Edgeley Blvd. Unit 12",
		"city": "Concord, ON",
		"postCode": "L4K 4A7",
		"contact": "John Pecorelli",
		"phone": "(905) 669-6310",
		"website": "http://automaticswitching.com"
	},
	{
		"company": "Avalee Homes Inc.",
		"link": "/member_directory/32879",
		"street": "75 Sharer Rd.",
		"city": "Woodbridge, ON",
		"postCode": "L4L 8Z3",
		"contact": "Connie Tatone-Haces",
		"phone": "(905) 856-8249",
		"website": "http://avaleehomes.com"
	},
	{
		"company": "Avalon Home Builders' Ltd.",
		"link": "/member_directory/34653",
		"street": "203 Colonnade Rd. S., Suite 201",
		"city": "Ottawa, ON",
		"postCode": "K2E 7K3",
		"contact": "Rocco Sala",
		"phone": "(613) 226-6158",
		"website": "http://avalonhomebuilders.ca"
	},
	{
		"company": "Avalon Interiors",
		"link": "/member_directory/33746",
		"street": "10 Shieldmark Cres.",
		"city": "Thornhill, ON",
		"postCode": "L3T 3T5",
		"contact": "Tracy Kundell",
		"phone": "(905) 889-0763",
		"website": "http://avaloninteriors.com"
	},
	{
		"company": "Avenida Carpentry Ltd.",
		"link": "/member_directory/34150",
		"street": "111 Buttermill Ave.",
		"city": "Vaughan, ON",
		"postCode": "L4K 3X5",
		"contact": "Rick Sousa",
		"phone": "(905) 532-0813",
		"website": null
	},
	{
		"company": "Avenue Insulation Inc.",
		"link": "/member_directory/34151",
		"street": "2 Abbs St.",
		"city": "Toronto, ON",
		"postCode": "M6K 1M6",
		"contact": "Andrew Lupa",
		"phone": "(416) 371-3626",
		"website": "http://avenueinsulation.com"
	},
	{
		"company": "Averton Group",
		"link": "/member_directory/32880",
		"street": "161 Pennsylvania Ave. Ste. 5",
		"city": "Vaughan, ON",
		"postCode": "L4K 1C3",
		"contact": "Peter D&apos;Ambrosio",
		"phone": "(416) 740-5544",
		"website": "http://averton.ca"
	},
	{
		"company": "Averton Residential Inc.",
		"link": "/member_directory/37058",
		"street": "161 Pennsylvania Ave Unit 5",
		"city": "Vaughan, ON",
		"postCode": "L4K 1C3",
		"contact": "Roberta Battistella",
		"phone": "416-740-8544",
		"website": "http://averton.ca"
	},
	{
		"company": "Avid Ratings Canada",
		"link": "/member_directory/33747",
		"street": "251 Consumers Rd. Ste. 1200",
		"city": "Toronto, ON",
		"postCode": "M2J 4R3",
		"contact": "Tim Bailey",
		"phone": "(416) 619-4493",
		"website": "http://avidratings.ca"
	},
	{
		"company": "AVID Ratings Canada",
		"link": "/member_directory/36824",
		"street": "255 Brenneman Dr.",
		"city": "Baden, ON",
		"postCode": "N3A 4N2",
		"contact": "Tim Bailey",
		"phone": "(416) 619-4493",
		"website": "http://avidratings.com"
	},
	{
		"company": "Avison Young Commercial Real Estate",
		"link": "/member_directory/35392",
		"street": "299 Brock Rd. S., Bldg. A",
		"city": "Guelph, ON",
		"postCode": "N1H 6H9",
		"contact": "Bob Budd",
		"phone": "(226) 366-9090",
		"website": null
	},
	{
		"company": "Avison Young Commercial Real Estate",
		"link": "/member_directory/35393",
		"street": "299 Brock Rd. S. Bldg &quot;A&quot;",
		"city": "Guelph, ON",
		"postCode": "N1H 6H9",
		"contact": "Bob Budd",
		"phone": "(226) 366-9090",
		"website": "http://avisonyoung.com"
	},
	{
		"company": "Aviva",
		"link": "/member_directory/33748",
		"street": "2200 Eglinton Ave. E.",
		"city": "Toronto, ON",
		"postCode": "M1L 4S8",
		"contact": "Carrie Mason",
		"phone": "(416) 228-2493",
		"website": "http://avivacanada.com"
	},
	{
		"company": "Avonlea Kitchen and Bathroom Concepts",
		"link": "/member_directory/33565",
		"street": "1980 Danforth Ave.",
		"city": "Toronto, ON",
		"postCode": "M4C 1J6",
		"contact": "John Miles",
		"phone": "(416) 422-5276",
		"website": "http://avonlearenovations.com"
	},
	{
		"company": "AVR Construction",
		"link": "/member_directory/34615",
		"street": "103 TownLine",
		"city": "Orangeville, ON",
		"postCode": "L9W 1V7",
		"contact": "Albert VanRaalte",
		"phone": "(519) 928-5541",
		"website": null
	},
	{
		"company": "Avvio Homes Ltd.",
		"link": "/member_directory/32881",
		"street": "P.O. Box 144",
		"city": "King City, ON",
		"postCode": "L7B 1A4",
		"contact": "Paul Gambino",
		"phone": "(416) 239-7373",
		"website": "http://avviohomes.com"
	},
	{
		"company": "Award Windows Inc.",
		"link": "/member_directory/35468",
		"street": "70 Unsworth Dr. Unit #10",
		"city": "Hamilton, ON",
		"postCode": "L8W 3K4",
		"contact": "Stephen Quitt",
		"phone": "(905) 522-6610",
		"website": "http://awardwindows.ca"
	},
	{
		"company": "AyA Kitchen Designs ",
		"link": "/member_directory/36122",
		"street": "550 Lansdowne St. W., Units 19 &amp; 20",
		"city": "Peterborough, ON",
		"postCode": "K9J 8J8",
		"contact": "Debbie Skinkle",
		"phone": "(705) 749-0045",
		"website": null
	},
	{
		"company": "AyA Kitchens & Baths Ltd.",
		"link": "/member_directory/33297",
		"street": "1551 Caterpillar Rd.",
		"city": "Mississauga, ON",
		"postCode": "L4X 2Z6",
		"contact": "Hugh Wahab",
		"phone": "(905) 848-1999",
		"website": "http://ayakitchens.com"
	},
	{
		"company": "AyA Kitchens Design Studio",
		"link": "/member_directory/35368",
		"street": "735 S. Service Rd.",
		"city": "Stoney Creek, ON",
		"postCode": "L8E 5Z2",
		"contact": "Marino Tonan",
		"phone": "(289) 649-1100",
		"website": "http://ayahamilton.com"
	},
	{
		"company": "Azar Builder's & Renovator's Inc.",
		"link": "/member_directory/36938",
		"street": "1126 Lesperance Rd.",
		"city": "Tecumseh, ON",
		"postCode": "N8N 1X2",
		"contact": "Danny Azar",
		"phone": "(519) 735-2144",
		"website": "http://azar-homes.com"
	},
	{
		"company": "Azar Homes Ltd.",
		"link": "/member_directory/36939",
		"street": "1126 Lesperance Rd.",
		"city": "Tecumseh, ON",
		"postCode": "N8N 1X2",
		"contact": "Danny Azar",
		"phone": "(519) 735-2144",
		"website": null
	},
	{
		"company": "B & S Construction",
		"link": "/member_directory/36525",
		"street": "231 Frances St. R. R. Unit 5",
		"city": "Mitchell, ON",
		"postCode": "N0B 1N0",
		"contact": "Bob Scott",
		"phone": "(519) 348-8127",
		"website": null
	},
	{
		"company": "BA Consulting Group Ltd.",
		"link": "/member_directory/33749",
		"street": "45 St. Clair Ave. W. Ste. 300",
		"city": "Toronto, ON",
		"postCode": "M4V 1K9",
		"contact": "Anthony Yates",
		"phone": "(416) 961-7110",
		"website": "http://bagroup.com"
	},
	{
		"company": "Bachly Construction",
		"link": "/member_directory/32882",
		"street": "27 Nixon Rd.",
		"city": "Bolton, ON",
		"postCode": "L7E 1J7",
		"contact": "Scott Bachly",
		"phone": "(905) 951-3100",
		"website": "http://bachly.com"
	},
	{
		"company": "Baif Developments Ltd.",
		"link": "/member_directory/32883",
		"street": "3625 Dufferin St. Ste. 404",
		"city": "Downsview, ON",
		"postCode": "M3K 1N4",
		"contact": "Lynn Barkey",
		"phone": "(416) 638-9000",
		"website": null
	},
	{
		"company": "Bailey Metal Products",
		"link": "/member_directory/33298",
		"street": "1 Caldari Rd.",
		"city": "Concord, ON",
		"postCode": "L4K 3Z9",
		"contact": "Tony DiGiovanni",
		"phone": "(905) 739-1646",
		"website": "http://bmp-group.com"
	},
	{
		"company": "Baker Real Estate Incorporated",
		"link": "/member_directory/33750",
		"street": "175 Bloor St. E. North Tower, Ste. 300",
		"city": "Toronto, ON",
		"postCode": "M4W 3R8",
		"contact": "Patricia Baker",
		"phone": "(416) 923-4621",
		"website": "http://baker-re.com"
	},
	{
		"company": "Balance Building Group",
		"link": "/member_directory/32884",
		"street": "665 Millway Ave. Unit 30",
		"city": "Concord, ON",
		"postCode": "L4K 3T8",
		"contact": "Mauro Capovilla",
		"phone": "(905) 832-6014",
		"website": "http://balancebuildinggroup.com"
	},
	{
		"company": "Ballantry Homes Inc.",
		"link": "/member_directory/32885",
		"street": "20 Cachet Woods Crt. Ste. 6",
		"city": "Markham, ON",
		"postCode": "L6C 3G1",
		"contact": "David Hill",
		"phone": "(905) 887-7100",
		"website": "http://ballantryhomes.com"
	},
	{
		"company": "Ballygarven Homes",
		"link": "/member_directory/32886",
		"street": "3100 Steeles Ave. W. Ste. 101",
		"city": "Concord, ON",
		"postCode": "L4K 3R1",
		"contact": "Brendan O&apos;Brien",
		"phone": "(905) 881-6084",
		"website": "http://ballygarvenhomes.com"
	},
	{
		"company": "Ballymore Building Corporation",
		"link": "/member_directory/32887",
		"street": "12840 Yonge St. Ste. 200",
		"city": "Richmond Hill, ON",
		"postCode": "L4E 4H1",
		"contact": "Louie Morra",
		"phone": "(905) 773-1048",
		"website": "http://ballymorehomes.com"
	},
	{
		"company": "Balmoral Construction Group",
		"link": "/member_directory/33566",
		"street": "7 Keble Crt.",
		"city": "Richmond Hill, ON",
		"postCode": "L4E 5E5",
		"contact": "Peter Lum",
		"phone": "(416) 779-8761",
		"website": null
	},
	{
		"company": "Balmoral Custom Homes Ltd.",
		"link": "/member_directory/32888",
		"street": "68 Laird Dr.",
		"city": "Toronto, ON",
		"postCode": "M4G 3V1",
		"contact": "Robert Ludvik",
		"phone": "(416) 482-5000",
		"website": "http://balmoralcustomhomes.com"
	},
	{
		"company": "BAM Builder Advertising and Marketing Inc.",
		"link": "/member_directory/33751",
		"street": "3500 Dufferin St. Ste. 505",
		"city": "Toronto, ON",
		"postCode": "M3K 1N2",
		"contact": "John Amardeil",
		"phone": "(416) 628-5577",
		"website": "http://callbam.net"
	},
	{
		"company": "Bamco Custom Woodworking",
		"link": "/member_directory/35469",
		"street": "440 Elmira Rd. N.",
		"city": "Guelph, ON",
		"postCode": "N1K 1C3",
		"contact": "John Fazari",
		"phone": "(519) 823-8323",
		"website": "http://bamcowoodworking.com"
	},
	{
		"company": "Bank Hapoalim Toronto Representative Office",
		"link": "/member_directory/33752",
		"street": "4950 Yonge St. Ste. 2105",
		"city": "North York, ON",
		"postCode": "M2N 6K1",
		"contact": "Miki Nachmani",
		"phone": "(416) 398-4250",
		"website": "http://bhibank.com"
	},
	{
		"company": "Bank of Montreal",
		"link": "/member_directory/35729",
		"street": "59 Edgevalley Rd.",
		"city": "London, ON",
		"postCode": "N5Y 5M6",
		"contact": "Joe Yakubowski",
		"phone": "(519) 451-3382",
		"website": "http://bmo.com"
	},
	{
		"company": "Bank of Nova Scotia",
		"link": "/member_directory/33254",
		"street": "5075 Yonge St.",
		"city": "Toronto, ON",
		"postCode": "M2N 6C6",
		"contact": "Mario Cacciola",
		"phone": "(416) 590-7316",
		"website": "http://scotiabank.com"
	},
	{
		"company": "Bank-Strox Renovation Inc.",
		"link": "/member_directory/34152",
		"street": "442 Brimley Rd. Unit 13",
		"city": "Toronto, ON",
		"postCode": "M1J 1A1",
		"contact": "Ralitza Shopova",
		"phone": "(416) 546-2797",
		"website": "http://bankstrox.com"
	},
	{
		"company": "Barbeau-Gainer Builders & Renovators",
		"link": "/member_directory/36627",
		"street": "39 Mary Ave., Box 329",
		"city": "Naughton, ON",
		"postCode": "P0M 2M0",
		"contact": "Eldon Gainer",
		"phone": "(705) 690-4479",
		"website": null
	},
	{
		"company": "Barber Design Group",
		"link": "/member_directory/35136",
		"street": "167 Suffolk St. W.",
		"city": "Guelph, ON",
		"postCode": "N1H 2J7",
		"contact": "Norm Charette",
		"phone": "(519) 824-0310",
		"website": null
	},
	{
		"company": "Barbini Developments Inc.",
		"link": "/member_directory/32889",
		"street": "1315 Lawrence Ave. E. Ste. 211",
		"city": "Toronto, ON",
		"postCode": "M3A 3R3",
		"contact": "Amedeo Barbini",
		"phone": "(416) 385-8883",
		"website": "http://amedeobarbini.com"
	},
	{
		"company": "Bardon Supplies Ltd.",
		"link": "/member_directory/36235",
		"street": "PO BOX 1023",
		"city": "Belleville, ON",
		"postCode": "K8N 5B6",
		"contact": "Steve Shanque",
		"phone": "(613) 966-5643",
		"website": null
	},
	{
		"company": "Bardon Supplies Ltd.",
		"link": "/member_directory/35982",
		"street": "40 Seventh St.",
		"city": "Welland, ON",
		"postCode": "L3B 5R2",
		"contact": "Charlie Ferguson",
		"phone": "(905) 687-3583",
		"website": null
	},
	{
		"company": "Barkey Construction Ltd.",
		"link": "/member_directory/34442",
		"street": "Box 54, RR #1",
		"city": "Cannington, ON",
		"postCode": "L0E1E0",
		"contact": "David Barkey",
		"phone": "(705) 432-2229",
		"website": null
	},
	{
		"company": "Barmac Garage Door M.F.G. Ltd.",
		"link": "/member_directory/33299",
		"street": "60 Talman Crt.",
		"city": "Concord, ON",
		"postCode": "L4K 4L5",
		"contact": "Michael Moschitti",
		"phone": "(416) 661-5151",
		"website": "http://barmacdoors.com"
	},
	{
		"company": "Barr Homes",
		"link": "/member_directory/35595",
		"street": "156 Duff St.",
		"city": "Kingston, ON",
		"postCode": "K7K 2L5",
		"contact": "Bert Barr",
		"phone": "(613) 542-4922",
		"website": "http://barrhomes.ca"
	},
	{
		"company": "Barrie Advance",
		"link": "/member_directory/36413",
		"street": "21 Patterson Rd.",
		"city": "Barrie, ON",
		"postCode": "L4N 7W6",
		"contact": "Kim Harrison",
		"phone": "(705) 726-0573",
		"website": null
	},
	{
		"company": "Barrie Examiner (The )",
		"link": "/member_directory/36414",
		"street": "571 Bayfield St. N.",
		"city": "Barrie, ON",
		"postCode": "L4N 4Z9",
		"contact": "Sandy Davies",
		"phone": "(705) 726-6537",
		"website": null
	},
	{
		"company": "Barrie Trim & Mouldings Inc.",
		"link": "/member_directory/36433",
		"street": "52 Saunders Rd.",
		"city": "Barrie, ON",
		"postCode": "L4N 9A8",
		"contact": "Lee Whitaker",
		"phone": "(705) 739-2200",
		"website": null
	},
	{
		"company": "Barry J. Hobin & Associates Architects Inc.",
		"link": "/member_directory/34790",
		"street": "63 Pamilla St.",
		"city": "Ottawa, ON",
		"postCode": "K1S 3K7",
		"contact": "Barry Hobin",
		"phone": "(613) 238-7200",
		"website": "http://hobinarc.com"
	},
	{
		"company": "Barry Miscio Contracting",
		"link": "/member_directory/35247",
		"street": "1386 Tulip Rd.",
		"city": "Minden, ON",
		"postCode": "K0M 1J2",
		"contact": "Barry Miscio",
		"phone": "(705) 754-4603",
		"website": null
	},
	{
		"company": "Barry Wade Design Construction Management",
		"link": "/member_directory/35667",
		"street": "15 Janes St.",
		"city": "Dorchester, ON",
		"postCode": "N0L 1G2",
		"contact": "Barry Wade",
		"phone": "(519) 268-2995",
		"website": "http://wdcm.com"
	},
	{
		"company": "Barry's Construction",
		"link": "/member_directory/35058",
		"street": "RR#2",
		"city": "Allenford, ON",
		"postCode": "N0H 1A0",
		"contact": "Barry Kruisselbrink",
		"phone": "(519) 934-3374",
		"website": null
	},
	{
		"company": "Barry's Construction & Renovation Ltd.",
		"link": "/member_directory/33567",
		"street": "2801 Jane St. Ste. 1705",
		"city": "Toronto, ON",
		"postCode": "M3N 2H8",
		"contact": "Quacy Barry",
		"phone": "1-800-438-5192",
		"website": "http://bcrltd.ca"
	},
	{
		"company": "Bart DiGiovanni Construction Ltd.",
		"link": "/member_directory/36940",
		"street": "2217 Walker Rd.",
		"city": "McGregor, ON",
		"postCode": "N0R 1J0",
		"contact": "Dan Di Giovanni",
		"phone": "(519) 726-5263",
		"website": "http://bartdigiovanniconstruction.com"
	},
	{
		"company": "Bart Szoke Architect",
		"link": "/member_directory/33753",
		"street": "257 Margueretta St.",
		"city": "Toronto, ON",
		"postCode": "M6H 3S4",
		"contact": "Bart Szoke",
		"phone": "(416) 533-7866",
		"website": "http://szoke.ca"
	},
	{
		"company": "Barwood Flooring (Ottawa) Ltd.",
		"link": "/member_directory/34972",
		"street": "155 Colonnade Rd.",
		"city": "Nepean, ON",
		"postCode": "K2E 7K1",
		"contact": "Joe Falcone",
		"phone": "(613) 225-0296",
		"website": "http://barwoodflooring.com"
	},
	{
		"company": "Barzotti Woodworking Ltd.",
		"link": "/member_directory/35137",
		"street": "2 Watson Rd. S.",
		"city": "Guelph, ON",
		"postCode": "N1H 6H8",
		"contact": "Rosanna Barzotti",
		"phone": "(519) 821-3670",
		"website": null
	},
	{
		"company": "BASF Canada Inc.",
		"link": "/member_directory/33300",
		"street": "100 Milverton Dr. 5th Flr.",
		"city": "Mississauga, ON",
		"postCode": "L5R 4H1",
		"contact": "Sharon Lishman",
		"phone": "(289) 360-6178",
		"website": "http://Walltiteeco.com"
	},
	{
		"company": "Bath Fitter",
		"link": "/member_directory/35805",
		"street": "22-150 Exeter Rd.",
		"city": "London, ON",
		"postCode": "N6L 1G9",
		"contact": "Carollyn Currie",
		"phone": "(519) 652-2222",
		"website": "http://bathfitter.com"
	},
	{
		"company": "Bath Solutions",
		"link": "/member_directory/36277",
		"street": "45 Wilson Ave.",
		"city": "Belleville, ON",
		"postCode": "K8P 1R7",
		"contact": "Jared Mitchell",
		"phone": "(613)210 0940",
		"website": null
	},
	{
		"company": "Bathroom and Kitchen Galleries",
		"link": "/member_directory/33301",
		"street": "7855 Keele St. Unit 1A",
		"city": "Vaughan, ON",
		"postCode": "L4K 1Y6",
		"contact": "Alina Butromeieva",
		"phone": "(905) 761-2002",
		"website": "http://bathroomgalleries.com"
	},
	{
		"company": "Battlefield Equipment Inc.",
		"link": "/member_directory/36236",
		"street": "680 Sidney St.,",
		"city": "Belleville, ON",
		"postCode": "K8P 4A8",
		"contact": "Ken Devolin",
		"phone": "(613) 966-2822",
		"website": null
	},
	{
		"company": "Battlefield Equipment Rentals Inc.",
		"link": "/member_directory/34880",
		"street": "92 Alti Place",
		"city": "Ottawa, ON",
		"postCode": "K2R 0A1",
		"contact": "Tim Sims",
		"phone": "(613) 828-5121",
		"website": null
	},
	{
		"company": "Bavarian Window Works",
		"link": "/member_directory/36883",
		"street": "2236 Shirley Dr.",
		"city": "Kitchener, ON",
		"postCode": "N2B 3Y1",
		"contact": "Grant Baechler",
		"phone": "(519) 578-3938",
		"website": "http://bavarianwindows.com"
	},
	{
		"company": "Bay Builders",
		"link": "/member_directory/36016",
		"street": "100 Hwy 17E., Box 622",
		"city": "North Bay, ON",
		"postCode": "P1B 8J5",
		"contact": "Nicole Neff",
		"phone": "(705) 840-5122",
		"website": null
	},
	{
		"company": "Bay of Quinte Living",
		"link": "/member_directory/36194",
		"street": "8 Wedgewood Lane",
		"city": "Belleville, ON",
		"postCode": "K8N 4Z2",
		"contact": "Adrian Bax",
		"phone": "(613) 969-5153",
		"website": null
	},
	{
		"company": "Baycliffe Homes Inc.",
		"link": "/member_directory/32890",
		"street": "1 Ashbridge Circle Unit 3C",
		"city": "Woodbridge, ON",
		"postCode": "L4L 3R5",
		"contact": "Carlo Raponi",
		"phone": "(905) 264-2229",
		"website": "http://baycliffehomes.com"
	},
	{
		"company": "Baycreek Development Ltd.",
		"link": "/member_directory/35596",
		"street": "820 Development Dr.",
		"city": "Kingston, ON",
		"postCode": "K7M 5V7",
		"contact": "Matt Herrington",
		"phone": "(613) 389-2025",
		"website": null
	},
	{
		"company": "Baycrest Homes",
		"link": "/member_directory/32891",
		"street": "668 Millway Ave. Unit 10",
		"city": "Concord, ON",
		"postCode": "L4K 3V2",
		"contact": "Vincent Vocella",
		"phone": "(905) 326-3200",
		"website": null
	},
	{
		"company": "Bayden Homes",
		"link": "/member_directory/33568",
		"street": "315 Supertest Rd.",
		"city": "Toronto, ON",
		"postCode": "M3J 2M4",
		"contact": "Darryl Frankfort",
		"phone": "(416) 818-8143",
		"website": "http://bayden.ca"
	},
	{
		"company": "Bayhill Homes",
		"link": "/member_directory/35668",
		"street": "1720 Healy Rd.",
		"city": "London, ON",
		"postCode": "N6G 5P1",
		"contact": "Frank Bilotta",
		"phone": "(519) 860-7620",
		"website": null
	},
	{
		"company": "Baymanor Homes",
		"link": "/member_directory/33569",
		"street": "3200 Dufferin St. Ste. 421",
		"city": "Toronto, ON",
		"postCode": "M6A 3B2",
		"contact": "Fabrizio Calitri",
		"phone": "(416) 781-2866",
		"website": "http://baymanorhomes.com"
	},
	{
		"company": "Bayview Projects Contracting",
		"link": "/member_directory/33570",
		"street": "84 Highland Cres.",
		"city": "North York, ON",
		"postCode": "M2L 1G9",
		"contact": "Jerry Keuroghlian",
		"phone": "(416) 730-8506",
		"website": "http://bayviewprojects.com"
	},
	{
		"company": "Bayview Windows",
		"link": "/member_directory/34881",
		"street": "6270 Perth St. P.O. Box 309",
		"city": "Richmond, ON",
		"postCode": "K0A 2Z0",
		"contact": "Stephen Fenn",
		"phone": "(613) 838-2211",
		"website": "http://bayviewwindows.ca"
	},
	{
		"company": "Bayview-Wellington Homes",
		"link": "/member_directory/32892",
		"street": "111 Creditstone Rd.",
		"city": "Concord, ON",
		"postCode": "L4K 1N3",
		"contact": "Justin Pellicciotta",
		"phone": "(905) 695-0661",
		"website": "http://bwhomes.ca"
	},
	{
		"company": "Bazil Developments Inc.",
		"link": "/member_directory/32893",
		"street": "2235 Sheppard Ave. E. Ste. 903",
		"city": "Toronto, ON",
		"postCode": "M2J 5B5",
		"contact": "Paul Bailey",
		"phone": "(416) 495-0375",
		"website": null
	},
	{
		"company": "Bazinga!",
		"link": "/member_directory/33754",
		"street": "225 Smithe St. Ste. 201",
		"city": "Vancouver, British Columbia",
		"postCode": "V6B 4X7",
		"contact": "Mehmet Akcagliyan",
		"phone": "(604) 682-4116",
		"website": "http://mybazinga.com"
	},
	{
		"company": "BDO Canada LLP",
		"link": "/member_directory/35110",
		"street": "512 Woolwich St.",
		"city": "Guelph, ON",
		"postCode": "N1H 3X7",
		"contact": "Dan Cremasco",
		"phone": "(519) 824-5410",
		"website": null
	},
	{
		"company": "BDO Canada LLP",
		"link": "/member_directory/35394",
		"street": "3115 Harvester Rd. Suite 400",
		"city": "Burlington, ON",
		"postCode": "L7N 3N8",
		"contact": "Tony Tartaglia",
		"phone": "(905) 639-9500",
		"website": "http://bdo.ca"
	},
	{
		"company": "BDO Canada LLP",
		"link": "/member_directory/33755",
		"street": "60 Columbia Way Ste. 300",
		"city": "Markham, ON",
		"postCode": "L3R 0C9",
		"contact": "Frank Delzotto",
		"phone": "(905) 946-1066",
		"website": "http://bdo.ca"
	},
	{
		"company": "Beacon Herald of Stratford",
		"link": "/member_directory/36551",
		"street": "789 Erie St.,",
		"city": "Stratford, ON",
		"postCode": "N4Z 1A1",
		"contact": "Dave Carer",
		"phone": "(519) 271-2220",
		"website": null
	},
	{
		"company": "Beaver Valley Stone Ltd.",
		"link": "/member_directory/33302",
		"street": "25 Langstaff Rd. E.",
		"city": "Thornhill, ON",
		"postCode": "L3T 3P7",
		"contact": "Tony Pacitto",
		"phone": "(905) 886-5787",
		"website": "http://beavervalleystone.com"
	},
	{
		"company": "Beaverhall Homes",
		"link": "/member_directory/32894",
		"street": "40 Vogell Rd. Unit 17",
		"city": "Richmond Hill, ON",
		"postCode": "L4B 3N6",
		"contact": "Ami Tamam",
		"phone": "(905) 770-9983",
		"website": "http://beaverhall.com"
	},
	{
		"company": "Behan Barnum Investment Management Group",
		"link": "/member_directory/33756",
		"street": "1 First Canadian Place 40th Flr.",
		"city": "Toronto, ON",
		"postCode": "M5X 1H3",
		"contact": "Don Behan",
		"phone": "(416) 359-7349",
		"website": "http://behanbarnuminvestmentmanagementgroup.com"
	},
	{
		"company": "Belanger Laminates",
		"link": "/member_directory/33303",
		"street": "1435 Joliot-Curie",
		"city": "Boucherville, Quebec",
		"postCode": "J4B 7M4",
		"contact": "Lori Meharg",
		"phone": "(450) 449-3447",
		"website": "http://belanger-laminates.com"
	},
	{
		"company": "Beldman Construction Ltd.",
		"link": "/member_directory/34319",
		"street": "20 Albert St.",
		"city": "Wingham, ON",
		"postCode": "N0G 2W0",
		"contact": "John Beldman",
		"phone": "(519) 357-3042",
		"website": null
	},
	{
		"company": "Belfor Property Restoration",
		"link": "/member_directory/34732",
		"street": "75 Auriga Dr.",
		"city": "Ottawa, ON",
		"postCode": "K2E 7Z2",
		"contact": "Mark Hyndman",
		"phone": "(613) 226-3112",
		"website": null
	},
	{
		"company": "Bell Canada",
		"link": "/member_directory/36884",
		"street": "100 Dundas St. Floor 4",
		"city": "London, ON",
		"postCode": "N6A 4L6",
		"contact": "Cyndi Vienneau-Cormier",
		"phone": "1-877-659-4821",
		"website": "http://bell.ca"
	},
	{
		"company": "Bell Canada",
		"link": "/member_directory/33304",
		"street": "100 Wynford Dr. 3rd Flr.",
		"city": "Toronto, ON",
		"postCode": "M3C 4B4",
		"contact": "Laura Mellanby",
		"phone": "(416) 446-2500",
		"website": "http://bell.ca"
	},
	{
		"company": "Bell Canada",
		"link": "/member_directory/34365",
		"street": "100 Dundas St.",
		"city": "LONDON, ON",
		"postCode": "N6A 4L6",
		"contact": "Cyndi Vienneau-Cormier",
		"phone": "(519) 663-4540",
		"website": null
	},
	{
		"company": "Bell Canada",
		"link": "/member_directory/34882",
		"street": "469 Coventry Rd.",
		"city": "Ottawa, ON",
		"postCode": "K1K 2C5",
		"contact": "Kristin Reid",
		"phone": "(613) 742-6233",
		"website": "http://bell.ca"
	},
	{
		"company": "Bell Canada",
		"link": "/member_directory/36195",
		"street": "75 Bridge St.E, Bag 5800",
		"city": "Belleville, ON",
		"postCode": "K8N 1L9",
		"contact": "Don Dafoe",
		"phone": "(613) 966-3573",
		"website": null
	},
	{
		"company": "Bell Canada",
		"link": "/member_directory/35470",
		"street": "100 Wynford Dr.",
		"city": "Toronto, ON",
		"postCode": "M3C 4B4",
		"contact": "Claudio Basso",
		"phone": "1-855-426-3237",
		"website": "http://bell.ca"
	},
	{
		"company": "Bell Canada",
		"link": "/member_directory/35983",
		"street": "100 Wynford Dr., Floor 3",
		"city": "Toronto, ON",
		"postCode": "M3C 4B4",
		"contact": "Chris Taylor",
		"phone": "(289) 795-5522",
		"website": "http://bell.ca"
	},
	{
		"company": "Bell Canada",
		"link": "/member_directory/35806",
		"street": "100 Dundas St. Fl. 4",
		"city": "London, ON",
		"postCode": "N6A 4L6",
		"contact": "Cyndi Vienneau",
		"phone": "(519) 663-4540",
		"website": "http://bell.ca"
	},
	{
		"company": "Bell Canada",
		"link": "/member_directory/34540",
		"street": "100 Wynford Dr.",
		"city": "Toronto, ON",
		"postCode": "M3C 4B4",
		"contact": "Lisa Lippai",
		"phone": "(416) 427-1526",
		"website": "http://bell.ca"
	},
	{
		"company": "Bellai Brothers Ltd.",
		"link": "/member_directory/34973",
		"street": "440 Laurier Ave. W. Ste. 200",
		"city": "Ottawa, ON",
		"postCode": "K1R 7X6",
		"contact": "Romeo Bellai",
		"phone": "(819) 782-2932",
		"website": null
	},
	{
		"company": "Bellefield Custom Homes",
		"link": "/member_directory/35597",
		"street": "213 McDougall Dr.",
		"city": "Amherstview, ON",
		"postCode": "K7N0A2",
		"contact": "Luke Field",
		"phone": "(613) 453-8150",
		"website": "http://bellefieldcustomhomes.com"
	},
	{
		"company": "Belleville Chamber of Commerce",
		"link": "/member_directory/36196",
		"street": "5 Moira St. E.",
		"city": "Belleville, ON",
		"postCode": "K8N 5B3",
		"contact": "Luc Fournier",
		"phone": "(613) 962-4597",
		"website": null
	},
	{
		"company": "Belleville Home Building Centre",
		"link": "/member_directory/36237",
		"street": "445 Dundas St. E.",
		"city": "Belleville, ON",
		"postCode": "K8N 1G2",
		"contact": "Amy Lockwood",
		"phone": "(613) 968-3451",
		"website": null
	},
	{
		"company": "Belleville Intelligencer",
		"link": "/member_directory/36197",
		"street": "199 Front St.",
		"city": "Belleville, ON",
		"postCode": "K8N 5H5",
		"contact": "Gerry Drage",
		"phone": "(613) 962-9171",
		"website": null
	},
	{
		"company": "Bellin Construction Ltd.",
		"link": "/member_directory/34153",
		"street": "70 Charmaine Rd.",
		"city": "Woodbridge, ON",
		"postCode": "L4L 1K2",
		"contact": "John Zanatta",
		"phone": "(416) 579-9558",
		"website": null
	},
	{
		"company": "Belliveau Construction",
		"link": "/member_directory/36545",
		"street": "622 Lorne Ave. E.",
		"city": "Stratford, ON",
		"postCode": "N5A 6S5",
		"contact": "Todd Hartung",
		"phone": "(519) 271-2932",
		"website": null
	},
	{
		"company": "Belyea Bros. Ltd.",
		"link": "/member_directory/33571",
		"street": "2 Thorncliffe Park Dr. Unit 24",
		"city": "Toronto, ON",
		"postCode": "M4H 1H2",
		"contact": "David Boyle",
		"phone": "(416) 425-1200",
		"website": "http://belyeabrothers.com"
	},
	{
		"company": "Benckhuysen Construction",
		"link": "/member_directory/34654",
		"street": "5780 Osgoode Ridge Rd.",
		"city": "Osgoode, ON",
		"postCode": "K0A 2W0",
		"contact": "Eric Benckhuysen",
		"phone": "(613) 826-0920",
		"website": "http://benckhuysenconstruction.ca"
	},
	{
		"company": "Benedict Raithby Inc.",
		"link": "/member_directory/36552",
		"street": "871 Dundas St.",
		"city": "Woodstock, ON",
		"postCode": "N4S 1G8",
		"contact": "David Raithby",
		"phone": "(519) 537-6212",
		"website": null
	},
	{
		"company": "Benim Contracting (2055523 Ontario Ltd.)",
		"link": "/member_directory/34154",
		"street": "11 Chestnut Hills Cres.",
		"city": "Etobicoke, ON",
		"postCode": "M9A 2W3",
		"contact": "Dogan Aygun",
		"phone": "(416) 737-5897",
		"website": "http://benimcontracting.ca"
	},
	{
		"company": "Benmiller Construction Ltd.",
		"link": "/member_directory/36605",
		"street": "81175 Grist Mill Line RR #4",
		"city": "Goderich, ON",
		"postCode": "N7A 3Y1",
		"contact": "Steve Boyce",
		"phone": "1-866-524-9169",
		"website": null
	},
	{
		"company": "Bentum Family Homes",
		"link": "/member_directory/36033",
		"street": "753 Glenwood Rd.",
		"city": "Woodstock, ON",
		"postCode": "N4T 0A6",
		"contact": "Tim Bentum",
		"phone": "(519) 421-7157",
		"website": null
	},
	{
		"company": "Bernardi Building Supply Ltd.",
		"link": "/member_directory/33305",
		"street": "469 Garyray Dr.",
		"city": "Weston, ON",
		"postCode": "M9L 1P6",
		"contact": "Michael Bernardi",
		"phone": "(416) 741-0941",
		"website": "http://bernardibuildingsupply.com"
	},
	{
		"company": "Berner Contracting",
		"link": "/member_directory/35059",
		"street": "R.R. #7",
		"city": "Owen Sound, ON",
		"postCode": "N4K 6V5",
		"contact": "Mark Berner",
		"phone": "(519) 376-5846",
		"website": "http://bernercontracting.com"
	},
	{
		"company": "Bert French & Son Ltd.",
		"link": "/member_directory/35248",
		"street": "126 Greer Rd., R.R.#2",
		"city": "Port Sydney, ON",
		"postCode": "P0B 1L0",
		"contact": "Lawrence French",
		"phone": "(705) 385-2311",
		"website": null
	},
	{
		"company": "Best Way Stone Ltd.",
		"link": "/member_directory/33306",
		"street": "8821 W.on Rd.",
		"city": "Woodbridge, ON",
		"postCode": "L4L 1A6",
		"contact": "Frank Pacitto",
		"phone": "(416) 747-0988",
		"website": "http://bestwaystone.com"
	},
	{
		"company": "Bestfame Group Inc.",
		"link": "/member_directory/33757",
		"street": "2235 Sheppard Ave. E. Ste. 901",
		"city": "Toronto, ON",
		"postCode": "M2J 5B5",
		"contact": "Wenwu Zhao",
		"phone": "(416) 882-7886",
		"website": "http://bestfame.com"
	},
	{
		"company": "Better Built Homes Ltd.",
		"link": "/member_directory/34733",
		"street": "8979 McCaffrey Trail",
		"city": "Ottawa, ON",
		"postCode": "K0A 1B0",
		"contact": "Andrew McConnachie",
		"phone": "(613) 612-6571",
		"website": "http://betterbuilthomes.ca"
	},
	{
		"company": "Beverley Hills Home Improvements",
		"link": "/member_directory/35369",
		"street": "201 Barton St. E. Unit 3",
		"city": "Stoney Creek, ON",
		"postCode": "L8E 2K3",
		"contact": "Joe Zaborski",
		"phone": "(905) 664-3875",
		"website": "http://beverleyhillshome.com"
	},
	{
		"company": "Beyond Kitchens and Bath Inc.",
		"link": "/member_directory/33307",
		"street": "136 Watline Ave. Unit 5-6",
		"city": "Mississauga, ON",
		"postCode": "L4Z 2E2",
		"contact": "Chris Chen",
		"phone": "(905) 507-1666",
		"website": "http://beyondkitchens.ca"
	},
	{
		"company": "Bice Builders Ltd.",
		"link": "/member_directory/35911",
		"street": "1452 Four Mile Creek Road P.O.",
		"city": "Virgil, ON",
		"postCode": "L0S 1T0",
		"contact": "John Bice",
		"phone": "(905) 933-8194",
		"website": "http://bicebuilders.com"
	},
	{
		"company": "Bickell Built Homes Ltd.",
		"link": "/member_directory/36526",
		"street": "9 Birtch Creek Cres.",
		"city": "St. Marys, ON",
		"postCode": "N4X 0A3",
		"contact": "Dan Bickell",
		"phone": "(519) 284-1749",
		"website": null
	},
	{
		"company": "Bickell's Flooring & Complete Decorating Centre",
		"link": "/member_directory/36577",
		"street": "380 Lorne Ave., E.",
		"city": "Stratford, ON",
		"postCode": "N5A 6S4",
		"contact": "Geoff Bickell",
		"phone": "(519) 273-4564",
		"website": null
	},
	{
		"company": "Biddington Homes",
		"link": "/member_directory/32895",
		"street": "1962 Yonge St. Ste. 200",
		"city": "Toronto, ON",
		"postCode": "M4S 1Z4",
		"contact": "Arnie Lash",
		"phone": "(416) 924-2244",
		"website": null
	},
	{
		"company": "Biederman Painting & Decorating Ltd.",
		"link": "/member_directory/35564",
		"street": "28 Jameson Dr.",
		"city": "Dundas, ON",
		"postCode": "L9H 5A3",
		"contact": "Michael Biederman",
		"phone": "(905) 627-3704",
		"website": null
	},
	{
		"company": "Binns Kitchen + Bath Design",
		"link": "/member_directory/33572",
		"street": "1055 Bay St.",
		"city": "Toronto, ON",
		"postCode": "M5S 3A3",
		"contact": "Raymond Binns",
		"phone": "(905) 509-5555",
		"website": "http://binns.net"
	},
	{
		"company": "Birch Island Design Build Group",
		"link": "/member_directory/34734",
		"street": "429 Lansdowne Rd. N.",
		"city": "Rockcliffe, ON",
		"postCode": "K1M 0X8",
		"contact": "Peter Locke",
		"phone": "(613) 747-7001",
		"website": "http://birchislanddesignbuildgroup.ca"
	},
	{
		"company": "Birchside Builders Inc.",
		"link": "/member_directory/35370",
		"street": "R.R.#3",
		"city": "Dundas, ON",
		"postCode": "L9H 5E3",
		"contact": "Wes Votruba",
		"phone": "(905) 385-1288",
		"website": "http://birchside.com"
	},
	{
		"company": "Birnie Current Safe",
		"link": "/member_directory/34155",
		"street": "2209 Dunwin Dr.",
		"city": "Mississauga, ON",
		"postCode": "L5L 1X1",
		"contact": "Tim Birnie",
		"phone": "(905) 569-1818",
		"website": "http://ismyhomesafe.ca"
	},
	{
		"company": "BK Cornerstone Design Build Ltd.",
		"link": "/member_directory/36941",
		"street": "P.O. Box 308",
		"city": "Belle River, ON",
		"postCode": "N0R 1A0",
		"contact": "Ben Klundert",
		"phone": "(519) 728-3664",
		"website": "http://bkcornerstone.com"
	},
	{
		"company": "Black, Shoemaker, Robinson & Donaldson Ltd.",
		"link": "/member_directory/35111",
		"street": "351 Speedvale Ave. W.",
		"city": "Guelph, ON",
		"postCode": "N1H 1C6",
		"contact": "Kerry Hillis",
		"phone": "(519) 822-4031",
		"website": null
	},
	{
		"company": "Black, Shoemaker, Robinson & Donaldson Ltd.",
		"link": "/member_directory/36825",
		"street": "351 Speedvale Ave. W.",
		"city": "Guelph, ON",
		"postCode": "N1H 1C6",
		"contact": "Kerry Hillis",
		"phone": "(519) 822-4031",
		"website": "http://bsrd.com"
	},
	{
		"company": "Blackjet Inc.",
		"link": "/member_directory/33758",
		"street": "183 Bathurst St. Ste. 401",
		"city": "Toronto, ON",
		"postCode": "M5T 2R7",
		"contact": "Ravi Chandran",
		"phone": "(416) 642-6860",
		"website": "http://blackjet.ca"
	},
	{
		"company": "Blair Building Materials Inc.",
		"link": "/member_directory/33308",
		"street": "10445 Keele St. P.O. Box 730",
		"city": "Maple, ON",
		"postCode": "L6A 1S7",
		"contact": "Dante DiGiovanni",
		"phone": "(416) 798-4996",
		"website": "http://blairbuildingmaterials.com"
	},
	{
		"company": "Blair Sand & Gravel (1017546 Ont.)Ltd.",
		"link": "/member_directory/35273",
		"street": "Box 720",
		"city": "Haliburton, ON",
		"postCode": "K0M 1S0",
		"contact": "Barry Boice",
		"phone": "(705) 457-1349",
		"website": null
	},
	{
		"company": "Blakestyle Design & Drafting",
		"link": "/member_directory/34304",
		"street": "43177 St. Michaels Rd.",
		"city": "Brussels, ON",
		"postCode": "N0G 1H0",
		"contact": "Chris Blake",
		"phone": "(519) 887-8102",
		"website": null
	},
	{
		"company": "Blanco Canada",
		"link": "/member_directory/33309",
		"street": "100 Corporation Dr.",
		"city": "Brampton, ON",
		"postCode": "L6S 6B5",
		"contact": "Wendy McPherson",
		"phone": "(905) 494-2400",
		"website": "http://blancocanada.com"
	},
	{
		"company": "Blaney McMurtry LLP",
		"link": "/member_directory/33759",
		"street": "2 Queen St. E. Ste. 1500",
		"city": "Toronto, ON",
		"postCode": "M5C 3G5",
		"contact": "Tammy Evans",
		"phone": "(416) 593-1221",
		"website": "http://blaney.com"
	},
	{
		"company": "Bloor Railing Ltd.",
		"link": "/member_directory/34588",
		"street": "361 Bloor St. E.",
		"city": "Oshawa, ON",
		"postCode": "L1H 3M9",
		"contact": "Eugenio Romano",
		"phone": "(905) 579-5077",
		"website": "http://bloorrailing.com"
	},
	{
		"company": "Blue Jay Irrigation",
		"link": "/member_directory/35883",
		"street": "1478 Seagull Rd.",
		"city": "London, ON",
		"postCode": "N6H 5L9",
		"contact": "Bruce Lively",
		"phone": "(519) 641-3578",
		"website": "http://bluejayirrigation.com"
	},
	{
		"company": "Blue Sky Fence & Deck Inc.",
		"link": "/member_directory/35884",
		"street": "3392 Wonderland Rd. South - Building",
		"city": "London, ON",
		"postCode": "N6L 1A8",
		"contact": "Marc Chauvin",
		"phone": "(519) 652-1224",
		"website": "http://blueskyfence.ca"
	},
	{
		"company": "Blueline Inc.",
		"link": "/member_directory/35768",
		"street": "663 Central Ave.",
		"city": "London, ON",
		"postCode": "N5W 3P7",
		"contact": "Simon Coles",
		"phone": "(519) 434-7290",
		"website": "http://bluelinedesign.ca"
	},
	{
		"company": "Blueprint Masonry & Foundations",
		"link": "/member_directory/34735",
		"street": "1010 Polytek St. Unit 17",
		"city": "Ottawa, ON",
		"postCode": "K1J 9J1",
		"contact": "Yves Eggleston",
		"phone": "(613) 262-2442",
		"website": "http://blueprintmasonry.com"
	},
	{
		"company": "Blueprint Properties Inc.",
		"link": "/member_directory/32896",
		"street": "337 Vaughan Rd. Unit 2",
		"city": "Toronto, ON",
		"postCode": "M6C 2N5",
		"contact": "Winston Ang",
		"phone": "(416) 731-2285",
		"website": "http://blueprintpropertiesinc.ca"
	},
	{
		"company": "Blueprint Renovations",
		"link": "/member_directory/33573",
		"street": "62 Edgewood Ave.",
		"city": "Toronto, ON",
		"postCode": "M4L 3H1",
		"contact": "Joseph Darragh",
		"phone": "(416) 878-3272",
		"website": "http://blueprintrenovations.com"
	},
	{
		"company": "Bluewater Power Dist. Corp.",
		"link": "/member_directory/36353",
		"street": "855 Confederation St.",
		"city": "Sarnia, ON",
		"postCode": "N7T 7L6",
		"contact": "Chris Gould",
		"phone": "(519) 337-8201",
		"website": "http://bluewaterpower.com"
	},
	{
		"company": "Blundons Insulation Ltd.",
		"link": "/member_directory/34974",
		"street": "30 Jamie Ave.",
		"city": "Nepean, ON",
		"postCode": "K2E 6T6",
		"contact": "Corey Blundon",
		"phone": "(613) 225-6120",
		"website": null
	},
	{
		"company": "Blythwood Group Inc.",
		"link": "/member_directory/35912",
		"street": "7058 Ridgewood Cres.",
		"city": "Niagara Falls, ON",
		"postCode": "L2J 3H1",
		"contact": "Robert Mills",
		"phone": "(905) 358-6610",
		"website": "http://blythwoodgroup.com"
	},
	{
		"company": "BMO Bank of Montreal",
		"link": "/member_directory/36415",
		"street": "90 Collier St. Suite 104A",
		"city": "Barrie, ON",
		"postCode": "L4M 0J3",
		"contact": "Gregg Miyasaki",
		"phone": "(705) 734-1403",
		"website": null
	},
	{
		"company": "BMO Bank of Montreal",
		"link": "/member_directory/35395",
		"street": "1074 King St. E.",
		"city": "Kitchener, ON",
		"postCode": "N2G 2N2",
		"contact": "Gordon Dunn",
		"phone": "(519) 581-0691",
		"website": null
	},
	{
		"company": "BMO Bank of Montreal",
		"link": "/member_directory/36791",
		"street": "1074 King St E Suite 101",
		"city": "Kitchener, ON",
		"postCode": "N2G 2N2",
		"contact": "Gord Dunn",
		"phone": "(519) 579 5435",
		"website": "http://bmo.com"
	},
	{
		"company": "BMO Bank of Montreal",
		"link": "/member_directory/33255",
		"street": "First Canadian Place 11th Flr.",
		"city": "Toronto, ON",
		"postCode": "M5X 1A1",
		"contact": "Marc-Andre Bergeron",
		"phone": "(416) 643-4407",
		"website": "http://bmo.com"
	},
	{
		"company": "BNP PARIBAS",
		"link": "/member_directory/33256",
		"street": "155 Wellington St. W. Ste. 3110, RBC Centre, Box 149",
		"city": "Toronto, ON",
		"postCode": "M5V 3H1",
		"contact": "Chris Golding",
		"phone": "(416) 365-6714",
		"website": "http://bnpparibas.com"
	},
	{
		"company": "Boa-Franc G.P. (Mirage Pre-Finished Hardwood Flooring)",
		"link": "/member_directory/33310",
		"street": "1255 Ninety-Eighth St.",
		"city": "St. Georges, Quebec",
		"postCode": "G5Y 8J5",
		"contact": "Joe Leone",
		"phone": "1-800-463-1640",
		"website": "http://miragefloors.ca"
	},
	{
		"company": "Bob Jarvis Insulation Ltd.",
		"link": "/member_directory/35560",
		"street": "3450 Landmark Rd., Unit B",
		"city": "Burlington, ON",
		"postCode": "L7M 1S8",
		"contact": "Dave Jarvis",
		"phone": "(905) 336-3052",
		"website": "http://jarvisinsulation.com"
	},
	{
		"company": "Bob Jarvis Insulation Ltd.",
		"link": "/member_directory/35565",
		"street": "3450 Landmark Rd. Unit B",
		"city": "Burlington, ON",
		"postCode": "L7M 1S8",
		"contact": "Dave Jarvis",
		"phone": "(905) 336-3052",
		"website": "http://jarvisinsualtion.com"
	},
	{
		"company": "Boelens Plumbing Ltd",
		"link": "/member_directory/36987",
		"street": "4425 Confederation Line",
		"city": "Wyoming, ON",
		"postCode": "N0B 1T0",
		"contact": "Doug Boelens",
		"phone": "519-845-0260",
		"website": "http://boelensplumbing.com"
	},
	{
		"company": "Boer Homes",
		"link": "/member_directory/35167",
		"street": "115 Gilbert Rd., R.R. #3",
		"city": "Simcoe, ON",
		"postCode": "N3Y 4K2",
		"contact": "Henry Boer",
		"phone": "(519) 426-1685",
		"website": null
	},
	{
		"company": "Boise Cascade - Engineered Wood Products",
		"link": "/member_directory/34499",
		"street": "38 - 1100 Central Parkway W.",
		"city": "Mississauga, ON",
		"postCode": "L5C 4E5",
		"contact": "Marko Merhar",
		"phone": "(905) 279-8157",
		"website": "http://bc.com"
	},
	{
		"company": "Boise Cascade- Engineered Wood Products",
		"link": "/member_directory/33311",
		"street": "1100 Central Parkway W. Unit 38, Main Flr.",
		"city": "Mississauga, ON",
		"postCode": "L5C 4E5",
		"contact": "Marko Merhar",
		"phone": "(905) 279-8157",
		"website": "http://bc.com/ewp"
	},
	{
		"company": "Bolde Imaging Group Inc.",
		"link": "/member_directory/33312",
		"street": "204 Wilkinson Rd.",
		"city": "Brampton, ON",
		"postCode": "L6T 4M4",
		"contact": "Lucio DeClavasio",
		"phone": "(416) 241-2800",
		"website": "http://boldeimaging.com"
	},
	{
		"company": "Boltkrete Services",
		"link": "/member_directory/34156",
		"street": "381 Spinnaker Way",
		"city": "Concord, ON",
		"postCode": "L4K 4N4",
		"contact": "Cora Ruscica",
		"phone": "(905) 738-9859",
		"website": "http://boltkrete.com"
	},
	{
		"company": "Bolton Railings Inc.",
		"link": "/member_directory/34157",
		"street": "3 Browning Crt.",
		"city": "Bolton, ON",
		"postCode": "L7E 5S6",
		"contact": "Guy Vigliatore",
		"phone": "(905) 857-3266",
		"website": "http://boltonrailings.com"
	},
	{
		"company": "Boncor Building Products",
		"link": "/member_directory/36885",
		"street": "85 Thompson Dr.",
		"city": "Cambridge, ON",
		"postCode": "N1T 2E4",
		"contact": "Cindy Alexander",
		"phone": "(519) 621-1128",
		"website": "http://royalbuildingproducts.com"
	},
	{
		"company": "Boone Plumbing & Heating Supply Inc.",
		"link": "/member_directory/34883",
		"street": "1282 Algoma Rd.",
		"city": "Gloucester, ON",
		"postCode": "K1B 3W8",
		"contact": "Joe Desjardins",
		"phone": "(613) 746-7070",
		"website": "http://boone.ca"
	},
	{
		"company": "Borden Ladner Gervais LLP",
		"link": "/member_directory/33760",
		"street": "Scotia Plaza 40 King St. West",
		"city": "Toronto, ON",
		"postCode": "M5H 3Y4",
		"contact": "Pitman Patterson",
		"phone": "(416) 367-6109",
		"website": "http://blg.com"
	},
	{
		"company": "Borden Ladner Gervais LLP",
		"link": "/member_directory/34791",
		"street": "1100 - 100 Queen St. W.",
		"city": "Ottawa, ON",
		"postCode": "K1P 1J9",
		"contact": "Janet E. Bradley",
		"phone": "(613) 787-3749",
		"website": "http://blg.com"
	},
	{
		"company": "Bouma Builders Inc.",
		"link": "/member_directory/34396",
		"street": "28 Parkview Crt.",
		"city": "Chatham, ON",
		"postCode": "N7M 6H9",
		"contact": "Mike Vandersluis",
		"phone": "(519) 352-6804",
		"website": "http://boumabuilders.com"
	},
	{
		"company": "Bouma Design & Drafting",
		"link": "/member_directory/36342",
		"street": "1630 London Line",
		"city": "Sarnia, ON",
		"postCode": "N7T 7H2",
		"contact": "Travis Bouma",
		"phone": "(519) 339-1493",
		"website": null
	},
	{
		"company": "Bousfields Inc.",
		"link": "/member_directory/36985",
		"street": "3 Church Street",
		"city": "Toronto, ON",
		"postCode": "M5E 1M2",
		"contact": "Dave Falletta",
		"phone": "416-947-9744",
		"website": "http://bousfields.ca"
	},
	{
		"company": "Bousfields Inc.",
		"link": "/member_directory/37025",
		"street": "3 Church Street",
		"city": "Toronto, ON",
		"postCode": "M5E 1M2",
		"contact": "Dave Falletta",
		"phone": "416-947-9744",
		"website": null
	},
	{
		"company": "Bousfields Inc.",
		"link": "/member_directory/33761",
		"street": "3 Church St. Ste. 200",
		"city": "Toronto, ON",
		"postCode": "M5E 1M2",
		"contact": "Lindsay Dale-Harris",
		"phone": "(416) 947-9744",
		"website": "http://bousfields.ca"
	},
	{
		"company": "Bowes & Cocks Ltd.",
		"link": "/member_directory/36099",
		"street": "333 Charlotte St., P.O. Box 149",
		"city": "Peterborough, ON",
		"postCode": "K9J 6Y7",
		"contact": "Jack Peirson",
		"phone": "(705) 742-4234",
		"website": "http://bowesandcocks.com"
	},
	{
		"company": "Bowser Technical Inc.",
		"link": "/member_directory/34349",
		"street": "200 St. George St.",
		"city": "Brantford, ON",
		"postCode": "N3R 1W4",
		"contact": "Dara Bowser",
		"phone": "(519) 756-9116",
		"website": null
	},
	{
		"company": "Bowsher + Bowsher Law Firm",
		"link": "/member_directory/36495",
		"street": "2 Second Avenue",
		"city": "St. Thomas, ON",
		"postCode": "N5R 5S7",
		"contact": "Lane Walker",
		"phone": "(519) 633-3301",
		"website": null
	},
	{
		"company": "Boys Appliance",
		"link": "/member_directory/36046",
		"street": "555 Dundas St.",
		"city": "Woodstock, ON",
		"postCode": "N4S 1C6",
		"contact": "Jeff Csinos",
		"phone": "(519) 537-5504",
		"website": null
	},
	{
		"company": "Braams Custom Cabinets",
		"link": "/member_directory/35807",
		"street": "10 Ontario Rd.",
		"city": "St. Thomas, ON",
		"postCode": "N5P 3N4",
		"contact": "Mike Dawdry",
		"phone": "(519) 631-8138",
		"website": "http://braams.ca"
	},
	{
		"company": "Bradford White Canada Inc.",
		"link": "/member_directory/33313",
		"street": "1869 Sismet Rd.",
		"city": "Mississauga, ON",
		"postCode": "L4W 1W8",
		"contact": "Joe Drago",
		"phone": "(905) 238-0100",
		"website": "http://bradfordwhite.com"
	},
	{
		"company": "Bradley Homes",
		"link": "/member_directory/36388",
		"street": "2144 Taggart Crt.",
		"city": "Innisfil, ON",
		"postCode": "L9S 0C4",
		"contact": "Douglas Trumble",
		"phone": "(705) 431-8859",
		"website": "http://bradleyhomes.ca"
	},
	{
		"company": "Bradley Homes",
		"link": "/member_directory/32897",
		"street": "7982 Yonge St.",
		"city": "Innisfil, ON",
		"postCode": "L9S 1L5",
		"contact": "Bradley Pratt",
		"phone": "(705) 431-8859",
		"website": "http://bradleyhomes.ca"
	},
	{
		"company": "Bradley's Commercial Insurance",
		"link": "/member_directory/34792",
		"street": "1456 Stittsville Main St. P.O. Box",
		"city": "Stittsville, ON",
		"postCode": "K2S 1S4",
		"contact": "Stacy Elliott",
		"phone": "(613) 836-2473",
		"website": "http://bradleysinsurance.com"
	},
	{
		"company": "Bradstone (Div. of Wintergreen Ltd.)",
		"link": "/member_directory/33314",
		"street": "P.O. Box 1060",
		"city": "Stouffville, ON",
		"postCode": "L4A 8A1",
		"contact": "Brad Miller",
		"phone": "(416) 798-7809",
		"website": "http://bradstone.ca"
	},
	{
		"company": "Brady Storage Solutions",
		"link": "/member_directory/36665",
		"street": "20 Brady St.",
		"city": "Sudbury, ON",
		"postCode": "P3E 6E1",
		"contact": "Melanie Pelletier",
		"phone": "(705) 222-2220",
		"website": "http://bradystorage.ca"
	},
	{
		"company": "Braebury Homes",
		"link": "/member_directory/35598",
		"street": "400-366 King St. E.",
		"city": "Kingston, ON",
		"postCode": "K7K 6Y3",
		"contact": "Peter Splinter",
		"phone": "(613) 546-3400",
		"website": "http://braeburyhomes.com"
	},
	{
		"company": "Bramalea Tile Ltd.",
		"link": "/member_directory/34158",
		"street": "3045 S.creek Rd. Unit 51",
		"city": "Mississauga, ON",
		"postCode": "L4X 2X7",
		"contact": "Patrick Grillo",
		"phone": "(905) 568-2797",
		"website": "http://bramaleatile.com"
	},
	{
		"company": "Brame Electric Inc.",
		"link": "/member_directory/36606",
		"street": "10 Rutherford Dr.",
		"city": "Stratford, ON",
		"postCode": "N5A 0A4",
		"contact": "Trevor Brame",
		"phone": "(519) 301-1727",
		"website": null
	},
	{
		"company": "Brampton Brick Ltd.",
		"link": "/member_directory/33315",
		"street": "225 Wanless Dr.",
		"city": "Brampton, ON",
		"postCode": "L7A 1E9",
		"contact": "Bill Thompson",
		"phone": "(905) 840-1011",
		"website": "http://bramptonbrick.com"
	},
	{
		"company": "Brampton Brick Ltd.",
		"link": "/member_directory/35138",
		"street": "225 Wanless Dr.",
		"city": "Brampton, ON",
		"postCode": "L7A 1E9",
		"contact": "Colman Villanyi",
		"phone": "(905) 317-5161",
		"website": null
	},
	{
		"company": "Brampton Brick Ltd.",
		"link": "/member_directory/34884",
		"street": "144 Lake St.",
		"city": "Mallorytown, ON",
		"postCode": "K0E 1R0",
		"contact": "Mike Peters",
		"phone": "(613) 213-4334",
		"website": null
	},
	{
		"company": "Brampton Brick Ltd.",
		"link": "/member_directory/34634",
		"street": "225 Wanless Dr.",
		"city": "Brampton, ON",
		"postCode": "L7A 1E9",
		"contact": "Judy Pryma",
		"phone": "(416) 729-1615",
		"website": "http://bramptonbrick.com"
	},
	{
		"company": "Brampton Brick Ltd.",
		"link": "/member_directory/36434",
		"street": "225 Wanless Dr.",
		"city": "Brampton, ON",
		"postCode": "L4A 1E9",
		"contact": "Bruno Petrucci",
		"phone": "(905) 840-1011",
		"website": null
	},
	{
		"company": "Brampton Brick Ltd.",
		"link": "/member_directory/35471",
		"street": "225 Wanless Dr.",
		"city": "Brampton, ON",
		"postCode": "L7A 1E9",
		"contact": "Colman Villanyi",
		"phone": "(905) 840-1011",
		"website": "http://bramptonbrick.com"
	},
	{
		"company": "Brampton Brick Ltd.",
		"link": "/member_directory/36799",
		"street": "225 Wanless Dr.",
		"city": "Brampton, ON",
		"postCode": "L7A 1E9",
		"contact": "Colman Villanyi",
		"phone": "(905) 840-1011",
		"website": "http://bramptonbrick.com"
	},
	{
		"company": "Brampton Brick Ltd.",
		"link": "/member_directory/34541",
		"street": "225 Wanless Dr., 1st Floor",
		"city": "Brampton, ON",
		"postCode": "L7A 1E9",
		"contact": "Bill Barrett",
		"phone": "(905) 840-1011",
		"website": "http://bramptonbrick.com"
	},
	{
		"company": "Bramson Construction",
		"link": "/member_directory/33574",
		"street": "842 Eglinton Ave. W. P.O. Box 85531",
		"city": "Toronto, ON",
		"postCode": "M5N 0A2",
		"contact": "Evan Bramson",
		"phone": "(416) 625-3943",
		"website": "http://bramsonconstruction.com"
	},
	{
		"company": "Brand Factory (The)",
		"link": "/member_directory/33762",
		"street": "144 Bloor St. W. 6th Flr.",
		"city": "Toronto, ON",
		"postCode": "M5S 1M4",
		"contact": "Joseph Sulpizi",
		"phone": "(416) 920-8115",
		"website": "http://thebrandfactory.com"
	},
	{
		"company": "BrandAlliance, Inc. dba Great Expectations Incentive Group",
		"link": "/member_directory/33316",
		"street": "10 Roybridge Gate Ste. 202",
		"city": "Vaughan, ON",
		"postCode": "L4H 3M8",
		"contact": "Adam Grant",
		"phone": "(905) 819-0155",
		"website": "http://brandalliance.com"
	},
	{
		"company": "Brandon Communications Inc.",
		"link": "/member_directory/33763",
		"street": "67 Mowat Ave. Ste. 443",
		"city": "Toronto, ON",
		"postCode": "M6K 3E3",
		"contact": "Danny Roth",
		"phone": "(416) 850-0614",
		"website": "http://brandoncom.ca"
	},
	{
		"company": "Brandon Home Designs Inc.",
		"link": "/member_directory/34439",
		"street": "1-A James St. N.",
		"city": "Forest, ON",
		"postCode": "N0N 1J0",
		"contact": "Ryan Brandon",
		"phone": "(519) 333-3353",
		"website": null
	},
	{
		"company": "Brandy Lane Homes",
		"link": "/member_directory/32898",
		"street": "4580 Dufferin St. Ste. 307",
		"city": "Toronto, ON",
		"postCode": "M3H 5Y2",
		"contact": "David Hirsh",
		"phone": "(416) 636-4111",
		"website": "http://brandylanehomes.com"
	},
	{
		"company": "Brant County Power",
		"link": "/member_directory/34366",
		"street": "65 Dundas St. E.",
		"city": "Paris, ON",
		"postCode": "N3L 3H1",
		"contact": "Karen Spain",
		"phone": "(519) 442-2215",
		"website": null
	},
	{
		"company": "Brant News",
		"link": "/member_directory/34350",
		"street": "111 E.on Rd.",
		"city": "BRANTFORD, ON",
		"postCode": "N3P 1J4",
		"contact": "Len Offless",
		"phone": "(519) 758-1157",
		"website": null
	},
	{
		"company": "Brant Overhead Door",
		"link": "/member_directory/35233",
		"street": "366 Grand River Ave.",
		"city": "Brantford, ON",
		"postCode": "N3Y 4Y8",
		"contact": "Brian Enes",
		"phone": "(519) 756-0082",
		"website": null
	},
	{
		"company": "Brant Star Developments",
		"link": "/member_directory/37184",
		"street": "18 Oakley rd",
		"city": "Brantford, ON",
		"postCode": "N3T 6K1",
		"contact": "Ed Speelziek",
		"phone": "519-758-4570",
		"website": null
	},
	{
		"company": "Brant Star Developments Ltd.",
		"link": "/member_directory/34328",
		"street": "18 Oakley Rd.",
		"city": "Brantford, ON",
		"postCode": "N3T 5K1",
		"contact": "Ed Speelziek",
		"phone": "(519) 758-4570",
		"website": null
	},
	{
		"company": "Brant-Terra Homes Ltd.",
		"link": "/member_directory/34329",
		"street": "48 St. Andrews Dr.",
		"city": "Brantford, ON",
		"postCode": "N3T 5L8",
		"contact": "Jim Speelziek",
		"phone": "(519) 756-4682",
		"website": null
	},
	{
		"company": "Brantford Expositor (The)",
		"link": "/member_directory/34367",
		"street": "195 Henry St.",
		"city": "Brantford, ON",
		"postCode": "N3S 5C9",
		"contact": "Gord McCreary",
		"phone": "(519) 756-2020",
		"website": "http://brantfordexpositor.ca"
	},
	{
		"company": "Brantford Power Inc.",
		"link": "/member_directory/34368",
		"street": "84 Market St., P.O. Box 308",
		"city": "Brantford, ON",
		"postCode": "N3T 5N8",
		"contact": "Joanne VanPanhuis",
		"phone": "(519) 753-7391",
		"website": null
	},
	{
		"company": "Branthaven Homes ",
		"link": "/member_directory/35351",
		"street": "720 Oval Crt.",
		"city": "Burlington, ON",
		"postCode": "L7L 6A9",
		"contact": "Steve Stipsits",
		"phone": "(905) 333-8364",
		"website": "http://branthaven.com"
	},
	{
		"company": "Branthaven Homes",
		"link": "/member_directory/36732",
		"street": "720 Oval Crt.",
		"city": "Burlington, ON",
		"postCode": "L7L 6A9",
		"contact": "Sean Wadsworth",
		"phone": "(905) 333-8364",
		"website": "http://branthaven.com"
	},
	{
		"company": "Branthaven Homes",
		"link": "/member_directory/32899",
		"street": "720 Oval Crt.",
		"city": "Burlington, ON",
		"postCode": "L7L 6A9",
		"contact": "Steven Stipsits",
		"phone": "(905) 333-8364",
		"website": "http://branthaven.com"
	},
	{
		"company": "Brattys LLP",
		"link": "/member_directory/33764",
		"street": "7501 Keele St. Ste. 200",
		"city": "Vaughan, ON",
		"postCode": "L4K 1Y2",
		"contact": "Michael Durisin",
		"phone": "(905) 760-2600",
		"website": "http://bratty.com"
	},
	{
		"company": "BrazeauSeller LLP",
		"link": "/member_directory/34793",
		"street": "750 - 55 Metcalfe St.",
		"city": "Ottawa, ON",
		"postCode": "K1P 6L5",
		"contact": "Barbara Sinclair",
		"phone": "(613) 237-4000",
		"website": "http://brazeauseller.com"
	},
	{
		"company": "BRE Properties Ltd.",
		"link": "/member_directory/33765",
		"street": "55 Village Centre Place",
		"city": "Mississauga, ON",
		"postCode": "L4Z 1V9",
		"contact": "Bahareh Zahedi",
		"phone": "(416) 704-0112",
		"website": "http://brepropertiesinc.com"
	},
	{
		"company": "Breeze Wood Flooring",
		"link": "/member_directory/36800",
		"street": "1580 Huron Rd.",
		"city": "Petersburg, ON",
		"postCode": "N0B 2H1",
		"contact": "Don Garvey",
		"phone": "(519) 842 6122",
		"website": "http://breezewoodfloors.ca"
	},
	{
		"company": "Bremont Homes Corporation",
		"link": "/member_directory/32900",
		"street": "4908 Highway 7",
		"city": "Woodbridge, ON",
		"postCode": "L4L 1S8",
		"contact": "Gary Breda",
		"phone": "(905) 266-1851",
		"website": "http://mybremont.ca"
	},
	{
		"company": "Brenmar Construction Corporation",
		"link": "/member_directory/34655",
		"street": "1-1341 Coker St.",
		"city": "Greely, ON",
		"postCode": "K4P 1A1",
		"contact": "Greg Clunie",
		"phone": "(613) 491-0011",
		"website": "http://brenmarconstruction.com"
	},
	{
		"company": "Brenner Construction Corporation",
		"link": "/member_directory/32901",
		"street": "112 Jennifer Cres.",
		"city": "Sharon, ON",
		"postCode": "L0G 1V0",
		"contact": "Arvey Brenner",
		"phone": "(905) 478-2058",
		"website": null
	},
	{
		"company": "Brent-Reg Construction Inc.",
		"link": "/member_directory/35885",
		"street": "P.O. Box 279, 2787 Catherine St.",
		"city": "Dorchester, ON",
		"postCode": "N0L 1G4",
		"contact": "Marty Smith",
		"phone": "(519) 659-7744",
		"website": null
	},
	{
		"company": "Brian Klundert Builders Ltd.",
		"link": "/member_directory/36942",
		"street": "1617 County Rd. 46",
		"city": "Woodslee, ON",
		"postCode": "N0R 1A0",
		"contact": "Brian Klundert",
		"phone": "(519) 723-9050",
		"website": null
	},
	{
		"company": "Brian Moss & Associates Ltd.",
		"link": "/member_directory/33766",
		"street": "38 Clark Rd.",
		"city": "Ajax, ON",
		"postCode": "L1S 3B6",
		"contact": "Brian Moss",
		"phone": "(905) 427-1725",
		"website": "http://bmaplan.com"
	},
	{
		"company": "Brian Shane Construction",
		"link": "/member_directory/34656",
		"street": "715 Hamilton Rd.",
		"city": "Russell, ON",
		"postCode": "K4R 1E5",
		"contact": "Catharina Shane",
		"phone": "(613) 680-1034",
		"website": null
	},
	{
		"company": "Brian T. Fletcher Construction Co. Ltd.",
		"link": "/member_directory/33575",
		"street": "5481 Dundas St. W.",
		"city": "Etobicoke, ON",
		"postCode": "M9B 1B5",
		"contact": "Brian Fletcher",
		"phone": "(416) 626-7746",
		"website": "http://fletcherconstruction.ca"
	},
	{
		"company": "Briarwood Homes",
		"link": "/member_directory/32902",
		"street": "636 Edward Ave. Ste. 14",
		"city": "Richmond Hill, ON",
		"postCode": "L4C 0V4",
		"contact": "Adeel Siddiqq",
		"phone": "(905) 737-4477",
		"website": "http://briarwoodhomes.ca"
	},
	{
		"company": "Brick (The) - Warehouse Commercial Division",
		"link": "/member_directory/33317",
		"street": "4250 Dufferin St.",
		"city": "North York, ON",
		"postCode": "M3H 5W4",
		"contact": "Jeffrey Silver",
		"phone": "(416) 635-4838",
		"website": "http://thebrick.com"
	},
	{
		"company": "Brick (The) - Warehouse Commercial Division",
		"link": "/member_directory/34369",
		"street": "181 Lynden Rd.",
		"city": "Brantford, ON",
		"postCode": "N3T 5L8",
		"contact": "Richard Rudlin",
		"phone": "(519) 753-3700",
		"website": "http://thebrick.com"
	},
	{
		"company": "Brick (The) - Warehouse Commercial Division",
		"link": "/member_directory/34885",
		"street": "565 W. Hunt Club Rd.",
		"city": "Nepean, ON",
		"postCode": "K2G 5W5",
		"contact": "Tom Pearson",
		"phone": "(613) 221-7387",
		"website": "http://thebrick.com"
	},
	{
		"company": "Brick (The) - Warehouse Commercial Division",
		"link": "/member_directory/35187",
		"street": "48 Sydenham St.",
		"city": "Simcoe, ON",
		"postCode": "N3Y 4X8",
		"contact": "Nigel Lea",
		"phone": null,
		"website": null
	},
	{
		"company": "Brick (The) - Warehouse Commercial Division",
		"link": "/member_directory/35472",
		"street": "990 Fraser Dr.",
		"city": "Burlington, ON",
		"postCode": "L7L 5P5",
		"contact": "Jerry Domanico",
		"phone": "(905) 633-5310",
		"website": "http://thebrick.com"
	},
	{
		"company": "Brick (The) - Warehouse Commercial Division",
		"link": "/member_directory/35984",
		"street": "275 Fourth Ave.",
		"city": "St. Catharines, ON",
		"postCode": "L2R 6P9",
		"contact": "James Idzenga",
		"phone": "(905) 685-3236",
		"website": "http://thebrick.com"
	},
	{
		"company": "Brick (The) - Warehouse Commercial Division",
		"link": "/member_directory/36506",
		"street": "1040 Wharncliffe Rd., S",
		"city": "London, ON",
		"postCode": "N6J 1H2",
		"contact": "Ryan Hornick",
		"phone": "(519) 649-6464",
		"website": "http://thebrick.com"
	},
	{
		"company": "Brick (The) - Warehouse Commercial Division",
		"link": "/member_directory/35808",
		"street": "1040 Wharncliffe Rd. S.",
		"city": "London, ON",
		"postCode": "N6L 1H2",
		"contact": "Ryan Hornick",
		"phone": "(519) 649-6464",
		"website": "http://thebrick.com"
	},
	{
		"company": "Brick (The) - Warehouse Commercial Division",
		"link": "/member_directory/34542",
		"street": "25 Consumers Dr.",
		"city": "Whitby, ON",
		"postCode": "L1N 9S2",
		"contact": "Sean McCracken Don McBride",
		"phone": "(289) 989-0305",
		"website": "http://thebrick.com"
	},
	{
		"company": "Brick (The)- Warehouse Commercial Division",
		"link": "/member_directory/36123",
		"street": "1200 Landsdowne St. W.",
		"city": "Peterborough, ON",
		"postCode": "K9J 2A1",
		"contact": "Rencee Noonan",
		"phone": "(705) 743-8676",
		"website": "http://thebrick.com"
	}
]