[
	{
		"company": "Trisura Guarantee Insurance Company",
		"link": "/member_directory/33277",
		"street": "Bay Adelaide Centre 333 Bay St.",
		"city": "Toronto, ON",
		"postCode": "M5H 2R2",
		"contact": "Kim Roberts",
		"phone": "(416) 214-2555",
		"website": "http://trisura.com"
	},
	{
		"company": "Trolleybus Urban Development Inc.",
		"link": "/member_directory/33227",
		"street": "110 Sheppard Ave. E. Ste. 730",
		"city": "Toronto, ON",
		"postCode": "M2N 6Y8",
		"contact": "Doug Hochglaube",
		"phone": "(416) 366-0088",
		"website": "http://trolleybusdevelopment.com"
	},
	{
		"company": "TRS Components Ltd.",
		"link": "/member_directory/35871",
		"street": "16783 Thorndale Rd. P.O. Box 69",
		"city": "Thorndale, ON",
		"postCode": "N0M 2P0",
		"contact": "Chad Lambourn",
		"phone": "(519) 461-1180",
		"website": "http://trscomponents.com"
	},
	{
		"company": "TRS Components Ltd.",
		"link": "/member_directory/36812",
		"street": "16783 Thorndale Rd.",
		"city": "Thorndale, ON",
		"postCode": "N0M 2P0",
		"contact": "Jeff Young",
		"phone": "(519) 808-5324",
		"website": "http://trscomponents.ca"
	},
	{
		"company": "TRUbuild Inc.",
		"link": "/member_directory/33717",
		"street": "16 Cedarland Dr.",
		"city": "Etobicoke, ON",
		"postCode": "M9A 2J9",
		"contact": "JT Bhabra",
		"phone": "(416) 704-6381",
		"website": "http://trubuildinc.com"
	},
	{
		"company": "Trudel & Sons Roofing Ltd.",
		"link": "/member_directory/36478",
		"street": "5 Paisley Lane",
		"city": "Stouffville, ON",
		"postCode": "L4A 7X4",
		"contact": "Richard Trudel",
		"phone": "(905) 642-3515",
		"website": null
	},
	{
		"company": "Trudel & Sons Roofing Ltd.",
		"link": "/member_directory/34281",
		"street": "5 Paisley Lane",
		"city": "Stouffville, ON",
		"postCode": "L4A 7X4",
		"contact": "Richard Trudel",
		"phone": "(905) 642-3515",
		"website": "http://trudelroofing.com"
	},
	{
		"company": "True North Eavestroughing",
		"link": "/member_directory/34510",
		"street": "PO Box 12",
		"city": "Port Perry, ON",
		"postCode": "L9L 1A2",
		"contact": "John Whyte",
		"phone": "(905) 982-1831",
		"website": "http://truenorthgutters.ca"
	},
	{
		"company": "True Steel Security",
		"link": "/member_directory/36702",
		"street": "230 Alder St.",
		"city": "Sudbury, ON",
		"postCode": "P3C 4J2",
		"contact": "Kevin Buckland",
		"phone": "(705) 674-0116",
		"website": "http://truesteel.com"
	},
	{
		"company": "TRUEDotDESIGN",
		"link": "/member_directory/34789",
		"street": "43 Eccles St., 1st Floor",
		"city": "Ottawa, ON",
		"postCode": "K1R 6S3",
		"contact": "Shelley True",
		"phone": "(613) 749-9449",
		"website": "http://truedotdesign.com"
	},
	{
		"company": "TruEst Quantity Surveyors",
		"link": "/member_directory/34103",
		"street": "665 Fanshawe Park Rd. W. Unit 2",
		"city": "London, ON",
		"postCode": "N6G 5B4",
		"contact": "Pritesh Shah",
		"phone": "(519) 266-6762",
		"website": "http://truestconstruction.com"
	},
	{
		"company": "Try Recycling Inc.",
		"link": "/member_directory/35872",
		"street": "11110 Longwoods Rd.",
		"city": "Delaware, ON",
		"postCode": "N0L 1E0",
		"contact": "Rick Vandersluis",
		"phone": "(519) 858-2199",
		"website": "http://tryrecycling.com"
	},
	{
		"company": "Try Recycling Inc.",
		"link": "/member_directory/36519",
		"street": "11110 Longwoods Rd. RR Unit 1",
		"city": "Delaware, ON",
		"postCode": "N0L 1E0",
		"contact": "Chris Crow",
		"phone": "(519) 858-2199",
		"website": "http://tryrecycling.com"
	},
	{
		"company": "Tubco Whirlpools Ltd.",
		"link": "/member_directory/33519",
		"street": "2715 Fourteenth Ave.",
		"city": "Markham, ON",
		"postCode": "L3R 0H9",
		"contact": "Massoud Ghahremani",
		"phone": "(905) 470-9066",
		"website": "http://tubco.com"
	},
	{
		"company": "Tulloch Geomatics Inc",
		"link": "/member_directory/36661",
		"street": "1942 Regent St. Unit L",
		"city": "Sudbury, ON",
		"postCode": "P3E 5C5",
		"contact": "Terry DelBosco",
		"phone": "(705) 671-2295",
		"website": "http://tulloch.ca"
	},
	{
		"company": "Turkstra Lumber Co. Ltd.",
		"link": "/member_directory/36924",
		"street": "170 Beverly St.",
		"city": "Cambridge, ON",
		"postCode": "N1R 5T8",
		"contact": "Tim Malcolm",
		"phone": "(905) 979-3380",
		"website": "http://turkstralumber.com"
	},
	{
		"company": "Turkstra Lumber Co. Ltd.",
		"link": "/member_directory/34390",
		"street": "54 Oxford St.",
		"city": "Brantford, ON",
		"postCode": "N3R 5C6",
		"contact": "TBA",
		"phone": "(519) 759-3150",
		"website": null
	},
	{
		"company": "Turkstra Lumber Co. Ltd.",
		"link": "/member_directory/35229",
		"street": "545 Queensway W.",
		"city": "Simcoe, ON",
		"postCode": "N3Y 4J9",
		"contact": "Kevin Martin",
		"phone": "(519) 428-5111",
		"website": null
	},
	{
		"company": "Turkstra Lumber Co. Ltd.",
		"link": "/member_directory/36004",
		"street": "1050 Upper Wellington",
		"city": "Hamilton, ON",
		"postCode": "L9A 3S6",
		"contact": "Fred Toy",
		"phone": "(905) 351-9159",
		"website": "http://turkstralumber.com"
	},
	{
		"company": "Turkstra Lumber Co. Ltd.",
		"link": "/member_directory/35551",
		"street": "1050 Upper Wellington St.",
		"city": "Hamilton, ON",
		"postCode": "L9A 3S6",
		"contact": "Fred Toy",
		"phone": "(905) 388-8222",
		"website": "http://turkstralumber.com"
	},
	{
		"company": "Turner Plumbing & Heating Ltd.",
		"link": "/member_directory/36623",
		"street": "457 Huron St.",
		"city": "Stratford, ON",
		"postCode": "N5A 5T8",
		"contact": "Nick Par",
		"phone": "(519) 271-2782",
		"website": null
	},
	{
		"company": "Turnkey Site Solutions",
		"link": "/member_directory/34282",
		"street": "57 Ingram Dr.",
		"city": "North York, ON",
		"postCode": "M6M 2L7",
		"contact": "Matthew Over",
		"phone": "(416) 240-7666",
		"website": "http://turnkeyss.ca"
	},
	{
		"company": "Tuscany Hill Homes",
		"link": "/member_directory/35345",
		"street": "2153 King St. E.",
		"city": "Hamilton, ON",
		"postCode": "L8K 1W7",
		"contact": "Domenic Chiaravalle",
		"phone": "(905) 318-5231",
		"website": "http://tuscanyhillhomes.com"
	},
	{
		"company": "Twelve Stone Homes",
		"link": "/member_directory/33228",
		"street": "474 Samuel Harper Cres.",
		"city": "Mount Albert, ON",
		"postCode": "L0G 1M0",
		"contact": "Glen Meyer",
		"phone": "(905) 967-2199",
		"website": null
	},
	{
		"company": "Twenty-Twenty Home Improvements Inc",
		"link": "/member_directory/34773",
		"street": "177 Keyworth Ave.",
		"city": "Ottawa, ON",
		"postCode": "K1Y 0E8",
		"contact": "Rob Sorokan",
		"phone": "(613) 725-3960",
		"website": "http://twentytwenty.ca"
	},
	{
		"company": "Twinlion Media Group",
		"link": "/member_directory/35454",
		"street": "21 Peebles Dr.",
		"city": "Freelton, ON",
		"postCode": "L0R 1K0",
		"contact": "Sandra de Leeuw-Davis",
		"phone": "(905) 870-7400",
		"website": "http://twinlionmedia.com"
	},
	{
		"company": "Two Men and a Truck",
		"link": "/member_directory/36149",
		"street": "330 Marwood Dr., Unit 3",
		"city": "Oshawa, ON",
		"postCode": "L1H 8B4",
		"contact": "Kari Campbell",
		"phone": "(905) 674-6103",
		"website": null
	},
	{
		"company": "Two Men and a Truck",
		"link": "/member_directory/34535",
		"street": "330 Marwood Dr. Unit 3",
		"city": "Oshawa, ON",
		"postCode": "L1H 8B4",
		"contact": "Kari Campbell",
		"phone": "(905) 674-6103",
		"website": "http://twomen.ca"
	},
	{
		"company": "Two Men and a Truck ",
		"link": "/member_directory/34283",
		"street": "245 Yorkland Blvd. Ste. 100",
		"city": "Toronto, ON",
		"postCode": "M2J 4W9",
		"contact": "John Prittie",
		"phone": "(416) 204-0070",
		"website": "http://twomen.ca"
	},
	{
		"company": "Tyendinaga Propane",
		"link": "/member_directory/36267",
		"street": "5731 Old Highway #2, Box 123",
		"city": "Shannonville, ON",
		"postCode": "K0K 3A0",
		"contact": "John Bush",
		"phone": "(613) 967-7881",
		"website": null
	},
	{
		"company": "Tyroute Communications Inc.",
		"link": "/member_directory/36225",
		"street": "654 Norris Crt., Suite 102",
		"city": "Kingston, ON",
		"postCode": "K7P 2R9",
		"contact": "Sean Lloyd",
		"phone": "(613) 389-9638",
		"website": null
	},
	{
		"company": "U.K. Construction",
		"link": "/member_directory/33718",
		"street": "88 Colonial Ave.",
		"city": "Scarborough, ON",
		"postCode": "M1M 2C5",
		"contact": "Jason Bunn",
		"phone": "(416) 266-5333",
		"website": "http://ukconstruction.ca"
	},
	{
		"company": "UCIT online Security Inc.",
		"link": "/member_directory/35051",
		"street": "22 Antares Dr., Unit C",
		"city": "Ottawa, ON",
		"postCode": "K2E 7Z6",
		"contact": "Hugh Wong",
		"phone": "(613) 224-6940",
		"website": "http://ucitonline.com"
	},
	{
		"company": "UCIT Online Security Inc.",
		"link": "/member_directory/33520",
		"street": "6441 N.am Dr.",
		"city": "Mississauga, ON",
		"postCode": "L4V 1J2",
		"contact": "Sidney Sommer",
		"phone": "(905) 405-9898",
		"website": "http://ucitonline.com"
	},
	{
		"company": "Ultimate Home Improvements Plus",
		"link": "/member_directory/36098",
		"street": "4379 Hwy 28",
		"city": "Lakefield, ON",
		"postCode": "K0L 2H0",
		"contact": "Dave Barrett",
		"phone": "(705) 761-0635",
		"website": null
	},
	{
		"company": "Uni-Tech Window Mfrs. inc",
		"link": "/member_directory/37015",
		"street": "260 Jevlan Drive",
		"city": "Woodbridge, ON",
		"postCode": "L4L 8B1",
		"contact": "Richard DeBiasio",
		"phone": "905 856 40111",
		"website": null
	},
	{
		"company": "Unidec Ltd.",
		"link": "/member_directory/34649",
		"street": "PO Box 640",
		"city": "Shelburne, ON",
		"postCode": "L9V 3M1",
		"contact": "Michael Schutez",
		"phone": "(519) 941-2883",
		"website": null
	},
	{
		"company": "Uniform Custom Countertops Inc.",
		"link": "/member_directory/33521",
		"street": "289 Crt.land Ave.",
		"city": "Concord, ON",
		"postCode": "L4K 4W9",
		"contact": "Milos Bezouska",
		"phone": "(905) 761-3322",
		"website": "http://uniformcustom.com"
	},
	{
		"company": "Uniform Custom Countertops Ltd.",
		"link": "/member_directory/34956",
		"street": "61 Auriga Dr., Unit B",
		"city": "Ottawa, ON",
		"postCode": "K2E 8B2",
		"contact": "Sharon Bathurst",
		"phone": "(613) 225-6262",
		"website": "http://uniformcustom.com"
	},
	{
		"company": "Uniform Urban Development Ltd.",
		"link": "/member_directory/34721",
		"street": "300-117 Centrepointe Dr.",
		"city": "Nepean, ON",
		"postCode": "K2G 5X3",
		"contact": "Emily Meyers",
		"phone": "(613) 225-0770",
		"website": "http://uniformdevelopments.com"
	},
	{
		"company": "Union Gas Ltd.",
		"link": "/member_directory/34317",
		"street": "109 Commissioners Rd. W. Box 5353, Stn. A",
		"city": "London, ON",
		"postCode": "N6H 2L1",
		"contact": "Shellie Chowns",
		"phone": "(519) 667-4124",
		"website": "http://uniongas.com"
	},
	{
		"company": "Union Gas Ltd.",
		"link": "/member_directory/35873",
		"street": "109 Commissioners Rd.  Box 5353",
		"city": "London, ON",
		"postCode": "N6A 4P1",
		"contact": "Gerry Box",
		"phone": "(519) 667-4157",
		"website": "http://uniongas.com"
	},
	{
		"company": "Union Gas Ltd.",
		"link": "/member_directory/35629",
		"street": "1653 Venture Dr.",
		"city": "Kingston, ON",
		"postCode": "K7P 0E9",
		"contact": "Mike Teepell",
		"phone": "(613) 389-7009",
		"website": "http://uniongas.com"
	},
	{
		"company": "Union Gas Ltd.",
		"link": "/member_directory/36662",
		"street": "36 Charles St.",
		"city": "North Bay, ON",
		"postCode": "P1B 8K7",
		"contact": "Jamie Coote",
		"phone": "(705) 474-8483",
		"website": "http://uniongas.com"
	},
	{
		"company": "Union Gas Ltd.",
		"link": "/member_directory/34363",
		"street": "918 S. Service Rd.",
		"city": "Stoney Creek, ON",
		"postCode": "L8E 5M4",
		"contact": "Vince Copestake",
		"phone": "(289) 649-2080",
		"website": "http://uniongas.com"
	},
	{
		"company": "Union Gas Ltd.",
		"link": "/member_directory/36925",
		"street": "603 Kumpf Dr., P.O. Box 340",
		"city": "Waterloo, ON",
		"postCode": "N2J 4A4",
		"contact": "Corina Emde",
		"phone": "(519) 885-7400",
		"website": "http://uniongas.com"
	},
	{
		"company": "Union Gas Ltd.",
		"link": "/member_directory/35158",
		"street": "603 Kumpf Dr., PO Box 340",
		"city": "Waterloo, ON",
		"postCode": "N2J 4A4",
		"contact": "Deborah Lane",
		"phone": "(519) 885-7531",
		"website": null
	},
	{
		"company": "Union Gas Ltd.",
		"link": "/member_directory/36968",
		"street": "3840 Rhodes Dr.",
		"city": "Windsor, ON",
		"postCode": "N9A 6N7",
		"contact": "Gina Mancini",
		"phone": "(519) 251-6825",
		"website": "http://uniongas.com"
	},
	{
		"company": "Union Gas Ltd.",
		"link": "/member_directory/36723",
		"street": "1211 Amber Dr.",
		"city": "Thunder Bay, ON",
		"postCode": "P7B 6M4",
		"contact": "Tracey Trevisan",
		"phone": "(807) 684-8868",
		"website": null
	},
	{
		"company": "Union Gas Ltd.",
		"link": "/member_directory/34424",
		"street": "P.O. Box 700, 3840 Rhodes Dr.",
		"city": "Windsor, ON",
		"postCode": "N9A 6N7",
		"contact": "Gina Mancini",
		"phone": "1-800-265-5001",
		"website": null
	},
	{
		"company": "Union Gas Ltd.",
		"link": "/member_directory/35206",
		"street": "348 Elgin St. Box 10",
		"city": "Brantford, ON",
		"postCode": "N3T 5N4",
		"contact": "Bruce Pullen",
		"phone": "(519) 758-2347",
		"website": null
	},
	{
		"company": "Union Gas Ltd.",
		"link": "/member_directory/36504",
		"street": "109 Commissioners Rd. W. POBox 5353",
		"city": "London, ON",
		"postCode": "N6A 4P1",
		"contact": "Gerry Box",
		"phone": "(519) 667-4157",
		"website": null
	},
	{
		"company": "Union Gas Ltd.",
		"link": "/member_directory/36268",
		"street": "P.O. Box 818",
		"city": "Belleville, ON",
		"postCode": "K8N 5B5",
		"contact": "Jody Smith",
		"phone": "(613) 827-6278",
		"website": null
	},
	{
		"company": "Union Gas Ltd.",
		"link": "/member_directory/36031",
		"street": "36 Charles St.",
		"city": "North Bay, ON",
		"postCode": "P1B 8K7",
		"contact": "Jamie Coote",
		"phone": "(705) 474-8483",
		"website": null
	},
	{
		"company": "Union Gas Ltd.",
		"link": "/member_directory/35798",
		"street": "109 Commissioners Rd. W., Box 5353",
		"city": "London, ON",
		"postCode": "N6A 4P1",
		"contact": "Shellie Chowns",
		"phone": "(519) 667-4157",
		"website": "http://uniongas.com"
	},
	{
		"company": "Union Gas Ltd.",
		"link": "/member_directory/36574",
		"street": "P.O. Box 5353  Station A",
		"city": "London, ON",
		"postCode": "N6A 4P1",
		"contact": "Gerry Box",
		"phone": "(519) 667-4124",
		"website": null
	},
	{
		"company": "Union Gas Ltd.",
		"link": "/member_directory/35552",
		"street": "P.O. Box 10, 360 Strathearne Ave.",
		"city": "Hamilton, ON",
		"postCode": "L8N 3A5",
		"contact": "Vince Copestake",
		"phone": "(905) 548-3400",
		"website": "http://uniongas.com"
	},
	{
		"company": "Union Gas Ltd.",
		"link": "/member_directory/33522",
		"street": "777 Bay St. Ste. 2801",
		"city": "Toronto, ON",
		"postCode": "M5G 2C8",
		"contact": "Mark Beriault",
		"phone": "(416) 496-5358",
		"website": "http://uniongas.com"
	},
	{
		"company": "Union Gas Ltd.",
		"link": "/member_directory/36349",
		"street": "P.O. Box 70, 3840 Rhodes Dr.",
		"city": "Windsor, ON",
		"postCode": "N9A 6N7",
		"contact": "Gina Mancini",
		"phone": "(519) 251-6825",
		"website": "http://uniongas.com/"
	},
	{
		"company": "UNION31 Inc.",
		"link": "/member_directory/34104",
		"street": "183 Bathurst St. Ste. 201",
		"city": "Toronto, ON",
		"postCode": "M5T 2R7",
		"contact": "Nadine Burdak",
		"phone": "(416) 597-1576",
		"website": "http://union31.com"
	},
	{
		"company": "Unitec Electric",
		"link": "/member_directory/36624",
		"street": "R.R. #5 5221 Line 34",
		"city": "Mitchell, ON",
		"postCode": "N5A 6S6",
		"contact": "Marcel Tschudl",
		"phone": "(519) 393-6004",
		"website": null
	},
	{
		"company": "United Building Contractors Ltd.",
		"link": "/member_directory/35346",
		"street": "1850 Jerseyville Rd. W. R.R.Unit1",
		"city": "Jerseyville, ON",
		"postCode": "L0R 1R0",
		"contact": "Andy Arth",
		"phone": "(905) 648-9349",
		"website": "http://unitedbuilders.ca"
	},
	{
		"company": "United Legal Services Professional Corporation",
		"link": "/member_directory/34105",
		"street": "8550 Torbram Rd. Ste. 10-403",
		"city": "Brampton, ON",
		"postCode": "L6T 0H7",
		"contact": "Giancarlo Mazzitelli",
		"phone": "(647) 956-9258",
		"website": null
	},
	{
		"company": "United Lumber Home Hardware",
		"link": "/member_directory/36462",
		"street": "520 Bayfield St. N.",
		"city": "Barrie, ON",
		"postCode": "L4M 5A2",
		"contact": "Mike Smith",
		"phone": "(705) 726-8132",
		"website": null
	},
	{
		"company": "United Rentals",
		"link": "/member_directory/34957",
		"street": "2660 Sheffield Rd.",
		"city": "Ottawa, ON",
		"postCode": "K1B 3V7",
		"contact": "Willy Cole",
		"phone": "(613) 745-3060",
		"website": "http://unitedrentals.com"
	},
	{
		"company": "Unitized Manufacturing",
		"link": "/member_directory/36725",
		"street": "676 Squier St.",
		"city": "Thunder Bay, ON",
		"postCode": "P7B 4A8",
		"contact": "Harold Heerema",
		"phone": "(807) 344-9671",
		"website": null
	},
	{
		"company": "Universal Rental Services",
		"link": "/member_directory/34644",
		"street": "62 First Ave.",
		"city": "Orangeville, ON",
		"postCode": "L9W 1J3",
		"contact": "Nathan Hathaway",
		"phone": "(519) 941-1571",
		"website": "http://urents.ca"
	},
	{
		"company": "UPI Energy LP",
		"link": "/member_directory/35159",
		"street": "105 Silvercreek Pkwy N. Ste. 200",
		"city": "Guelph, ON",
		"postCode": "N1H 8M1",
		"contact": "Paul May",
		"phone": "(519) 821-2667",
		"website": null
	},
	{
		"company": "Uponor Ltd.",
		"link": "/member_directory/33523",
		"street": "2000 Argentia Rd. Ste. 200",
		"city": "Mississauga, ON",
		"postCode": "L5N 1W1",
		"contact": "Bradfield Craig",
		"phone": "(905) 819-8388",
		"website": "http://uponor.ca"
	},
	{
		"company": "Upper Canada Consultants",
		"link": "/member_directory/35954",
		"street": "261 Martindale Rd., Unit 1",
		"city": "St. Catharines, ON",
		"postCode": "L2W 1R1",
		"contact": "Jason Schooley",
		"phone": "(905) 688-9400",
		"website": "http://ucc.com"
	},
	{
		"company": "Upper Level Doors Inc.",
		"link": "/member_directory/36304",
		"street": "231 Dalton Ave.",
		"city": "Kingston, ON",
		"postCode": "K7K 6C2",
		"contact": "Jim Corey",
		"phone": "(613) 547-4566",
		"website": "http://upperleveldoors.ca"
	},
	{
		"company": "Upside Inc.",
		"link": "/member_directory/33719",
		"street": "842 BRd.view Ave. Unit C",
		"city": "Toronto, ON",
		"postCode": "M4K 2R1",
		"contact": "Rambod Nasrin",
		"phone": "(416) 463-7433",
		"website": "http://upsidedevelopment.ca"
	},
	{
		"company": "Urban Blueprint Inc. (The)",
		"link": "/member_directory/33720",
		"street": "89 Alcorn Ave.",
		"city": "Toronto, ON",
		"postCode": "M4V 1E5",
		"contact": "Natasha Penzo-McIntosh",
		"phone": "(647) 479-5381",
		"website": "http://urbanblueprintdevelopments.com"
	},
	{
		"company": "Urban Capital Property Group",
		"link": "/member_directory/33229",
		"street": "17 Nelson St.",
		"city": "Toronto, ON",
		"postCode": "M5V 0G2",
		"contact": "Mark Reeve",
		"phone": "(416) 304-0431",
		"website": "http://urbancapital.ca"
	},
	{
		"company": "Urban Ecosystems Ltd.",
		"link": "/member_directory/34106",
		"street": "7050 W.on Rd. Ste. 705",
		"city": "Woodbridge, ON",
		"postCode": "L4L 8G7",
		"contact": "Orjan Carlson",
		"phone": "(905) 856-0629",
		"website": null
	},
	{
		"company": "Urban Edge Developments Corp.",
		"link": "/member_directory/34722",
		"street": "114 Rita Ave.",
		"city": "Ottawa, ON",
		"postCode": "K2G 2H3",
		"contact": "Andre St. Louis",
		"phone": "(613) 720-1357",
		"website": "http://urbanedgedevelopments.com"
	},
	{
		"company": "Urban Hippo",
		"link": "/member_directory/35587",
		"street": "435 McNeilly Rd. Unit205",
		"city": "Stoney Creek, ON",
		"postCode": "L8E 5E3",
		"contact": "Kelly Anderson",
		"phone": "1-877-344-7764",
		"website": "http://urbanhippo.ca"
	},
	{
		"company": "Urban Keios Design Inc.",
		"link": "/member_directory/34870",
		"street": "1 Irving Ave.",
		"city": "Ottawa, ON",
		"postCode": "K1Y 1Z2",
		"contact": "Nickolas Semanyk",
		"phone": "(613) 729-1849",
		"website": "http://urbankeios.com"
	},
	{
		"company": "Urban Lights Inc.",
		"link": "/member_directory/36926",
		"street": "6 - 1373 Victoria St. N.",
		"city": "Kitchener, ON",
		"postCode": "N2B 3R6",
		"contact": "Ivan Valvassori",
		"phone": "(519) 570-1234",
		"website": "http://urbanlights.com"
	},
	{
		"company": "Urban Mode",
		"link": "/member_directory/37088",
		"street": "145 Tecumseth St",
		"city": "Toronto, ON",
		"postCode": "M6J 2H5",
		"contact": "Myrlene Sundberg",
		"phone": "416-591-8834",
		"website": null
	},
	{
		"company": "Urban Quarry Inc.",
		"link": "/member_directory/34958",
		"street": "4123 Belgreen Dr.",
		"city": "Gloucester, ON",
		"postCode": "K1G 3N2",
		"contact": "Laurent Bellavance",
		"phone": "(613) 738-1537",
		"website": "http://marbleunlimited.ca"
	},
	{
		"company": "Urban Signature Home Inc",
		"link": "/member_directory/36337",
		"street": "PO Box 20055, 431 Boler Rd.",
		"city": "London, ON",
		"postCode": "N6K 2K0",
		"contact": "Tyler Emel",
		"phone": "(519) 878-4242",
		"website": null
	},
	{
		"company": "Urban Signature Homes",
		"link": "/member_directory/35722",
		"street": "431 Boler Rd., Box 20055",
		"city": "London, ON",
		"postCode": "N6K 2K0",
		"contact": "Tyler Emel",
		"phone": "(519) 878-4242",
		"website": null
	},
	{
		"company": "Urban Solutions Planning & Land Development Consultants Inc.",
		"link": "/member_directory/35455",
		"street": "105 Main St. E. Suite #501",
		"city": "Hamilton, ON",
		"postCode": "L8N 1G6",
		"contact": "Matt Johnston",
		"phone": "(905) 546-1087",
		"website": "http://urbansolutions.info"
	},
	{
		"company": "Urban Terra Inc.",
		"link": "/member_directory/34107",
		"street": "7357 Woodbine Ave. Ste. 114",
		"city": "Markham, ON",
		"postCode": "L3R 6L3",
		"contact": "Rodger Miller",
		"phone": "(416) 605-0741",
		"website": "http://urbanterra.ca"
	},
	{
		"company": "Urban Window and Doors",
		"link": "/member_directory/36703",
		"street": "1955 Lasalle Blvd",
		"city": "Sudbury, ON",
		"postCode": "P3A 2A3",
		"contact": "Claude Paquette",
		"phone": "(705) 673-5285",
		"website": "http://urbanwindows.ca"
	},
	{
		"company": "Urbanation Inc.",
		"link": "/member_directory/34108",
		"street": "10 Price St. Unit 200",
		"city": "Toronto, ON",
		"postCode": "M4W 1Z4",
		"contact": "Pauline Lierman",
		"phone": "(416) 922-2200",
		"website": "http://urbanation.ca"
	},
	{
		"company": "URBANCORP",
		"link": "/member_directory/33230",
		"street": "120 Lynn Williams St. Ste. 2A",
		"city": "Toronto, ON",
		"postCode": "M6K 3P6",
		"contact": "Tony Manocchio",
		"phone": "(416) 928-5001",
		"website": "http://urbancorp.com"
	},
	{
		"company": "Urbandale Corporation",
		"link": "/member_directory/34723",
		"street": "2193 Arch St.,",
		"city": "Ottawa, ON",
		"postCode": "K1G 2H5",
		"contact": "Terry Nichols",
		"phone": "(613) 731-6331",
		"website": "http://urbandale.com"
	},
	{
		"company": "Urbandale Corporation",
		"link": "/member_directory/34724",
		"street": "2193 Arch St.",
		"city": "Ottawa, ON",
		"postCode": "K1G 2H5",
		"contact": "Matthew Sachs",
		"phone": "(613) 731-6331",
		"website": "http://urbandaleconstruction.com"
	},
	{
		"company": "Urbantech Consulting",
		"link": "/member_directory/34109",
		"street": "25 Royal Crest Crt. Ste. 201",
		"city": "Markham, ON",
		"postCode": "L3R 9X4",
		"contact": "David Leighton",
		"phone": "(905) 946-9461",
		"website": "http://urbantech.com"
	},
	{
		"company": "Urbantech West",
		"link": "/member_directory/35456",
		"street": "2030 Bristol Circle Suite 201",
		"city": "Oakville, ON",
		"postCode": "L6H 0H2",
		"contact": "Paul Brown",
		"phone": "(905) 829-8818",
		"website": "http://urbantech.com"
	},
	{
		"company": "UrbanToronto.ca",
		"link": "/member_directory/34110",
		"street": "366 Adelaide St. E. Ste. 422",
		"city": "Toronto, ON",
		"postCode": "M5A 3X9",
		"contact": "Edward Skira",
		"phone": "(416) 363 3101",
		"website": "http://urbantoronto.ca"
	},
	{
		"company": "Urbex Engineering",
		"link": "/member_directory/35457",
		"street": "161 Rebecca St.",
		"city": "Hamilton, ON",
		"postCode": "L8R 1B9",
		"contact": "Angelo Cameracci",
		"phone": "(905) 522-3328",
		"website": "http://urbex.biz"
	},
	{
		"company": "V. Marques Construction Ltd.",
		"link": "/member_directory/35622",
		"street": "1259 Gardiners Rd. Unit 1",
		"city": "Kingston, ON",
		"postCode": "K7P 3J6",
		"contact": "Virgil Marques",
		"phone": "(613) 384-7363",
		"website": "http://vmarques.com"
	},
	{
		"company": "V.I.E.W. Systems Inc.",
		"link": "/member_directory/35588",
		"street": null,
		"city": null,
		"postCode": null,
		"contact": "Marco Vukovic",
		"phone": "(905) 380-0218",
		"website": null
	},
	{
		"company": "VA3 Design",
		"link": "/member_directory/34111",
		"street": "300 A Wilson Ave.",
		"city": "Downsview, ON",
		"postCode": "M3H 1S8",
		"contact": "Richard Vink",
		"phone": "(416) 630-2255",
		"website": "http://va3design.com"
	},
	{
		"company": "Vacuflo Ontario",
		"link": "/member_directory/34284",
		"street": "1875 Leslie St. Unit 11",
		"city": "Toronto, ON",
		"postCode": "M3B 2M5",
		"contact": "Wendy Conn",
		"phone": "(416) 445-6886",
		"website": "http://cyclonicvacs.com"
	},
	{
		"company": "Vala Home Improvements",
		"link": "/member_directory/34774",
		"street": "P.O. Box 179",
		"city": "Ottawa, ON",
		"postCode": "K4C 1E6",
		"contact": "Richard Larocque",
		"phone": "(613) 852-7177",
		"website": "http://valahome.com"
	},
	{
		"company": "Valdor Engineering Inc.",
		"link": "/member_directory/34112",
		"street": "741 Rowntree Dairy Rd. Unit 2",
		"city": "Woodbridge, ON",
		"postCode": "L4L 5T9",
		"contact": "David Giugovaz",
		"phone": "(905) 264-0054",
		"website": "http://valdor-engineering.com"
	},
	{
		"company": "Valecraft Homes Ltd.",
		"link": "/member_directory/34725",
		"street": "1455 Youville Dr., Suite 210",
		"city": "Orleans, ON",
		"postCode": "K1C 6Z7",
		"contact": "Jean-Guy Rivard",
		"phone": "(613) 837-1104",
		"website": "http://valecraft.com"
	},
	{
		"company": "Valente Plumbing",
		"link": "/member_directory/35052",
		"street": "8384 Rowan Dr. P.O. Box 465",
		"city": "Ottawa, ON",
		"postCode": "K0A 2P0",
		"contact": "Philip Roppovalente",
		"phone": "(613) 880-8503",
		"website": null
	},
	{
		"company": "Valente Plumbing",
		"link": "/member_directory/35053",
		"street": "8384 Rowan Dr. P.O. Box 465",
		"city": "Ottawa, ON",
		"postCode": "K0A 2P0",
		"contact": "Philip Roppovalente",
		"phone": "(613) 880-8503",
		"website": null
	},
	{
		"company": "Valente Real Estate & Development",
		"link": "/member_directory/36960",
		"street": "2985 Dougall Ave.",
		"city": "Windsor, ON",
		"postCode": "N9E 1S1",
		"contact": "Peter Valente",
		"phone": "(519) 966-7777",
		"website": "http://valentecorp.com"
	},
	{
		"company": "Valley Home Improvements",
		"link": "/member_directory/35074",
		"street": "634098 Artemesia Glenelg Townline",
		"city": "Markdale, ON",
		"postCode": "N0C 1H0",
		"contact": "Dan Johnston",
		"phone": "(519) 924-0025",
		"website": "http://valleyhomeimprovements.ca"
	},
	{
		"company": "Vallorani Construction Ltd.",
		"link": "/member_directory/35589",
		"street": "219 Jones Rd.",
		"city": "Stoney Creek, ON",
		"postCode": "L8E 5J4",
		"contact": "Andrea Vallorani",
		"phone": "(905) 643-3061",
		"website": null
	},
	{
		"company": "Valtron Construction Inc.",
		"link": "/member_directory/35590",
		"street": "67 Atwater Cres.",
		"city": "Hamilton, ON",
		"postCode": "L9C 2E8",
		"contact": "Saverio Valerio",
		"phone": "(905) 575-3315",
		"website": null
	},
	{
		"company": "Van Dolder Custom Exteriors",
		"link": "/member_directory/35069",
		"street": "General Delivery",
		"city": "Annan, ON",
		"postCode": "N0H 1B0",
		"contact": "Andy Van Dolder",
		"phone": "(519) 376-1624",
		"website": "http://vandolders.com"
	},
	{
		"company": "Van Dolder's Kitchen & Bath",
		"link": "/member_directory/35070",
		"street": "1266-16th St. E.",
		"city": "Owen Sound, ON",
		"postCode": "N4K 1Z3",
		"contact": "Bob Van Dolder",
		"phone": "(519) 371-1975",
		"website": "http://vandolderskb.com"
	},
	{
		"company": "Van Harten Surveying Inc.",
		"link": "/member_directory/36878",
		"street": "423 Woolwich St.",
		"city": "Guelph, ON",
		"postCode": "N1N 3X3",
		"contact": "John Duffy",
		"phone": "(519) 821-2763",
		"website": "http://vanharten.com"
	},
	{
		"company": "Van Harten Surveying Inc.",
		"link": "/member_directory/35133",
		"street": "423 Woolwich St.",
		"city": "Guelph, ON",
		"postCode": "N1H 3X3",
		"contact": "Paul Magahay",
		"phone": "(519) 821-2763",
		"website": null
	},
	{
		"company": "Van Harten Surveying Inc.",
		"link": "/member_directory/34632",
		"street": "660 Riddell Rd.",
		"city": "Orangeville, ON",
		"postCode": "L9W 5G5",
		"contact": "Adrian Maes",
		"phone": "(519) 940-4110",
		"website": "http://vanharten.com"
	},
	{
		"company": "Van Huizen Homes Ltd.",
		"link": "/member_directory/36188",
		"street": "642 Tuftsville Rd.",
		"city": "Stirling, ON",
		"postCode": "K0K 3E0",
		"contact": "Jonathan &amp; Isaac Van Huizen",
		"phone": "(613) 919-8024",
		"website": null
	},
	{
		"company": "Van Meer Ltd.",
		"link": "/member_directory/36226",
		"street": "14 Bridge St. W.",
		"city": "Belleville, ON",
		"postCode": "K8P 1H7",
		"contact": "Arnold Vandermeer",
		"phone": "(613) 969-0171",
		"website": null
	},
	{
		"company": "Vanden Heuvel Structures",
		"link": "/member_directory/34300",
		"street": "10 Wellington St. P.O. Box 800",
		"city": "Clinton, ON",
		"postCode": "N0M 1L0",
		"contact": "Kevin Gerrits",
		"phone": "(519) 482-9666",
		"website": null
	},
	{
		"company": "Vander Brand Advertising",
		"link": "/member_directory/34113",
		"street": "19 Duncan St. Ste. 104",
		"city": "Toronto, ON",
		"postCode": "M5H 3H1",
		"contact": "Julie Vander Herberg",
		"phone": "(647) 727-7107",
		"website": "http://vanderbrand.com"
	},
	{
		"company": "Vandermeulen Plumbing Ltd.",
		"link": "/member_directory/36166",
		"street": "505 Parkhill Rd. W.",
		"city": "Peterborough, ON",
		"postCode": "K9H 3J4",
		"contact": "Steve Vandermeulen",
		"phone": "(705) 742-3433",
		"website": null
	},
	{
		"company": "Vandermolen Homes Inc.",
		"link": "/member_directory/35723",
		"street": "100 Brichmount St.",
		"city": "London, ON",
		"postCode": "N6K 4K5",
		"contact": "John Vandermolen",
		"phone": "(519) 474-7453",
		"website": "http://vandermolenhomes.ca"
	},
	{
		"company": "Vanderschot Construction Ltd.",
		"link": "/member_directory/36542",
		"street": "3099 Lorne Ave. E.",
		"city": "Stratford, ON",
		"postCode": "N5A 6S4",
		"contact": "Rick Vanderschot",
		"phone": "(519) 284-0450",
		"website": null
	},
	{
		"company": "Vanderzalm Construction Inc.",
		"link": "/member_directory/35955",
		"street": "2746 Maple St.",
		"city": "Pelham, ON",
		"postCode": "L0S 1C0",
		"contact": "Joe Vanderzalm",
		"phone": "(905) 684-5823",
		"website": "http://vandersalm.ca"
	},
	{
		"company": "VANDYK Group of Companies",
		"link": "/member_directory/33231",
		"street": "1944 Fowler Dr.",
		"city": "Mississauga, ON",
		"postCode": "L5K 0A1",
		"contact": "John Vandyk",
		"phone": "(905) 823-4606",
		"website": "http://vandyk.com"
	},
	{
		"company": "VanElslander (Dave) Builder",
		"link": "/member_directory/34342",
		"street": "26 Kerr-Shaver Terrace",
		"city": "Brantford, ON",
		"postCode": "N3T 6H8",
		"contact": "Dave VanElslander",
		"phone": "(519) 754-4968",
		"website": null
	},
	{
		"company": "Vartanian Rugs Ltd.",
		"link": "/member_directory/35553",
		"street": "320 Green Rd.",
		"city": "Stoney Creek, ON",
		"postCode": "L8E 2B2",
		"contact": "Steven Vartanian",
		"phone": "(905) 662-6395",
		"website": null
	},
	{
		"company": "Vaz, Joe",
		"link": "/member_directory/35207",
		"street": "1336 Cockshutt Rd.",
		"city": "Simcoe, ON",
		"postCode": "N3Y 4K3",
		"contact": "Joe Vaz",
		"phone": "(519) 427-3549",
		"website": null
	},
	{
		"company": "Vectra Homes Ltd.",
		"link": "/member_directory/36640",
		"street": "254 Oakridge Trails",
		"city": "Skead, ON",
		"postCode": "P0M 2Y0",
		"contact": "Dan Arbour",
		"phone": "(705) 969-69581",
		"website": null
	},
	{
		"company": "Veenstra Design & Fine Home Building",
		"link": "/member_directory/34490",
		"street": "122 Cove Rd.",
		"city": "Bowmanville, ON",
		"postCode": "L1C 3K3",
		"contact": "David Veenstra",
		"phone": "(905) 623-6714",
		"website": "http://veenstra.ca"
	},
	{
		"company": "Velcan Forest Products Inc.",
		"link": "/member_directory/34584",
		"street": "1240 Skae Dr.",
		"city": "Oshawa, ON",
		"postCode": "L1J 7A1",
		"contact": "Joseph Carpino",
		"phone": "(905) 571-2477",
		"website": "http://velcan.com"
	},
	{
		"company": "Velcan Forest Products Inc.",
		"link": "/member_directory/34959",
		"street": "1381 Greely Lane",
		"city": "Greely, ON",
		"postCode": "K4P 1A2",
		"contact": "Joseph Carpino",
		"phone": "(905) 571-2477",
		"website": "http://velcan.com"
	},
	{
		"company": "Velcan Forest Products Inc.",
		"link": "/member_directory/33524",
		"street": "1240 Skae Dr.",
		"city": "Oshawa, ON",
		"postCode": "L1J 7A1",
		"contact": "Joseph Carpino",
		"phone": "(905) 571-2477",
		"website": "http://velcan.com"
	},
	{
		"company": "Velux Canada Inc.",
		"link": "/member_directory/34960",
		"street": "2740 Sherwood Heights Dr.",
		"city": "Oakville, ON",
		"postCode": "L6J 7V5",
		"contact": "David Hamel",
		"phone": "1-800-888-3589",
		"website": "http://velux.ca"
	},
	{
		"company": "Velux Canada Inc.",
		"link": "/member_directory/35554",
		"street": "2740 Sherwood Heights Dr.",
		"city": "Oakville, ON",
		"postCode": "L6J 7V5",
		"contact": "Russell Ibbotson",
		"phone": "(905) 829-0280",
		"website": "http://velux.ca"
	},
	{
		"company": "Velux Canada Inc.",
		"link": "/member_directory/33525",
		"street": "2740 Sherwood Heights Dr.",
		"city": "Oakville, ON",
		"postCode": "L6J 7V5",
		"contact": "Russell Ibbotson",
		"phone": "1-800-888-3589",
		"website": "http://velux.ca"
	},
	{
		"company": "Ventura Custom Homes",
		"link": "/member_directory/37038",
		"street": "740 Hyde Park Road",
		"city": "London, ON",
		"postCode": "N6H 5E1",
		"contact": "Steve Ventura",
		"phone": "519 204 5243",
		"website": null
	},
	{
		"company": "Venture Homes",
		"link": "/member_directory/34343",
		"street": "P.O. Box 2131",
		"city": "Caledonia, ON",
		"postCode": "N3W 2G2",
		"contact": "John Kragten",
		"phone": "(905) 765-4624",
		"website": null
	},
	{
		"company": "Verbeek Kitchens",
		"link": "/member_directory/35907",
		"street": "45 Meg Dr. Unit #3",
		"city": "London, ON",
		"postCode": "N6E 2V2",
		"contact": "Ken McIntosh",
		"phone": "(519) 685-1811",
		"website": "http://verbeekkitchens.com"
	},
	{
		"company": "Verdiroc Development Corporation",
		"link": "/member_directory/33232",
		"street": "19 Lesmill Rd. Ste. 101",
		"city": "Toronto, ON",
		"postCode": "M3B 2T3",
		"contact": "Cary Green",
		"phone": "(416) 486-4270",
		"website": "http://verdiroc.com"
	},
	{
		"company": "Verdone Homes 2000 Ltd.",
		"link": "/member_directory/36788",
		"street": "336 Speedvale Ave W.",
		"city": "Guelph, ON",
		"postCode": "N1H 7M7",
		"contact": "Jeff Verdone",
		"phone": "(519) 824-5311",
		"website": "http://verdonehomes.com"
	},
	{
		"company": "Verdun Windows & Door Sales Ltd.",
		"link": "/member_directory/35653",
		"street": "Hwy #7, R.R. #1",
		"city": "Carleton Place, ON",
		"postCode": "K7C 3P1",
		"contact": "Dick Stanton",
		"phone": "(613) 257-7904",
		"website": "http://lambden.com"
	},
	{
		"company": "Veridian Connections",
		"link": "/member_directory/36227",
		"street": "459 Sidney St.",
		"city": "Belleville, ON",
		"postCode": "K8N 5B6",
		"contact": "Joe Lonsberry",
		"phone": "(613) 966-1235",
		"website": null
	},
	{
		"company": "Veridian Connections Inc.",
		"link": "/member_directory/34585",
		"street": "55 Taunton Rd. E.",
		"city": "Ajax, ON",
		"postCode": "L1T 3V3",
		"contact": "Eryn Wishnowski",
		"phone": "(905) 427-9870",
		"website": "http://veridian.on.ca"
	},
	{
		"company": "Vert Design Inc",
		"link": "/member_directory/34871",
		"street": "279 Crichton St.",
		"city": "Ottawa, ON",
		"postCode": "K1M 1W3",
		"contact": "Chris Straka",
		"phone": "(613) 244-9484",
		"website": "http://vertdesign.ca"
	},
	{
		"company": "Vertechs Design Inc.",
		"link": "/member_directory/34114",
		"street": "1200 Bay St. Ste. 803",
		"city": "Toronto, ON",
		"postCode": "M5R 2A5",
		"contact": "Mary Jane Lovering",
		"phone": "(416) 925-6097",
		"website": "http://www.vertechsdesign.com"
	},
	{
		"company": "Vesta Marble & Granite",
		"link": "/member_directory/34961",
		"street": "1618 Michael St.",
		"city": "Ottawa, ON",
		"postCode": "K1B 3T7",
		"contact": "Jennifer Hawryliw",
		"phone": "(613) 857-6354",
		"website": "http://vestamarble.com"
	},
	{
		"company": "VHL Development Inc.",
		"link": "/member_directory/33233",
		"street": "271 Yorkland Blvd.",
		"city": "North York, ON",
		"postCode": "M2J 1S5",
		"contact": "Van Lapoyan",
		"phone": "(416) 391-4870",
		"website": "http://2150condos.com"
	},
	{
		"company": "Via Roma Marble & Tile Ltd.",
		"link": "/member_directory/35591",
		"street": "687 Barton St. Unit #105",
		"city": "Stoney Creek, ON",
		"postCode": "L8E 5L6",
		"contact": "Albert Deluca",
		"phone": "(905) 643-4455",
		"website": null
	},
	{
		"company": "Via-Con Masonry Inc.",
		"link": "/member_directory/34285",
		"street": "87 Irondale Dr. Unit 100",
		"city": "North York, ON",
		"postCode": "M9L 2S6",
		"contact": "Lino Vitorio",
		"phone": "(416) 745-0709",
		"website": null
	},
	{
		"company": "Via-Trim & Doors Inc.",
		"link": "/member_directory/34286",
		"street": "100 Milvan Dr.",
		"city": "Toronto, ON",
		"postCode": "M9L 1Z6",
		"contact": "Senio Queiroga",
		"phone": "(416) 604-9068",
		"website": "http://viatrim.ca"
	},
	{
		"company": "Viana Roofing & Sheetmetal Ltd.",
		"link": "/member_directory/34287",
		"street": "74 Advance Rd.",
		"city": "Toronto, ON",
		"postCode": "M8Z 2T7",
		"contact": "Manuel Dacosta",
		"phone": "(416) 763-2664",
		"website": "http://vianaroofing.com"
	},
	{
		"company": "Vicar Homes",
		"link": "/member_directory/33234",
		"street": "80 Bass Pro Mills Dr. Ste. 11A",
		"city": "Vaughan, ON",
		"postCode": "L4K 5W9",
		"contact": "Richard Cabral",
		"phone": "(416) 543-0853",
		"website": "http://vicarhomes.com"
	},
	{
		"company": "Vicbar Marketing Ltd.",
		"link": "/member_directory/34115",
		"street": "41 Tofino Cres.",
		"city": "Toronto, ON",
		"postCode": "M3B 1R9",
		"contact": "Vicki Griffiths",
		"phone": "(416) 510-0073",
		"website": null
	},
	{
		"company": "Vice Hunter LLP",
		"link": "/member_directory/34872",
		"street": "101 - 85 Plymouth St.",
		"city": "Ottawa, ON",
		"postCode": "K1S 3E2",
		"contact": "D.Gregory Meeds",
		"phone": "(613) 232-5773",
		"website": "http://vhl-law.ca"
	},
	{
		"company": "Victoria Star Motors. inc.",
		"link": "/member_directory/37163",
		"street": "125 Centennial Rd",
		"city": "Kitchener, ON",
		"postCode": "N2B 3E9",
		"contact": "Sean Thijssen",
		"phone": "519-579-4460",
		"website": "http://victoriastar.com"
	},
	{
		"company": "Victoria Wood Development Corp.",
		"link": "/member_directory/35099",
		"street": "96 Milson Cres.",
		"city": "Guelph, ON",
		"postCode": "N1C 1G5",
		"contact": "Lezlie O&apos;Reilly",
		"phone": "(519) 836-4095",
		"website": null
	},
	{
		"company": "Victoria Wood Development Corp.",
		"link": "/member_directory/33235",
		"street": "145 Adelaide St. W. Ste. 500",
		"city": "Toronto, ON",
		"postCode": "M5H 4E5",
		"contact": "Gerry Armstrong",
		"phone": "(416) 864-0213",
		"website": null
	},
	{
		"company": "Viessmann Manufacturing Company Inc.",
		"link": "/member_directory/37162",
		"street": "750 McMurray Rd",
		"city": "Waterloo, ON",
		"postCode": "N23V 2G5",
		"contact": "Ken Webster",
		"phone": "519-885-6300",
		"website": "http://viessmann.ca"
	},
	{
		"company": "Viessmann Manufacturing Company Inc.",
		"link": "/member_directory/33526",
		"street": "750 McMurray Rd.",
		"city": "Waterloo, ON",
		"postCode": "N2V 2G5",
		"contact": "Kenneth Webster",
		"phone": "(519) 885-6300",
		"website": "http://viessmann.ca"
	},
	{
		"company": "View Centurian Window Fashions",
		"link": "/member_directory/33527",
		"street": "6311 Mulberry Cres.",
		"city": "Mississauga, ON",
		"postCode": "L5V 1B7",
		"contact": "Danny Tulino",
		"phone": "(647) 668-2948",
		"website": "http://centurianwindowfashions.com"
	},
	{
		"company": "View Tech Window & Door",
		"link": "/member_directory/36269",
		"street": "329 Church St.",
		"city": "Belleville, ON",
		"postCode": "K8N 3C8",
		"contact": "Jason Bucknel",
		"phone": "(613) 962-2511",
		"website": null
	},
	{
		"company": "Village Builders",
		"link": "/member_directory/34614",
		"street": "3 Caroline St. E.",
		"city": "Creemore, ON",
		"postCode": "L0M 1G0",
		"contact": "Rob Abbott",
		"phone": "(705) 466-3202",
		"website": null
	},
	{
		"company": "Vintage Hardwood Flooring",
		"link": "/member_directory/34962",
		"street": "409 Evans Ave.",
		"city": "Toronto, ON",
		"postCode": "M8Z 1K8",
		"contact": "Penny Hodges",
		"phone": "(416) 521-6130",
		"website": "http://vintageflooring.com"
	},
	{
		"company": "Vintage Hardwood Flooring",
		"link": "/member_directory/33528",
		"street": "409 Evans Ave.",
		"city": "Toronto, ON",
		"postCode": "M8Z 1K8",
		"contact": "Emanuel Machado",
		"phone": "(416) 252-0962",
		"website": "http://vintageflooring.com"
	},
	{
		"company": "Vipond Inc.",
		"link": "/member_directory/36479",
		"street": "110 Saunders Rd. Unit #1",
		"city": "Barrie, ON",
		"postCode": "L4N 9A8",
		"contact": "Russ Kerr",
		"phone": "(705) 726-3535",
		"website": null
	},
	{
		"company": "VIQUA",
		"link": "/member_directory/35106",
		"street": "425 Clair Rd. W",
		"city": "Guelph, ON",
		"postCode": "N1L 1R1",
		"contact": "Treasure Haines",
		"phone": "(519) 763-1032",
		"website": null
	},
	{
		"company": "Virtual Creations",
		"link": "/member_directory/35458",
		"street": "9 Princess Crt.",
		"city": "Dundas, ON",
		"postCode": "L9H 3Z2",
		"contact": "Eric Canton",
		"phone": "(905) 481-1153",
		"website": "http://vcinc.ca"
	},
	{
		"company": "Vision Outdoor Products Ltd.",
		"link": "/member_directory/33529",
		"street": "400 Zenway Blvd. Ste. 2",
		"city": "Woodbridge, ON",
		"postCode": "L4G 0S7",
		"contact": "Guy Palumbo",
		"phone": "(905) 850-9971",
		"website": "http://visionoutdoorproducts.com"
	},
	{
		"company": "Visionary Kitchens & Custom Cabinetry by Motive Interiors",
		"link": "/member_directory/35874",
		"street": "10 - 150 Exeter Rd.",
		"city": "London, ON",
		"postCode": "N6L 1G9",
		"contact": "Andre Dos Reis",
		"phone": "(519) 719-2891",
		"website": "http://visionarykitchens.com"
	},
	{
		"company": "VLC Custom Homes",
		"link": "/member_directory/37193",
		"street": "4637 Alpenrose Ave",
		"city": "Windsor, ON",
		"postCode": "N9G 3C4",
		"contact": "Vince Lapico",
		"phone": "519-967-0600",
		"website": null
	},
	{
		"company": "Vogue Development Group Inc. (The)",
		"link": "/member_directory/33236",
		"street": "1118 Centre St. Ste. 208",
		"city": "Thornhill, ON",
		"postCode": "L4J 7R9",
		"contact": "Garry Greenbaum",
		"phone": "(905) 886-8500",
		"website": null
	},
	{
		"company": "Vokes Construction",
		"link": "/member_directory/35065",
		"street": "RR #3",
		"city": "Owen Sound, ON",
		"postCode": "N4K 5N5",
		"contact": "Chris/Bill Vokes",
		"phone": "(519) 372-1524",
		"website": null
	},
	{
		"company": "Vorcon Group Inc.",
		"link": "/member_directory/33721",
		"street": "68 Saskatoon Dr.",
		"city": "Etobicoke, ON",
		"postCode": "M9P 2G2",
		"contact": "Nick Vorkapic",
		"phone": "(416) 247-7555",
		"website": "http://vorcongroup.com"
	},
	{
		"company": "Vrancor Development Corporation",
		"link": "/member_directory/35347",
		"street": "366 King St. W.",
		"city": "Hamilton, ON",
		"postCode": "L8P 1B3",
		"contact": "Darko Vranich",
		"phone": "(905) 540-4800",
		"website": "http://vrancor.com"
	},
	{
		"company": "W. Everitt's Enterprises Ltd.",
		"link": "/member_directory/37044",
		"street": "4415 Kennisis Lake Road",
		"city": "Haliburton, ON",
		"postCode": "K0M1S0",
		"contact": "Larry Everitt",
		"phone": "705 754 9074",
		"website": null
	},
	{
		"company": "W.C. Meek Design and Construction Ltd.",
		"link": "/member_directory/33722",
		"street": "127 Manville Rd.",
		"city": "Toronto, ON",
		"postCode": "M1L 4J7",
		"contact": "Bill Meek",
		"phone": "(416) 690-1919",
		"website": "http://wcmeekdesignandconstruction.com"
	},
	{
		"company": "W.R. Bosiak Construction",
		"link": "/member_directory/36189",
		"street": "215 Henry St.",
		"city": "Stirling, ON",
		"postCode": "K0K 3E0",
		"contact": "Chris Bosiak",
		"phone": "(613) 395-5097",
		"website": null
	},
	{
		"company": "Waco Drywall Services Ltd.",
		"link": "/member_directory/35592",
		"street": "1098 Heritage Rd.",
		"city": "Burlington, ON",
		"postCode": "L7L 4X9",
		"contact": "Bruno Comegna",
		"phone": "(905) 335-3355",
		"website": null
	},
	{
		"company": "Waddell Custom Homes",
		"link": "/member_directory/36091",
		"street": "P.O. Box 591",
		"city": "Apsley, ON",
		"postCode": "K0L 1A0",
		"contact": "Andrew Waddell",
		"phone": "(705) 656-8414",
		"website": "http://waddellhomes.ca"
	},
	{
		"company": "Waddell Engineering Ltd.",
		"link": "/member_directory/36879",
		"street": "119 Pinebush Rd",
		"city": "Cambridge, ON",
		"postCode": "N1R 7J8",
		"contact": "Larry Waddell",
		"phone": "(519) 267-6789",
		"website": "http://waddelleng.com"
	},
	{
		"company": "Wade & Partners",
		"link": "/member_directory/35459",
		"street": "5096 S. Service Rd. Ste 102",
		"city": "Burlington, ON",
		"postCode": "L7L 5H4",
		"contact": "Lawrence Wade",
		"phone": "(905) 333-9888",
		"website": "http://wadegroup.ca"
	},
	{
		"company": "Waidt",
		"link": "/member_directory/34775",
		"street": "3727 Revelstoke Dr.",
		"city": "Ottawa, ON",
		"postCode": "K1V 7C2",
		"contact": "Dave Truner",
		"phone": "(613) 738-4736",
		"website": "http://waidt.ca"
	},
	{
		"company": "Walden Design Build Inc.",
		"link": "/member_directory/33723",
		"street": "250 Eglinton Ave. W. Ste. 252",
		"city": "Toronto, ON",
		"postCode": "M4R 1A7",
		"contact": "Bruce Borden",
		"phone": "(416) 487-2300",
		"website": "http://waldendesignbuild.com/renomark"
	},
	{
		"company": "Walden Lands Inc.",
		"link": "/member_directory/36641",
		"street": "568 Falconbridge Rd.",
		"city": "Sudbury, ON",
		"postCode": "P3A 4S4",
		"contact": "Gerry Ceccarelli",
		"phone": "(705) 222-9876",
		"website": "http://waldenlandsinc.ca"
	},
	{
		"company": "Walker, Head",
		"link": "/member_directory/34536",
		"street": "800-1315 Pickering Parkway",
		"city": "Pickering, ON",
		"postCode": "L1V 7G5",
		"contact": "Paul Przybylo",
		"phone": "(905) 839-4484",
		"website": "http://walkerhead.com"
	},
	{
		"company": "Walker, Nott, Dragicevic Associates Ltd.",
		"link": "/member_directory/34116",
		"street": "90 Eglinton Ave. E. Ste. 970",
		"city": "Toronto, ON",
		"postCode": "M4P 2Y3",
		"contact": "Wendy Nott",
		"phone": "(416) 968-3511",
		"website": "http://wndplan.com"
	},
	{
		"company": "Walker, Nott, Dragicevic Associates Ltd.",
		"link": "/member_directory/35460",
		"street": "90 Eglinton Ave. E. Suite 701",
		"city": "Toronto, ON",
		"postCode": "M4P 2Y3",
		"contact": "Peter Walker",
		"phone": "(416) 968-3511",
		"website": "http://wndplan.com"
	},
	{
		"company": "Walkers Heating & Cooling",
		"link": "/member_directory/35287",
		"street": "Box 43",
		"city": "Haliburton, ON",
		"postCode": "K0M 1S0",
		"contact": "Scott Neilson",
		"phone": "(705) 457-2375",
		"website": null
	},
	{
		"company": "Walkers Home Hardware",
		"link": "/member_directory/37045",
		"street": "95 Maple Ave Box 537",
		"city": "Haliburton, ON",
		"postCode": "KOM 1S0",
		"contact": "Gerald Walker",
		"phone": "705 457 1402",
		"website": null
	},
	{
		"company": "Wall2Wall Media",
		"link": "/member_directory/34117",
		"street": "401 The W. Mall 5th Flr.",
		"city": "Etobicoke, ON",
		"postCode": "M9C 5J5",
		"contact": "Conni Robinson",
		"phone": "(416) 626-4200",
		"website": "http://wall2wallmedia.com"
	},
	{
		"company": "Wall2Wall Media",
		"link": "/member_directory/35461",
		"street": "401 The W. Mall 2nd Floor",
		"city": "Etobicoke, ON",
		"postCode": "M9C 5J5",
		"contact": "Susan Maxwell",
		"phone": "(416) 784-5060",
		"website": "http://newhomesandcondos.com"
	},
	{
		"company": "Wall2Wall Media",
		"link": "/member_directory/34537",
		"street": "401 The W. Mall, Suite 500",
		"city": "Etobicoke, ON",
		"postCode": "M9C 5J5",
		"contact": "Conni Robinson",
		"phone": "(416) 626-4267",
		"website": "http://wall2wallmedia.com"
	},
	{
		"company": "Walnut Creek Homes",
		"link": "/member_directory/35188",
		"street": "1906 Norfolk County Rd.  19E",
		"city": "Wilsonville, ON",
		"postCode": "N0E 1Z0",
		"contact": "Nicholas Vanderheide",
		"phone": "(519) 746-9253",
		"website": null
	},
	{
		"company": "Walsh Group (The) / Printerserver",
		"link": "/member_directory/34118",
		"street": "147 Spadina Ave. Ste. 205",
		"city": "Toronto, ON",
		"postCode": "M5V 2L7",
		"contact": "Shakeel Walji",
		"phone": "(416) 865-0862",
		"website": "http://thewalshgroup.ca"
	},
	{
		"company": "WalterFedy",
		"link": "/member_directory/36880",
		"street": "675 Queen St. S., Suite 111",
		"city": "Kitchener, ON",
		"postCode": "N2M 1A1",
		"contact": "Mark Christensen",
		"phone": "(519) 576-2150",
		"website": "http://walterfedy.com"
	},
	{
		"company": "WalterFedy",
		"link": "/member_directory/35134",
		"street": "111-675 Queen St. S.",
		"city": "Kitchener, ON",
		"postCode": "N2M 1A1",
		"contact": "Mark Christensen",
		"phone": "(519) 576-2150",
		"website": null
	},
	{
		"company": "Walton Development & Management  LP",
		"link": "/member_directory/34726",
		"street": "20 Carlson Crt. Suite 100",
		"city": "Toronto, ON",
		"postCode": "M9W 7K6",
		"contact": "Paolo Sacilotto",
		"phone": "(416) 365-2790",
		"website": "http://waltondm.com"
	},
	{
		"company": "Walton Development & Management LP",
		"link": "/member_directory/33237",
		"street": "20 Carlson Crt. Ste. 100",
		"city": "Toronto, ON",
		"postCode": "M9W 7K6",
		"contact": "Paolo Sacilotto",
		"phone": "(416) 365-2790",
		"website": "http://walton.com"
	},
	{
		"company": "Walton Development and Management LP",
		"link": "/member_directory/34344",
		"street": "22nd Floor, 605-5th Ave. SW",
		"city": "Calgary, Aberta",
		"postCode": "T2P 3H5",
		"contact": "Joel Doherty",
		"phone": "1-877-413-4050",
		"website": "http://walton,com"
	},
	{
		"company": "Walton Development and Management LP",
		"link": "/member_directory/36409",
		"street": "20 Carlson Crt. Unit100",
		"city": "Toronto, ON",
		"postCode": "M9W 7K6",
		"contact": "Paolo Sacilotte",
		"phone": "(416) 365-2790",
		"website": "http://walton.com"
	},
	{
		"company": "Walton Development and Management LP",
		"link": "/member_directory/35956",
		"street": "20 Carlson Crt., Suite 100",
		"city": "Toronto, ON",
		"postCode": "M9W 7K6",
		"contact": "Paalo Sacilotto",
		"phone": "(416) 365-2790",
		"website": "http://walton.com"
	},
	{
		"company": "Wardell's Factory Warehouse",
		"link": "/member_directory/35230",
		"street": "6 King St. W.",
		"city": "Hagersville, ON",
		"postCode": "N0A 1H0",
		"contact": "Ryan Wardell",
		"phone": "(905) 768-1030",
		"website": null
	},
	{
		"company": "Warren & Co. Contracting Ltd.",
		"link": "/member_directory/36192",
		"street": "29 Farley Cr.",
		"city": "Trenton, ON",
		"postCode": "K8V 6J7",
		"contact": "Warren Price",
		"phone": "(613) 392-1309",
		"website": null
	},
	{
		"company": "Warren Sinclair Construction Ltd.",
		"link": "/member_directory/36789",
		"street": "264 Lawrence Ave.",
		"city": "Kitchener, ON",
		"postCode": "N2M 1Y4",
		"contact": "Warren Sinclair",
		"phone": "(519) 743-8421",
		"website": "http://sinclairconstruction.ca"
	},
	{
		"company": "Warrenty Communications Inc.",
		"link": "/member_directory/34873",
		"street": "53 Goulbourn",
		"city": "Stittsville, ON",
		"postCode": "K2S 1P6",
		"contact": "Brian Warren",
		"phone": "(613) 277-2257",
		"website": "http://bounder.ca"
	},
	{
		"company": "Wasko Developments Inc.",
		"link": "/member_directory/35724",
		"street": "P.O. Box 28069",
		"city": "London, ON",
		"postCode": "N6H 5E1",
		"contact": "Peter McClure",
		"phone": "(519) 657-1048",
		"website": "http://waskodevelopments.com"
	},
	{
		"company": "Wastell Homes",
		"link": "/member_directory/35725",
		"street": "28 Chantry Place",
		"city": "London, ON",
		"postCode": "N6G 5A5",
		"contact": "Doug Wastell",
		"phone": "(519) 850-0020",
		"website": "http://wastell.ca"
	},
	{
		"company": "Water Guys North, The",
		"link": "/member_directory/37171",
		"street": "5-1297 Kelly Lake Rd",
		"city": "Sudbury, ON",
		"postCode": "P3E 5P5",
		"contact": "Jesse Cooper",
		"phone": "705 586 7666",
		"website": null
	},
	{
		"company": "Waterloo Region Record",
		"link": "/member_directory/36881",
		"street": "160 King St. E.",
		"city": "Kitchener, ON",
		"postCode": "N2G 4E5",
		"contact": "Jeanne Amos",
		"phone": "(519) 895-5540",
		"website": "http://therecord.com"
	},
	{
		"company": "Watermarks a division of Marks Supply",
		"link": "/member_directory/33530",
		"street": "5454 Dundas St. W.",
		"city": "Etobicoke, ON",
		"postCode": "M9B 1B4",
		"contact": "Jack Fratia",
		"phone": "(416) 234-2249",
		"website": "http://watermarksboutique.com"
	},
	{
		"company": "Waterous, Holden, Amey, Hitchon",
		"link": "/member_directory/34364",
		"street": "P.O. Box 1510",
		"city": "Brantford, ON",
		"postCode": "N3T 5V6",
		"contact": "Jay Hitchon",
		"phone": "(519) 759-6220",
		"website": null
	},
	{
		"company": "Watertite Waterproofers Ltd.",
		"link": "/member_directory/34288",
		"street": "60 Armstrong Ave.",
		"city": "Toronto, ON",
		"postCode": "M6H 1V8",
		"contact": "Angelo Garaci",
		"phone": "(416) 410-5326",
		"website": "http://watertite.ca"
	},
	{
		"company": "Watson Building Supplies",
		"link": "/member_directory/36270",
		"street": "130 Adam St.",
		"city": "Belleville, ON",
		"postCode": "K8N 2X9",
		"contact": "Chuck Quick",
		"phone": "(613) 969-7070",
		"website": "http://watsonbuildingsupplies.com"
	},
	{
		"company": "Watson Building Supplies Inc.",
		"link": "/member_directory/36463",
		"street": "733 Bayview Dr.",
		"city": "Barrie, ON",
		"postCode": "L4N 9A5",
		"contact": "Simon Culyer",
		"phone": "(705) 734-2933",
		"website": null
	},
	{
		"company": "Watson Group Ltd. (The)",
		"link": "/member_directory/34289",
		"street": "95 W. Beaver Creek Rd. Unit 10",
		"city": "Richmond Hill, ON",
		"postCode": "L4B 1H2",
		"contact": "Paul Watson",
		"phone": "(416) 493-2581",
		"website": null
	},
	{
		"company": "Watson Land Surveyors Ltd.",
		"link": "/member_directory/36228",
		"street": "218 Church St.",
		"city": "Belleville, ON",
		"postCode": "K8N 3C3",
		"contact": "Keith Watson",
		"phone": "(613) 962-9521",
		"website": null
	},
	{
		"company": "Watson Properties Since 1879 Ltd.",
		"link": "/member_directory/33238",
		"street": "161 Bay St., 26th Floor Brookfield Place, TD Canada Trust T",
		"city": "Toronto, ON",
		"postCode": "M5J 2S1",
		"contact": "Cierra Watson",
		"phone": "(416) 572-2399",
		"website": "http://watsonproperties.ca"
	},
	{
		"company": "Watson Timbrmart",
		"link": "/member_directory/36350",
		"street": "4528 Churchill Line",
		"city": "Wyoming, ON",
		"postCode": "N0N 1T0",
		"contact": "John Dobson",
		"phone": "(519) 845-3321",
		"website": null
	},
	{
		"company": "Waverly Homes",
		"link": "/member_directory/35726",
		"street": "1225 Wonderland Rd. N",
		"city": "London, ON",
		"postCode": "N6G 2B0",
		"contact": "Yasser Yanni",
		"phone": "(519) 913-0714",
		"website": null
	},
	{
		"company": "Wayne Bird Fuels",
		"link": "/member_directory/34645",
		"street": "490 Richardson Rd.",
		"city": "Orangeville, ON",
		"postCode": "L9W 4W8",
		"contact": "Wayne Bird",
		"phone": "(519) 941-0856",
		"website": "http://birdfuels.com"
	},
	{
		"company": "Wayne's Custom Woodcraft Ltd.",
		"link": "/member_directory/36980",
		"street": "2 N. Talbot Rd., R.R. #2",
		"city": "Maidstone, ON",
		"postCode": "N0R 1K0",
		"contact": "Wayne Dupuis",
		"phone": "(519) 723-4141",
		"website": "http://wayneswoodcraft.com"
	},
	{
		"company": "Weatherdek Ontario",
		"link": "/member_directory/35875",
		"street": "10328 Sinclair Dr., R.R. #1",
		"city": "Ilderton, ON",
		"postCode": "N0M 2A0",
		"contact": "Stig Jeppesen",
		"phone": "(519) 666-2073",
		"website": "http://weatherdekontario.com"
	},
	{
		"company": "Wedge Construction Ltd.",
		"link": "/member_directory/34406",
		"street": "15 Indian Creek Rd. W.  P.O. Box 575",
		"city": "Chatham, ON",
		"postCode": "N7M 5K6",
		"contact": "Pete DeJonge",
		"phone": "(519) 351-3123",
		"website": null
	},
	{
		"company": "Weir Brothers Heating & Cooling Ltd.",
		"link": "/member_directory/36983",
		"street": "4715 Ray Rd., R.R. #3",
		"city": "Maidstone, ON",
		"postCode": "N0R 1K0",
		"contact": "George Weir",
		"phone": "(519) 969-1144",
		"website": null
	},
	{
		"company": "WeirFoulds LLP",
		"link": "/member_directory/34119",
		"street": "66 Wellington St. W., P.O. Box Ste. 4100, TD Bank Tower",
		"city": "Toronto, ON",
		"postCode": "M5X 1B7",
		"contact": "Kim Mullin",
		"phone": "(416) 365-1110",
		"website": "http://weirfoulds.com"
	},
	{
		"company": "WeirFoulds LLP",
		"link": "/member_directory/37014",
		"street": "4100-66 Wellington St W",
		"city": "Toronto, ON",
		"postCode": "M5K 1B7",
		"contact": "Jennifer Meader",
		"phone": "416-365-1110",
		"website": "http://weirfoulds.com"
	},
	{
		"company": "Weisflock Contracting Inc.",
		"link": "/member_directory/34491",
		"street": "320 Fralicks Beach Rd.",
		"city": "Port Perry, ON",
		"postCode": "L9L 1B6",
		"contact": "Bill Weisflock Trevor Weisflock",
		"phone": "(905) 985-0542",
		"website": "http://weisflockcontracting.com"
	},
	{
		"company": "Welch L.L.P.",
		"link": "/member_directory/36229",
		"street": "525 Dundas St. E.",
		"city": "Belleville, ON",
		"postCode": "K8N 1G4",
		"contact": "Larraine Ebbers",
		"phone": "(613) 966-2844",
		"website": null
	},
	{
		"company": "Welch LLP",
		"link": "/member_directory/34120",
		"street": "36 Toronto St. Ste. 530",
		"city": "Toronto, ON",
		"postCode": "M5C 2C5",
		"contact": "Kathy Steffan",
		"phone": "(647) 288-9200",
		"website": "http://welchllp.com"
	},
	{
		"company": "WelcomeHome",
		"link": "/member_directory/34776",
		"street": "7625 Lawrence St. P.O.BOX 326",
		"city": "Ottawa, ON",
		"postCode": "K0A 3J0",
		"contact": "Jason Villeneuve",
		"phone": "(613) 691-1207",
		"website": "http://welcomehomerenos.com"
	},
	{
		"company": "WellCore Corporation",
		"link": "/member_directory/33724",
		"street": "1136 Centre St. Unit 3139",
		"city": "Thornhill, ON",
		"postCode": "L4J 3M8",
		"contact": "Alex Ananiev",
		"phone": "(416) 882-4606",
		"website": "http://wellcorecorporation.ca"
	},
	{
		"company": "Wellings Planning Consultants Inc.",
		"link": "/member_directory/34121",
		"street": "564 Emerald St.",
		"city": "Burlington, ON",
		"postCode": "L7R 2N8",
		"contact": "Glenn Wellings",
		"phone": "(905) 681-1769",
		"website": null
	},
	{
		"company": "Wells Accounting Services",
		"link": "/member_directory/37134",
		"street": "2655 Gananoque Dr Unit 26",
		"city": "Mississauga, ON",
		"postCode": "L5N 3A6",
		"contact": "Ron Wells",
		"phone": "905 593 1409",
		"website": null
	},
	{
		"company": "Wemp & Smith Construction Ltd.",
		"link": "/member_directory/35623",
		"street": "1149 Clyde Crt.,",
		"city": "Kingston, ON",
		"postCode": "K7P 2E4",
		"contact": "Derek Dowling",
		"phone": "(613) 384-4589",
		"website": "http://wempandsmith.com"
	},
	{
		"company": "West Coast Renovations",
		"link": "/member_directory/34303",
		"street": "242 Maple St.",
		"city": "Goderich, ON",
		"postCode": "N7A 1B7",
		"contact": "Dennis Schilthuis",
		"phone": "(519) 612-1900",
		"website": null
	},
	{
		"company": "West End Forming Ltd.",
		"link": "/member_directory/35054",
		"street": "4609 March Rd.",
		"city": "Almonte, ON",
		"postCode": "K0A 1A0",
		"contact": "Kevin Sweeney",
		"phone": "(613) 256-5964",
		"website": "http://westendforming.ca"
	},
	{
		"company": "West End Home Improvements",
		"link": "/member_directory/34777",
		"street": "158 Holiday Dr.",
		"city": "Woodlawn, ON",
		"postCode": "K0A 3M0",
		"contact": "Trevor Sinnett",
		"phone": "(613) 612-3594",
		"website": "http://westendhomeimprovements.com"
	},
	{
		"company": "West Hill Homes Ltd.",
		"link": "/member_directory/34727",
		"street": "P.O. Box 22",
		"city": "Stittsville, ON",
		"postCode": "K2S 1A2",
		"contact": "Denis Chouinard",
		"phone": "(613) 831-7621",
		"website": "http://westhillhomes.ca"
	},
	{
		"company": "West Overhead Doors",
		"link": "/member_directory/35876",
		"street": "960 Pond Mills Rd.",
		"city": "London, ON",
		"postCode": "N6N 1A1",
		"contact": "Laurie Heywood",
		"phone": "(519) 681-1111",
		"website": "http://westoverheaddoors.ca"
	},
	{
		"company": "West Overhead Doors",
		"link": "/member_directory/35246",
		"street": "960 Pond Mills Rd.",
		"city": "London, ON",
		"postCode": "N6N 1A1",
		"contact": "Scott Pole",
		"phone": "(519) 981-1111",
		"website": null
	},
	{
		"company": "West Shore Stone and Brick Inc.",
		"link": "/member_directory/34318",
		"street": "2047 Concession 12 P.O. Box 91",
		"city": "Riply, ON",
		"postCode": "N0G 2R0",
		"contact": "Brian Adams",
		"phone": "(519) 395-2747",
		"website": null
	},
	{
		"company": "Westboro Flooring & Decor Inc.",
		"link": "/member_directory/35055",
		"street": "195 Colonnade Rd. S.",
		"city": "Nepean, ON",
		"postCode": "K2E 7K3",
		"contact": "Steven Kimmel",
		"phone": "(613) 226-3830",
		"website": "http://westboroflooring.com"
	},
	{
		"company": "Westend Bath and Kitchen.",
		"link": "/member_directory/35056",
		"street": "1660 Woodward Dr.",
		"city": "Ottawa, ON",
		"postCode": "K2C 3R8",
		"contact": "Brian Mallett",
		"phone": "(613) 226-7701",
		"website": "http://westendbathandkitchen.com"
	},
	{
		"company": "Westerra Homes and Developments",
		"link": "/member_directory/34728",
		"street": "2947 Wellington P.O. Box 459",
		"city": "Kemptville, ON",
		"postCode": "K0G 1J0",
		"contact": "Robert Noseworthy",
		"phone": "(613) 258-5700",
		"website": "http://westerrahomes.ca"
	},
	{
		"company": "Westhaven Homes Inc.",
		"link": "/member_directory/35727",
		"street": "P.O. Box 27108 60 North Centre Rd.",
		"city": "London, ON",
		"postCode": "N5X 3X5",
		"contact": "David Off",
		"phone": "(519) 850-0529",
		"website": "http://westhavenhomeslondon.com"
	},
	{
		"company": "Westin Homes Ltd.",
		"link": "/member_directory/33239",
		"street": "2235 Canal Rd.",
		"city": "Bradford, ON",
		"postCode": "L3Z 2A6",
		"contact": "Louise Rusak",
		"phone": "(905) 775-0881",
		"website": "http://westinhomes.ca"
	},
	{
		"company": "Westmount Guarantee Services Inc.",
		"link": "/member_directory/33278",
		"street": "600 Cochrane Dr. Ste. 205",
		"city": "Markham, ON",
		"postCode": "L3R 5K3",
		"contact": "Brian Argue",
		"phone": "(647) 499-8249",
		"website": "http://westmountguarantee.com"
	},
	{
		"company": "Weston Consulting Group Inc.",
		"link": "/member_directory/34122",
		"street": "201 Millway Ave. Unit 19",
		"city": "Vaughan, ON",
		"postCode": "L4K 5K8",
		"contact": "Mark Emery",
		"phone": "(905) 738-8080",
		"website": "http://westonconsulting.com"
	},
	{
		"company": "Weston Flooring Ltd.",
		"link": "/member_directory/34290",
		"street": "87 W.creek Dr.",
		"city": "Woodbridge, ON",
		"postCode": "L4L 9N6",
		"contact": "Sam Condo",
		"phone": "(416) 746-8492",
		"website": "http://westonflooring.com"
	},
	{
		"company": "Weston Hardwood Design Centre Inc.",
		"link": "/member_directory/34291",
		"street": "250 Vaughan Valley Blvd.",
		"city": "Woodbridge, ON",
		"postCode": "L4H 3C3",
		"contact": "Joe Fazari",
		"phone": "(416) 746-0016",
		"website": "http://westonhardwood.com"
	},
	{
		"company": "Weston Premium Woods",
		"link": "/member_directory/33531",
		"street": "25 Automatic Rd.",
		"city": "Brampton, ON",
		"postCode": "L6S 5N8",
		"contact": "Anna-Maria Mastrogiacomo",
		"phone": "(905) 494-4352",
		"website": "http://westonpremiumwoods.com"
	},
	{
		"company": "Westpark Developments Inc.",
		"link": "/member_directory/35348",
		"street": "75 Lancing Dr. Suite 1A",
		"city": "Hamilton, ON",
		"postCode": "L8W 2Z9",
		"contact": "Tony Battaglia",
		"phone": "(905) 521-5757",
		"website": null
	},
	{
		"company": "Wexford Commercial Developments Ltd.",
		"link": "/member_directory/35462",
		"street": "6 Malabar Crt",
		"city": "Hamilton, ON",
		"postCode": "L9C 2B9",
		"contact": "Michael Foley",
		"phone": "(905) 385-5415",
		"website": null
	},
	{
		"company": "Weyerhaeuser Trus Joist Engineered Wood Products",
		"link": "/member_directory/34963",
		"street": "1008 Grapefern Terrace",
		"city": "Orleans, ON",
		"postCode": "K4A 0L9",
		"contact": "Eric Rioux",
		"phone": "1-888-453-8358",
		"website": "http://trusjoist.com"
	},
	{
		"company": "Whaling Home Construction",
		"link": "/member_directory/36376",
		"street": "486 10th St.",
		"city": "Hanover, ON",
		"postCode": "N4N 1R1",
		"contact": "Bryan Whaling",
		"phone": "(519) 364-1034",
		"website": null
	},
	{
		"company": "Whirlpool Canada LP",
		"link": "/member_directory/33532",
		"street": "6750 Century Ave. Unit 200",
		"city": "Mississauga, ON",
		"postCode": "L5N 0B7",
		"contact": "Scott Ward",
		"phone": "(905) 821-6497",
		"website": "http://whirlpoolcanada.com"
	},
	{
		"company": "Whispering Pines Landscaping",
		"link": "/member_directory/34646",
		"street": "23 Commerce Rd.",
		"city": "Orangeville, ON",
		"postCode": "L9W 3X5",
		"contact": "Greg Wildeboer",
		"phone": "(519) 943-0330",
		"website": "http://wpn.ca"
	},
	{
		"company": "White Pine Waste Services Inc.",
		"link": "/member_directory/35555",
		"street": "PO Box 10001",
		"city": "Ancaster, ON",
		"postCode": "L9K 1P2",
		"contact": "Gary Waxman",
		"phone": "(905) 317-9000",
		"website": null
	},
	{
		"company": "White-Rodgers, Emerson Canada",
		"link": "/member_directory/33533",
		"street": "306 Town Centre Blvd.",
		"city": "Markham, ON",
		"postCode": "L3R 0Y6",
		"contact": "Shannon Soules",
		"phone": "(905) 948-3375",
		"website": "http://white-rodgers.com"
	},
	{
		"company": "Whitehall Homes & Construction Ltd.",
		"link": "/member_directory/33725",
		"street": "565 Chartwell Rd.",
		"city": "Oakville, ON",
		"postCode": "L6J 4A8",
		"contact": "Gabrielle Humberstone",
		"phone": "(905) 338-7230",
		"website": "http://whitehallhomes.ca"
	},
	{
		"company": "Whitestone Design Build",
		"link": "/member_directory/34778",
		"street": "208 Glenncastle",
		"city": "Carp, ON",
		"postCode": "K0A 1L0",
		"contact": "Luke Egan",
		"phone": "(613) 470-2424",
		"website": "http://whitestonedesignbuild.com"
	},
	{
		"company": "Why Design",
		"link": "/member_directory/35877",
		"street": "289 Ashland Ave.",
		"city": "London, ON",
		"postCode": "N5W 4E3",
		"contact": "Susan McElroy",
		"phone": "(519) 438-6733",
		"website": "http://whydesign.ca"
	},
	{
		"company": "Wiens Underground Electric",
		"link": "/member_directory/36014",
		"street": "RR#3 231 E. W. Line",
		"city": "Niagara on the Lake, ON",
		"postCode": "L0S 1J0",
		"contact": "Werner Wiens",
		"phone": "(905) 682-5060",
		"website": null
	},
	{
		"company": "Wilkinson Chutes Canada",
		"link": "/member_directory/33534",
		"street": "23 Racine Rd.",
		"city": "Toronto, ON",
		"postCode": "M9W 2Z4",
		"contact": "Doug King",
		"phone": "(416) 746-5547",
		"website": "http://wilkinsonchutes.ca"
	},
	{
		"company": "Wilkinson Construction & Management Services Ltd.",
		"link": "/member_directory/33240",
		"street": "37 Polson St.",
		"city": "Toronto, ON",
		"postCode": "M5A 1A7",
		"contact": "Jeff Wilkinson",
		"phone": "(416) 449-4441",
		"website": "http://wilkinsonconstruction.ca"
	},
	{
		"company": "Willem Contracting",
		"link": "/member_directory/33726",
		"street": "63 Castlebar Rd.",
		"city": "Etobicoke, ON",
		"postCode": "M8Z 2J7",
		"contact": "Robert Heughan",
		"phone": "(416) 579-2724",
		"website": "http://willemcontracting.ca"
	},
	{
		"company": "William Tonno Construction Ltd.",
		"link": "/member_directory/34492",
		"street": "121 Marica Ave.",
		"city": "Oshawa, ON",
		"postCode": "L1G 3G9",
		"contact": "Cora Tonno",
		"phone": "(905) 723-7711",
		"website": null
	},
	{
		"company": "Williams & Stewart Associates Ltd. / John G. Williams Architect Ltd.",
		"link": "/member_directory/34123",
		"street": "40 Vogell Rd. Unit 46",
		"city": "Richmond Hill, ON",
		"postCode": "L4B 3N6",
		"contact": "David Stewart",
		"phone": "(905) 780-0500",
		"website": "http://williamsarch.com"
	},
	{
		"company": "Williams Design Company",
		"link": "/member_directory/36305",
		"street": "1209 Wilson Rd.",
		"city": "Hillier, ON",
		"postCode": "K0K 2J0",
		"contact": "Brian Vanderniet",
		"phone": "(613) 399-2344",
		"website": "http://williamdesigncompany .com"
	},
	{
		"company": "Willis",
		"link": "/member_directory/33535",
		"street": "1149 Pioneer Rd.",
		"city": "Burlington, ON",
		"postCode": "L7M 1K5",
		"contact": "Dallas Gabriel",
		"phone": "1-888-994-5547",
		"website": "http://4willis.com"
	},
	{
		"company": "Willowlee Sod Farms Ltd.",
		"link": "/member_directory/36271",
		"street": "907 Victoria Rd.",
		"city": "Ameliasburg, ON",
		"postCode": "K0K 1A0",
		"contact": "Kurt Vanclief",
		"phone": "(613) 966-0388",
		"website": "http://willowleesod.com"
	},
	{
		"company": "Willsie Construction Inc.",
		"link": "/member_directory/35728",
		"street": "Box 159",
		"city": "Belmont, ON",
		"postCode": "N0L 1B0",
		"contact": "Dick Willsie",
		"phone": "(519) 644-0524",
		"website": "http://willsieconstruction.com"
	},
	{
		"company": "Wilson Project Management (1695895 Ontario Inc.)",
		"link": "/member_directory/33241",
		"street": "555 Bloor St. E.",
		"city": "Toronto, ON",
		"postCode": "M4W 1J1",
		"contact": "John Good",
		"phone": "(416) 222-9433",
		"website": "http://wilsonproject.ca"
	},
	{
		"company": "Wilson's Flooring Centre",
		"link": "/member_directory/36272",
		"street": "R. R. # 5",
		"city": "Belleville, ON",
		"postCode": "K8N 4Z5",
		"contact": "John Wilson",
		"phone": "(613) 966-4666",
		"website": null
	},
	{
		"company": "Windcatcher Development Corporation",
		"link": "/member_directory/33242",
		"street": "19 Stavebank Rd. N.",
		"city": "Mississauga, ON",
		"postCode": "L5G 2T3",
		"contact": "Rod Male",
		"phone": "(905) 271-5033",
		"website": "http://windcatchergroup.com"
	},
	{
		"company": "Windmill Cabinet Shop Ltd.",
		"link": "/member_directory/34438",
		"street": "225 National Rd., R.R. #5",
		"city": "Chatham, ON",
		"postCode": "N7L 5J5",
		"contact": "George Bultje",
		"phone": "(519) 354-4649",
		"website": null
	},
	{
		"company": "Windmill Cabinets",
		"link": "/member_directory/36351",
		"street": "225 National Rd.",
		"city": "Chatham, ON",
		"postCode": "N7M 5J5",
		"contact": "Alvin Malott",
		"phone": "(519) 354-4649",
		"website": "http://windmillcabinets.com"
	},
	{
		"company": "Window & Door Centre Inc., The",
		"link": "/member_directory/35908",
		"street": "315 Springbank Dr.",
		"city": "London, ON",
		"postCode": "N6J 1G6",
		"contact": "Judy Gagnon",
		"phone": "(519) 686-0606",
		"website": "http://windowdoorcentreinc.com"
	},
	{
		"company": "Window Choice",
		"link": "/member_directory/33727",
		"street": "6200 Dixie Rd. Unit 209",
		"city": "Mississauga, ON",
		"postCode": "L5T 2E1",
		"contact": "Niraj Mittal",
		"phone": "(905) 670-4600",
		"website": "http://windowchoice.ca"
	},
	{
		"company": "Window City Industries Inc.",
		"link": "/member_directory/33536",
		"street": "5690 Steeles Ave. W.",
		"city": "Vaughan, ON",
		"postCode": "L4L 9T4",
		"contact": "Jeff Sadr",
		"phone": "(905) 265-9975",
		"website": "http://windowcity.com"
	},
	{
		"company": "Windowguard Canada Inc.",
		"link": "/member_directory/35385",
		"street": "1621 Main St. E.",
		"city": "Hamilton, ON",
		"postCode": "L8H 1C4",
		"contact": "Kostyantyn Tsarynny",
		"phone": "(905) 547-2999",
		"website": "http://windowguardcanada.com"
	},
	{
		"company": "Windows UnLtd.",
		"link": "/member_directory/36704",
		"street": "598 Falconbridge Rd., Unit 11",
		"city": "Sudbury, ON",
		"postCode": "P3A 5K6",
		"contact": "Fran Paull",
		"phone": "(705) 673-1115",
		"website": "http://windowsunlimited.ca"
	},
	{
		"company": "Windrush Hill Construction",
		"link": "/member_directory/35957",
		"street": "37 N.cliff Dr.",
		"city": "St. Catharines, ON",
		"postCode": "L2T 3V8",
		"contact": "Tony Alfieri",
		"phone": "(905) 227-3978",
		"website": "http://windrushhill.ca"
	},
	{
		"company": "Windsor Factory Supply Ltd",
		"link": "/member_directory/37186",
		"street": "730 North Service Rd E",
		"city": "Windsor, ON",
		"postCode": "N8X 3J5",
		"contact": "Tony Giannotti",
		"phone": "519-966-2202",
		"website": null
	},
	{
		"company": "Windsor Life Magazine",
		"link": "/member_directory/37185",
		"street": "318-5060 Techumseh Rd E",
		"city": "Windsor, ON",
		"postCode": "N8T 1C1",
		"contact": "Chuck Thompson",
		"phone": "519-979-9716",
		"website": null
	},
	{
		"company": "Windstone Real Estate, Brokerage",
		"link": "/member_directory/34124",
		"street": "150 Grand Cypress Lane",
		"city": "Blue Mountains, ON",
		"postCode": "L9Y 0K8",
		"contact": "Christine Brennan",
		"phone": "(705) 444-9527",
		"website": "http://windstonerealestate.com"
	},
	{
		"company": "Winger's Custom Cabinets",
		"link": "/member_directory/35231",
		"street": "4065 Hwy #6",
		"city": "Hagersville, ON",
		"postCode": "N0A 1H0",
		"contact": "Jason Cowie",
		"phone": "(905) 768-1322",
		"website": null
	},
	{
		"company": "Winmar",
		"link": "/member_directory/35108",
		"street": "7030 Wellington Rd 124",
		"city": "Guelph, ON",
		"postCode": "N1H 6J3",
		"contact": "Brad MacDonald",
		"phone": "(519) 826-0000",
		"website": null
	},
	{
		"company": "Winmar (Chatham) o/b CKRE Inc.",
		"link": "/member_directory/34412",
		"street": "570 Grand Ave. E.",
		"city": "Chatham, ON",
		"postCode": "N7M 3Z3",
		"contact": "Tony Lauc",
		"phone": "(519) 351-0225",
		"website": "http://winmar.ca"
	},
	{
		"company": "WinMar Orangeville",
		"link": "/member_directory/34618",
		"street": "27 Robb Blvd.",
		"city": "Orangeville, ON",
		"postCode": "L9W 3L1",
		"contact": "Darrin Drake",
		"phone": "(519) 940-8400",
		"website": "http://winmarorangeville.ca"
	},
	{
		"company": "Winmar Stratford",
		"link": "/member_directory/36625",
		"street": "390 Douro St.",
		"city": "Stratford, ON",
		"postCode": "N5A 3S7",
		"contact": "Peter Bernier",
		"phone": "(519) 273-0000",
		"website": null
	},
	{
		"company": "Winroc, a division of Superior Plus LP",
		"link": "/member_directory/35556",
		"street": "1121 Walkers Line",
		"city": "Burlington, ON",
		"postCode": "L7N 2G4",
		"contact": "Steve Gilmour",
		"phone": "(905) 335-5012",
		"website": "http://winroc.com"
	},
	{
		"company": "Winroc, a division of Superior Plus LP.",
		"link": "/member_directory/33537",
		"street": "1121 Walkers Line",
		"city": "Burlington, ON",
		"postCode": "L7N 2G4",
		"contact": "Steve Gilmour",
		"phone": "(905) 335-5012",
		"website": "http://winroc.com"
	},
	{
		"company": "Winzen Homes Ltd.",
		"link": "/member_directory/35349",
		"street": "30 Algie Ave.",
		"city": "Etobicoke, ON",
		"postCode": "M8Z 5J8",
		"contact": "Raymond Zenkovich",
		"phone": "(416) 253-5900",
		"website": "http://winzen.ca"
	},
	{
		"company": "Winzen Homes Ltd.",
		"link": "/member_directory/33243",
		"street": "30 Algie Ave.",
		"city": "Toronto, ON",
		"postCode": "M8Z 5J8",
		"contact": "Raymond Zenkovich",
		"phone": "(416) 253-5900",
		"website": "http://winzen.ca"
	},
	{
		"company": "Wiston Building Materials Co.",
		"link": "/member_directory/33538",
		"street": "3275 Fourteenth Ave.",
		"city": "Markham, ON",
		"postCode": "L3R 0H3",
		"contact": "Malcolm Sask",
		"phone": "(905) 604-5255",
		"website": "http://witfloor.ca"
	},
	{
		"company": "Wm. J. Gies Construction Ltd.",
		"link": "/member_directory/36790",
		"street": "193 Ashcroft Place",
		"city": "Waterloo, ON",
		"postCode": "N2J 3M7",
		"contact": "Bill Gies",
		"phone": "(519) 885-3610",
		"website": null
	},
	{
		"company": "Wm. J. Ross Construction Ltd.",
		"link": "/member_directory/34345",
		"street": "877 Ireland Rd., R.R. #3",
		"city": "Simcoe, ON",
		"postCode": "N3Y 4K2",
		"contact": "Mike Ross",
		"phone": "(519) 426-6985",
		"website": null
	},
	{
		"company": "Wolfsteel Ltd. D.B.A Napoleon Heating and Cooling",
		"link": "/member_directory/33539",
		"street": "24 Napoleon Rd.",
		"city": "Barrie, ON",
		"postCode": "L4M 0G8",
		"contact": "Bill Harris",
		"phone": "(705) 721-1212",
		"website": "http://napoleonheatingandcooling.com"
	},
	{
		"company": "Wolseley Canada-Kitchen & Bath Classics Showroom",
		"link": "/member_directory/35557",
		"street": "123 Dartnall Rd.",
		"city": "Hamilton, ON",
		"postCode": "L8W 3N1",
		"contact": "Paula Grond",
		"phone": "(905) 575-1210",
		"website": "http://kitchenandbathclassics.com"
	},
	{
		"company": "Wood Bull LLP",
		"link": "/member_directory/34125",
		"street": "65 Queen St. W. Ste. 1400",
		"city": "Toronto, ON",
		"postCode": "M5H 2M5",
		"contact": "Johanna Shapira",
		"phone": "(416) 203-7160",
		"website": "http://woodbull.ca"
	},
	{
		"company": "Wood Collective",
		"link": "/member_directory/37056",
		"street": "350 boul. de la Gappe",
		"city": "Gatineau, QC",
		"postCode": "J8T 7T9",
		"contact": "Francis Fleurant",
		"phone": "819-230-1240",
		"website": "http://collectifbois.com"
	},
	{
		"company": "Woodcastle Homes Ltd.",
		"link": "/member_directory/33728",
		"street": "155 Queen St. E. Unit C",
		"city": "Mississauga, ON",
		"postCode": "L5G 1N2",
		"contact": "Bruce Cromie",
		"phone": "(905) 891-0200",
		"website": "http://woodcastle.ca"
	},
	{
		"company": "Woodecor Ltd.",
		"link": "/member_directory/36601",
		"street": "2980 Forest Rd., R. R. Unit 4,",
		"city": "Stratford,, ON",
		"postCode": "N5A 6S5",
		"contact": "Matt Anderson",
		"phone": "(519) 271-2700",
		"website": null
	},
	{
		"company": "Woodfield Homes Inc.",
		"link": "/member_directory/34729",
		"street": "500 Lacolle Way Suite 300",
		"city": "Orleans, ON",
		"postCode": "K4A 0N9",
		"contact": "Paul Lavoie",
		"phone": "(613) 834-1118",
		"website": "http://woodfieldhomesinc.com"
	},
	{
		"company": "Woodsmith Construction",
		"link": "/member_directory/37099",
		"street": "80 Redwood Ave",
		"city": "Toronto, ON",
		"postCode": "M4L 2S6",
		"contact": "Chris Smith",
		"phone": "416-937-5874",
		"website": null
	},
	{
		"company": "Woodstruct Construction Inc.",
		"link": "/member_directory/34779",
		"street": "2648 Halfmoon Bay",
		"city": "Ottawa, ON",
		"postCode": "K2J 0Z6",
		"contact": "Ejibola-adetokunbo Taiwo",
		"phone": "(613) 692-9008",
		"website": "http://woodstruct.ca"
	},
	{
		"company": "Woody's Custom Cabinetry",
		"link": "/member_directory/35909",
		"street": "1491 Fanshawe Park Rd. W.",
		"city": "London, ON",
		"postCode": "N6H 5L3",
		"contact": "Shawn Fentie",
		"phone": "(519) 473-7338",
		"website": null
	},
	{
		"company": "Workhorse Design Studio",
		"link": "/member_directory/35558",
		"street": "69 John St. S. Suite 250",
		"city": "Hamilton, ON",
		"postCode": "L8N 2B9",
		"contact": "Phil Austin",
		"phone": "(905) 546-0478",
		"website": "http://workhorsedesignstudio.com"
	},
	{
		"company": "WOW 1 DAY PAINTING",
		"link": "/member_directory/35057",
		"street": "323 Coventry Rd. Unit 27",
		"city": "Ottawa, ON",
		"postCode": "K1K 3X6",
		"contact": "Leesa Franklin",
		"phone": "(613) 241-6065",
		"website": "http://wow1day.com"
	},
	{
		"company": "Wrighthaven Homes Ltd.",
		"link": "/member_directory/35100",
		"street": "11 Spencer Dr.",
		"city": "Elora, ON",
		"postCode": "N0B 1S0",
		"contact": "Steven Wright",
		"phone": "(519) 787-2060",
		"website": null
	},
	{
		"company": "Wrights Plumbing",
		"link": "/member_directory/36480",
		"street": "65 Cedar Pointe Dr.  #242",
		"city": "Barrie, ON",
		"postCode": "L4N 9R3",
		"contact": "Brad Wright",
		"phone": "(705) 795-3746",
		"website": null
	},
	{
		"company": "WSI Milton",
		"link": "/member_directory/35463",
		"street": "810 Nipissing Ste 201",
		"city": "Milton, ON",
		"postCode": "L9T 4Z9",
		"contact": "Denise Gervais",
		"phone": "(905) 870-7400",
		"website": "http://yourwsiadvantage.com"
	},
	{
		"company": "WSP Canada Inc",
		"link": "/member_directory/34874",
		"street": "2611 Queensview Dr. Ste. 300",
		"city": "Ottawa, ON",
		"postCode": "K2B 8K2",
		"contact": "Jeffrey Doll",
		"phone": "(613) 829-2800",
		"website": "http://wspgroup.com"
	},
	{
		"company": "WSP Canada Inc.",
		"link": "/member_directory/34126",
		"street": "600 Cochrane Dr. 5th Flr.",
		"city": "Markham, ON",
		"postCode": "L3R 5K3",
		"contact": "Sharon Sterling",
		"phone": "(905) 475-7270",
		"website": "http://wspgroup.com"
	},
	{
		"company": "Wuis Brothers Construction",
		"link": "/member_directory/34605",
		"street": "PO Box 5 3 Sandbourne Dr",
		"city": "Pontypool, ON",
		"postCode": "L0A 1K0",
		"contact": "Gerry Wuis, President Paul West, GM",
		"phone": "(705) 277-9442",
		"website": "http://wuisbrothers.com"
	},
	{
		"company": "Wuis Brothers Construction",
		"link": "/member_directory/36167",
		"street": "3 Sandborne Dr., P.O. Box 5",
		"city": "Pontypool, ON",
		"postCode": "L0A 1K0",
		"contact": "Gerry Wuis",
		"phone": "(705) 277-9442",
		"website": null
	},
	{
		"company": "Wycliffe Group Ltd. (The)",
		"link": "/member_directory/33244",
		"street": "34 Doncaster Ave. Ste. 201",
		"city": "Thornhill, ON",
		"postCode": "L3T 1L3",
		"contact": "Gary Bensky",
		"phone": "(905) 881-3040",
		"website": "http://wycliffehomes.com"
	},
	{
		"company": "Wyecroft Trim",
		"link": "/member_directory/34292",
		"street": "7175 Tomken Rd.",
		"city": "Mississauga, ON",
		"postCode": "L5S 1R7",
		"contact": "Philomena Blake",
		"phone": "(905) 677-4291",
		"website": "http://wyecrofttrim.ca"
	},
	{
		"company": "Wynne, Dingwall, Pringle & Kovacs",
		"link": "/member_directory/35464",
		"street": "231 Wilson St. E. Unit B",
		"city": "Ancaster, ON",
		"postCode": "L9G 2B8",
		"contact": "Ron Kovacs",
		"phone": "(905) 648-1851",
		"website": "http://anclaw.com"
	},
	{
		"company": "Wynne, Dingwall, Pringle & Kovacs",
		"link": "/member_directory/35465",
		"street": "231 Wilson St. E., Unit B",
		"city": "Ancaster, ON",
		"postCode": "L9G 2B8",
		"contact": "Ron Kovacs",
		"phone": "(905) 648-1851",
		"website": "http://anclaw.com"
	},
	{
		"company": "Wynsum Homes",
		"link": "/member_directory/33245",
		"street": "1101 Kingston Rd. Ste. 320",
		"city": "Pickering, ON",
		"postCode": "L1V 1B5",
		"contact": "David Demerino",
		"phone": "(905) 831-4092",
		"website": "http://wynsumhomes.com"
	},
	{
		"company": "Wynsum Investments Ltd.",
		"link": "/member_directory/34493",
		"street": "210A - 1101 Kingston Rd.",
		"city": "Pickering, ON",
		"postCode": "L1V 1B5",
		"contact": "David Demerino Nick Ricciotti",
		"phone": "(905) 831-4092",
		"website": "http://wynsumhomes.com"
	},
	{
		"company": "Wyse Meter Solutions Inc.",
		"link": "/member_directory/34293",
		"street": "2100 Matheson Blvd. E. Ste. 201",
		"city": "Mississauga, ON",
		"postCode": "L4W 5E1",
		"contact": "Mihae Ahn",
		"phone": "(416) 869-3003",
		"website": "http://wysemeter.com"
	},
	{
		"company": "Y.L. HENDLER LTD.",
		"link": "/member_directory/34127",
		"street": "268 Ridley Blvd. Ste. 1511",
		"city": "Toronto, ON",
		"postCode": "M5M 4N3",
		"contact": "Yehudi Hendler",
		"phone": "(416) 487-3844",
		"website": "http://ylhendler.com"
	},
	{
		"company": "Yachetti, Lanza & Restivo",
		"link": "/member_directory/35466",
		"street": "100-154 Main St. E.",
		"city": "Hamilton, ON",
		"postCode": "L8N 1G9",
		"contact": "Jack Restivo",
		"phone": "(905) 528-7534",
		"website": null
	},
	{
		"company": "Yantzi Tim-Br Mart",
		"link": "/member_directory/36602",
		"street": "R.R. #1",
		"city": "Tavistock, ON",
		"postCode": "N0B 2R0",
		"contact": "Mike McLeod",
		"phone": "(519) 655-2014",
		"website": null
	},
	{
		"company": "York Canada - A Johnson Controls Company",
		"link": "/member_directory/34586",
		"street": "2323 Winston Park Dr. Unit 2",
		"city": "Oakville, ON",
		"postCode": "L6H 6R7",
		"contact": "Paul Bowlby",
		"phone": "(905) 244-8787",
		"website": "http://york.com"
	},
	{
		"company": "York Fabrica Inc.",
		"link": "/member_directory/34294",
		"street": "2 Sheffield St.",
		"city": "Toronto, ON",
		"postCode": "M6M 3E6",
		"contact": "Tracy Ferguson",
		"phone": "(416) 235-0161",
		"website": "http://yorkfabrica.com"
	},
	{
		"company": "York Search Group",
		"link": "/member_directory/34128",
		"street": "36 Distillery Lane Unit 420",
		"city": "Toronto, ON",
		"postCode": "M5A 3C4",
		"contact": "Dave Kennedy",
		"phone": "(416) 366-9675",
		"website": "http://yorksearchgroup.com"
	},
	{
		"company": "York Trafalgar Corp.",
		"link": "/member_directory/33246",
		"street": "1039 Fourth Line",
		"city": "Milton, ON",
		"postCode": "L9T 6P9",
		"contact": "York Gruehl",
		"phone": "(905) 878-9396",
		"website": null
	},
	{
		"company": "Yorkwood Building Group",
		"link": "/member_directory/36410",
		"street": "309 - 95 Barber Greene Rd.",
		"city": "Toronto, ON",
		"postCode": "M3C 3E9",
		"contact": "Myer Godfrey",
		"phone": "(416) 449-6350",
		"website": null
	},
	{
		"company": "Yorkwood Investments Ltd.",
		"link": "/member_directory/33247",
		"street": "95 Barber Greene Rd. Ste. 302",
		"city": "Don Mills, ON",
		"postCode": "M3C 3E9",
		"contact": "Norman Godfrey",
		"phone": "(416) 449-6350",
		"website": null
	},
	{
		"company": "Your Design Professionals Inc.",
		"link": "/member_directory/34129",
		"street": "89 Bourbon St.",
		"city": "Woodbridge, ON",
		"postCode": "L4L 6Y5",
		"contact": "Laura Di Pede",
		"phone": "(416) 518-3944",
		"website": "http://YDPinc.ca"
	},
	{
		"company": "Your Home Renovations",
		"link": "/member_directory/34780",
		"street": "P.O. Box 77020",
		"city": "Ottawa, ON",
		"postCode": "K1S 5N2",
		"contact": "Richard Whyte",
		"phone": "(613) 729-5986",
		"website": null
	},
	{
		"company": "Yucca Land Ltd.",
		"link": "/member_directory/33248",
		"street": "8500 Leslie St. Ste. 380",
		"city": "Markham, ON",
		"postCode": "L3T 7M8",
		"contact": "Richard Allen",
		"phone": "(905) 707-8999",
		"website": null
	},
	{
		"company": "Yvon Insulation & Building Supply",
		"link": "/member_directory/37027",
		"street": "2260 Industrial St",
		"city": "Burlington, ON",
		"postCode": "L7P 1A1",
		"contact": "Winston Roque",
		"phone": "905 632 2765",
		"website": null
	},
	{
		"company": "Z.B.G Construction Inc.",
		"link": "/member_directory/33249",
		"street": "31 Medulla Ave.",
		"city": "Toronto, ON",
		"postCode": "M8Z 5L6",
		"contact": "Ziggy Golebiowski",
		"phone": "(416) 233-0662",
		"website": null
	},
	{
		"company": "Zamani Homes Ltd.",
		"link": "/member_directory/33250",
		"street": "158 Owen Blvd.",
		"city": "Toronto, ON",
		"postCode": "M2P 1G7",
		"contact": "Bob Zamani",
		"phone": "(416) 443-6205",
		"website": "http://zamanihomes.com"
	},
	{
		"company": "Zancor Homes Ltd.",
		"link": "/member_directory/33251",
		"street": "137 Bowes Rd.",
		"city": "Concord, ON",
		"postCode": "L4K 1H3",
		"contact": "Fabrizio Cortellucci",
		"phone": "(905) 738-7010",
		"website": "http://zancorhomes.com"
	},
	{
		"company": "Zeina Homes",
		"link": "/member_directory/35350",
		"street": "3-35 Stonechurch Rd. Suite 365",
		"city": "Hamilton, ON",
		"postCode": "L9K 1S5",
		"contact": "Mohamad Alayche",
		"phone": "(905) 297-8346",
		"website": "http://zeinahomes.ca"
	},
	{
		"company": "Zeina Homes",
		"link": "/member_directory/37006",
		"street": "3-35 Stonechurch Rd Suite 365",
		"city": "Ancaster, ON",
		"postCode": "L9K 1S5",
		"contact": "Kamal Alayche",
		"phone": "905 921 0020",
		"website": "http://zeinahomes.ca"
	},
	{
		"company": "Zelinka Priamo Ltd.",
		"link": "/member_directory/34130",
		"street": "20 Maud St. Ste. 305",
		"city": "Toronto, ON",
		"postCode": "M5V 2M5",
		"contact": "Jonathan Rodger",
		"phone": "(416) 622-6064",
		"website": "http://zpplan.com"
	},
	{
		"company": "Zerofractal Viz",
		"link": "/member_directory/34131",
		"street": "33 Villiers St. Unit 103",
		"city": "Toronto, ON",
		"postCode": "M5A 1A9",
		"contact": "Jose Uribe",
		"phone": "(416) 603-4700",
		"website": "http://zerofractal-viz.com"
	},
	{
		"company": "Zolo Realty, Brokerage",
		"link": "/member_directory/34132",
		"street": "30 Hayden St. Unit 707",
		"city": "Toronto, ON",
		"postCode": "M4Y 3B8",
		"contact": "Cynthia Fell",
		"phone": "(416) 706-2994",
		"website": "http://zolo.ca"
	},
	{
		"company": "Zomaron Merchant Services",
		"link": "/member_directory/34538",
		"street": "16 Industrial Parkway S. Unit 206",
		"city": "Aurora, ON",
		"postCode": "L4G 0R4",
		"contact": "Scott Schlussler Jim Kostin",
		"phone": "(416) 834-9349",
		"website": "http://zomaron.com"
	},
	{
		"company": "Zoran Properties Inc.",
		"link": "/member_directory/34133",
		"street": "940 The E. Mall Ste. 303",
		"city": "Etobicoke, ON",
		"postCode": "M9B 6J7",
		"contact": "Zoran Churchin",
		"phone": "(416) 620-5696",
		"website": "http://zoranproperties.com"
	},
	{
		"company": "Zulich Homes",
		"link": "/member_directory/36642",
		"street": "1730 Regent St., Unit 5",
		"city": "Sudbury, ON",
		"postCode": "P3E 3Z8",
		"contact": "John Zulich",
		"phone": "(705) 523-1000",
		"website": "http://zulich.com"
	},
	{
		"company": "ZZEN Group of Companies Ltd.",
		"link": "/member_directory/33252",
		"street": "100 Zenway Blvd.",
		"city": "Woodbridge, ON",
		"postCode": "L4H 2Y7",
		"contact": "Sam Speranza",
		"phone": "(905) 264-5962",
		"website": null
	}
]