[
	{
		"company": "Insta Insulation",
		"link": "/member_directory/35243",
		"street": "R.R. #1",
		"city": "Scotland, ON",
		"postCode": "N0E 1R0",
		"contact": "Alex Schuts",
		"phone": "(519) 443-8810",
		"website": null
	},
	{
		"company": "Integra Homes Inc.",
		"link": "/member_directory/36760",
		"street": "550 King St. N. P.O. Box 42021",
		"city": "Waterloo, ON",
		"postCode": "N2L 6K5",
		"contact": "Jamie Oliver",
		"phone": "(519) 746-6840",
		"website": "http://integrahomesinc.com"
	},
	{
		"company": "Integral Window Systems",
		"link": "/member_directory/33402",
		"street": "384 Connie Cres. Ste. 4",
		"city": "Concord, ON",
		"postCode": "L4K 5W6",
		"contact": "Barry Bell",
		"phone": "(905) 738-2311",
		"website": "http://integralwindowsystems.com"
	},
	{
		"company": "Integrity Contracting",
		"link": "/member_directory/33633",
		"street": "789 Arrow Rd. Unit 8",
		"city": "North York, ON",
		"postCode": "M9M 2L4",
		"contact": "Daniel Vaqueiro",
		"phone": "(647) 738-4395",
		"website": "http://integrityhomeadditions.com"
	},
	{
		"company": "Integrity Home and Cottage",
		"link": "/member_directory/37209",
		"street": "90 Gray St",
		"city": "Espanola, ON",
		"postCode": "P5E 1G1",
		"contact": "Mark Giambattista",
		"phone": "705 936 7266",
		"website": null
	},
	{
		"company": "Integrity Home and Cottage",
		"link": "/member_directory/36069",
		"street": "418 Hwy #36, UC-6",
		"city": "Lindsay, ON",
		"postCode": "K9V 4R3",
		"contact": "Rob Barrow",
		"phone": "(705) 328-9828",
		"website": "http://integrityconstruction.ca"
	},
	{
		"company": "Inter County Concrete",
		"link": "/member_directory/35504",
		"street": "70 Ewart Ave.",
		"city": "Brantford, ON",
		"postCode": "N3T 5M1",
		"contact": "Dave Campanaro",
		"phone": "(519) 752-1300",
		"website": "http://waterfordgroup.ca"
	},
	{
		"company": "Interactive Abode Inc. (The)",
		"link": "/member_directory/33910",
		"street": "39 Shank St. Unit 104",
		"city": "Toronto, ON",
		"postCode": "M6J 3X3",
		"contact": "Jenna Siciliano",
		"phone": "(416) 420-9576",
		"website": "http://theinteractiveabode.com"
	},
	{
		"company": "Intercity Realty Inc. Brokerage",
		"link": "/member_directory/33911",
		"street": "3600 Langstaff Rd. Ste. 14",
		"city": "Woodbridge, ON",
		"postCode": "L4L 9E7",
		"contact": "Lou Grossi",
		"phone": "(416) 798-7070",
		"website": "http://intercityrealty.com"
	},
	{
		"company": "Interconcrete Ltd.",
		"link": "/member_directory/36681",
		"street": "836 Garson Coniston Rd",
		"city": "Sudbury, ON",
		"postCode": "P3L 1V9",
		"contact": "Louis Lefebvre",
		"phone": "(705) 694-6250",
		"website": "http://interconcrete.ca"
	},
	{
		"company": "Interior Garage Design",
		"link": "/member_directory/35377",
		"street": "38 N.wood Dr.",
		"city": "St. Catharines, ON",
		"postCode": "L2M 4J9",
		"contact": "Chris Rustin",
		"phone": "(289) 668-4148",
		"website": null
	},
	{
		"company": "Interior Garage Design",
		"link": "/member_directory/35505",
		"street": "38 N.wood Dr.",
		"city": "St. Catharines, ON",
		"postCode": "L2M 4J9",
		"contact": "Chris Rustin",
		"phone": "(289) 668-4148",
		"website": null
	},
	{
		"company": "Interiors By Cindy",
		"link": "/member_directory/36205",
		"street": "414 Hamilton Rd.",
		"city": "Belleville, ON",
		"postCode": "K8N 4Z5",
		"contact": "Cindy Dow",
		"phone": "(613) 967-7972",
		"website": null
	},
	{
		"company": "International Brotherhood of Electrical Workers L.U. 353",
		"link": "/member_directory/33912",
		"street": "1377 Lawrence Ave. E.",
		"city": "Toronto, ON",
		"postCode": "M3A 3P8",
		"contact": "Steven Martin",
		"phone": "(416) 510-3530",
		"website": null
	},
	{
		"company": "International Home Marketing Group Ltd.",
		"link": "/member_directory/33913",
		"street": "8 Steelcase Rd. W.",
		"city": "Markham, ON",
		"postCode": "L3R 1B2",
		"contact": "Rose Le",
		"phone": "(905) 475-6000",
		"website": "http://ihmg.ca"
	},
	{
		"company": "International Logistics & Stone Distribution",
		"link": "/member_directory/33403",
		"street": "16 Nixon Rd.",
		"city": "Bolton, ON",
		"postCode": "L7E 1K3",
		"contact": "Christine Roell",
		"phone": "(905) 857-3009",
		"website": "http://intl-lsd.com"
	},
	{
		"company": "Intracorp Projects Ltd.",
		"link": "/member_directory/33041",
		"street": "25 Centurian Dr. Ste. 204",
		"city": "Markham, ON",
		"postCode": "L3R 5N8",
		"contact": "Mary Slifkas",
		"phone": "(905) 940-6555",
		"website": "http://intracorp.ca"
	},
	{
		"company": "Investments Hardware Ltd. (IHL)",
		"link": "/member_directory/33404",
		"street": "127 B Aviva Park Dr.",
		"city": "Woodbridge, ON",
		"postCode": "L4L 9C1",
		"contact": "Domenic De Giorgio",
		"phone": "(905) 851-8974",
		"website": "http://investmentshardware.com"
	},
	{
		"company": "Invictus Renovations Ltd.",
		"link": "/member_directory/33634",
		"street": "976 Logan Ave.",
		"city": "Toronto, ON",
		"postCode": "M4K 3E5",
		"contact": "Harry Chong",
		"phone": "(416) 893-3967",
		"website": null
	},
	{
		"company": "iPLUS (Integrated Planning & Land Use Strategies) Div. of Polocorp Inc.",
		"link": "/member_directory/33914",
		"street": "379 Queen St. S. Coachhouse",
		"city": "Kitchener, ON",
		"postCode": "N2G 1W6",
		"contact": "Paul Puopolo",
		"phone": "(519) 745-3249",
		"website": "http://polocorpinc.com"
	},
	{
		"company": "Irene Langlois Interiors Inc.",
		"link": "/member_directory/34832",
		"street": "163 Powell Ave.",
		"city": "Ottawa, ON",
		"postCode": "K1S 2A2",
		"contact": "Irene Langlois",
		"phone": "(613) 599-3393",
		"website": "http://irenelanglois.com"
	},
	{
		"company": "Ironstone Building Company, The",
		"link": "/member_directory/35695",
		"street": "483 Colborne St.",
		"city": "London,, ON",
		"postCode": "N6B 2T4",
		"contact": "Dave Stimac",
		"phone": "(519) 660-6006",
		"website": "http://ironstonebuilt.com"
	},
	{
		"company": "Irpinia Kitchens Ottawa",
		"link": "/member_directory/34912",
		"street": "248 Preston St.",
		"city": "Ottawa, ON",
		"postCode": "K1R 7R4",
		"contact": "Mike Sacca",
		"phone": "(613) 729-6200",
		"website": "http://irpinia.com"
	},
	{
		"company": "Irwin Foster Landscape Construction Ltd.",
		"link": "/member_directory/35162",
		"street": "2105 Snyder&apos;s Rd. E. RRUnit2",
		"city": "Petersburg, ON",
		"postCode": "N0B 2H0",
		"contact": "Tom Foster",
		"phone": "(519) 634-8863",
		"website": null
	},
	{
		"company": "IsoMatrixx Building Products Ltd.",
		"link": "/member_directory/36445",
		"street": "P.O. Box 17, 1535 Snyders Rd. E.",
		"city": "Petersburg, ON",
		"postCode": "N0B 2H0",
		"contact": "Steve Hopper",
		"phone": "(705) 733-7050",
		"website": null
	},
	{
		"company": "Isomatrixx Building Products Ltd.",
		"link": "/member_directory/36591",
		"street": "1535 Snyders Rd. E.",
		"city": "Petersburg, ON",
		"postCode": "N0B 2H0",
		"contact": "Dan Straus",
		"phone": "1-866-239-9906",
		"website": null
	},
	{
		"company": "Ivan B. Wallace Ontario Land Surveyor Ltd.",
		"link": "/member_directory/36110",
		"street": "344 Rubidge St.",
		"city": "Peterborough, ON",
		"postCode": "K9H 4C8",
		"contact": "Dwayne Cummings",
		"phone": "(705) 874-2886",
		"website": null
	},
	{
		"company": "Ivan B. Wallace Ontario Land Surveyor Ltd.",
		"link": "/member_directory/36206",
		"street": "5503 Highway 62 S.",
		"city": "Belleville, ON",
		"postCode": "K8N 4Z7",
		"contact": "Steve McColl",
		"phone": "(613) 966-9898",
		"website": null
	},
	{
		"company": "Ivan B. Wallace Ontario Land Surveyor Ltd.",
		"link": "/member_directory/34526",
		"street": "71 Mearns Crt., Unit 1",
		"city": "Bowmanville, ON",
		"postCode": "L1C 4N4",
		"contact": "Dave Comery, Gord Wallace Rob Wannack",
		"phone": "(905) 623-2205",
		"website": "http://ibwsurveyors.com"
	},
	{
		"company": "Ives Insurance Brokers Ltd",
		"link": "/member_directory/37189",
		"street": "369 Maidstone Ave E",
		"city": "Essex, ON",
		"postCode": "M8M 2K1",
		"contact": "Paul Hunter",
		"phone": "519-776-7371",
		"website": null
	},
	{
		"company": "J & K Home Building Centre",
		"link": "/member_directory/34375",
		"street": "116 King George Rd.",
		"city": "Brantford, ON",
		"postCode": "N3R 5K6",
		"contact": "Ken Grohn",
		"phone": "(519) 753-3114",
		"website": null
	},
	{
		"company": "J Blackbourn Construction Inc.",
		"link": "/member_directory/36070",
		"street": "P.O. Box 172 1118 Deer Bay Reach Rd. N.",
		"city": "Buckhorn, ON",
		"postCode": "K0L 1J0",
		"contact": "Jason Blackbourn",
		"phone": "(705) 657-1524",
		"website": "http://jbc.am"
	},
	{
		"company": "J Walker Carpentry",
		"link": "/member_directory/34505",
		"street": "76 Crandell St.",
		"city": "Port Perry, ON",
		"postCode": "L9L 1J8",
		"contact": "Jake Lusted",
		"phone": "(905) 985-6058",
		"website": null
	},
	{
		"company": "J. Corsi Developments Inc.",
		"link": "/member_directory/36632",
		"street": "1360 Kelly Lake Rd.",
		"city": "Sudbury, ON",
		"postCode": "P3E 5P4",
		"contact": "Paul Corsi",
		"phone": "(705) 522-9096",
		"website": "http://jcorsi.com"
	},
	{
		"company": "J. Evola  Builders",
		"link": "/member_directory/36948",
		"street": "2165 Suzanne St.",
		"city": "LaSalle, ON",
		"postCode": "N9H 2L4",
		"contact": "John Evola",
		"phone": "(519) 978-0408",
		"website": "http://evolabuilders.com"
	},
	{
		"company": "J. Gray Renovations",
		"link": "/member_directory/33635",
		"street": "92 Brickstone Circle",
		"city": "Thornhill, ON",
		"postCode": "L4J 6M3",
		"contact": "Jim Gray",
		"phone": "(416) 520-6366",
		"website": "http://grayreno.ca"
	},
	{
		"company": "J. Horn Plumbing",
		"link": "/member_directory/35573",
		"street": "3305 Jordan Ave.",
		"city": "Burlington, ON",
		"postCode": "L7M 3P6",
		"contact": "Joan Horn",
		"phone": "(905) 332-9636",
		"website": null
	},
	{
		"company": "J. Rauti Custom Homes Ltd.",
		"link": "/member_directory/36949",
		"street": "1357 Tuscany Oaks Dr.",
		"city": "LaSalle, ON",
		"postCode": "N9J 0B6",
		"contact": "Joe Rauti",
		"phone": "(519) 978-9562",
		"website": null
	},
	{
		"company": "J. Robert Construction & Renovations Inc.",
		"link": "/member_directory/36643",
		"street": "2398 Algonquin Rd.",
		"city": "Sudbury, ON",
		"postCode": "P3E 5V1",
		"contact": "Robert Myers",
		"phone": "(705) 522-7937",
		"website": "http://jrobertconstruction.com"
	},
	{
		"company": "J.D. Barnes Ltd.",
		"link": "/member_directory/36423",
		"street": "565 Bryne Dr., Unit E",
		"city": "Barrie, ON",
		"postCode": "L4N 9Y3",
		"contact": "Pier De Rosa",
		"phone": "(705) 739-6770",
		"website": null
	},
	{
		"company": "J.D. Barnes Ltd.",
		"link": "/member_directory/35415",
		"street": "401 Wheelabrator Way Suite A",
		"city": "Milton, ON",
		"postCode": "L9T 3C1",
		"contact": "Steve Balaban",
		"phone": "(905) 875-9955",
		"website": "http://jdbarnes.com"
	},
	{
		"company": "J.D. Barnes Ltd.",
		"link": "/member_directory/33915",
		"street": "140 Renfrew Dr. Ste. 100",
		"city": "Markham, ON",
		"postCode": "L3R 6B3",
		"contact": "Joseph Young",
		"phone": "(905) 477-3600",
		"website": "http://jdbarnes.com"
	},
	{
		"company": "J.D. Barnes Ltd.",
		"link": "/member_directory/34527",
		"street": "38 - 40 - 110 Scotia Crt.",
		"city": "Whitby, ON",
		"postCode": "L1N 8Y7",
		"contact": "Gabriel Laframboise",
		"phone": "(905) 723-1212",
		"website": "http://jdbarnes.com"
	},
	{
		"company": "J.F. Markell Homes Ltd.",
		"link": "/member_directory/36380",
		"street": "37 Cumberland St.",
		"city": "Cornwall, ON",
		"postCode": "K6H 1A2",
		"contact": "John Markell",
		"phone": "(613) 938-3886",
		"website": null
	},
	{
		"company": "J.H. Cohoon Engineering Ltd.",
		"link": "/member_directory/34356",
		"street": "440 Hardy Rd. Unit 1",
		"city": "Brantford, ON",
		"postCode": "N3T 5L8",
		"contact": "Joe Cohoon",
		"phone": "(519) 753-2656",
		"website": null
	},
	{
		"company": "J.L. Richards & Associates Ltd.",
		"link": "/member_directory/34833",
		"street": "864 Lady Ellen Place",
		"city": "Ottawa, ON",
		"postCode": "K1Z 5M2",
		"contact": "Lucie Dalrymple",
		"phone": "(613) 728-3571",
		"website": "http://jlrichards.ca"
	},
	{
		"company": "J.P. Max Construction",
		"link": "/member_directory/36633",
		"street": "238 Elm St., Suite 201",
		"city": "Sudbury, ON",
		"postCode": "P3C 1V3",
		"contact": "J.P. Max",
		"phone": "(705) 673-2455",
		"website": null
	},
	{
		"company": "JAC Kernohan Construction",
		"link": "/member_directory/35271",
		"street": "Box 4",
		"city": "Minden, ON",
		"postCode": "K0M 2K0",
		"contact": "John/Bryan Kernohan",
		"phone": "(705) 286-1440",
		"website": null
	},
	{
		"company": "Jack Design + Construction",
		"link": "/member_directory/35378",
		"street": "Box 323, Stn. Main",
		"city": "Grimsby, ON",
		"postCode": "L3M 4G5",
		"contact": "Andrew Jack",
		"phone": "(905) 945-2222",
		"website": "http://jackdesign.ca"
	},
	{
		"company": "Jackson & Associates Inc.",
		"link": "/member_directory/33636",
		"street": "2 E.wood Rd. Ste. 1",
		"city": "Toronto, ON",
		"postCode": "M4L 2C3",
		"contact": "Mark Jackson",
		"phone": "(416) 693-7870",
		"website": "http://jacksoninc.ca"
	},
	{
		"company": "Jackson Roofing GTA Inc. o/a Jackson Roofing",
		"link": "/member_directory/34216",
		"street": "1160 Tapscott Rd. Unit 15",
		"city": "Toronto, ON",
		"postCode": "M1X 1E9",
		"contact": "Carey Murray",
		"phone": "(416) 724-4742",
		"website": null
	},
	{
		"company": "Jackson, D.J. Engineered Truss Components",
		"link": "/member_directory/36592",
		"street": "R.R. #1",
		"city": "St. Pauls, ON",
		"postCode": "N0K 1V0",
		"contact": "Dan Jackson",
		"phone": "(519) 271-1104",
		"website": null
	},
	{
		"company": "Jacques Bedard Excavation Ltd.",
		"link": "/member_directory/35005",
		"street": "3006 - 10th Line Rd.",
		"city": "Ottawa, ON",
		"postCode": "K4B 1H8",
		"contact": "Celine Bedard",
		"phone": "(613) 824-3208",
		"website": "http://bedardexcavation.ca"
	},
	{
		"company": "JAGG Enterprizes Incorporated",
		"link": "/member_directory/34217",
		"street": "2831 King St.",
		"city": "Caledon, ON",
		"postCode": "L7C 0S8",
		"contact": "George Cabral",
		"phone": "(905) 838-5244",
		"website": "http://jaggenterprizes.ca"
	},
	{
		"company": "Jake Zacharias Excavating Inc.",
		"link": "/member_directory/36523",
		"street": "54238 Shady Lane RR Unit 1",
		"city": "Eden, ON",
		"postCode": "N0J 1H0",
		"contact": "Jake Zacharias",
		"phone": "(519) 866-3515",
		"website": null
	},
	{
		"company": "James (Kevin) Construction Ltd.",
		"link": "/member_directory/35634",
		"street": "R.R. #3, 125 Rideau Crt.",
		"city": "Perth, ON",
		"postCode": "K7H 3C5",
		"contact": "Kevin James",
		"phone": "(613) 267-3543",
		"website": "http://kjamesconstruction.ca"
	},
	{
		"company": "James Hardie Building Products",
		"link": "/member_directory/34561",
		"street": "C/O 29 Woodbank Rd",
		"city": "Etobicoke, ON",
		"postCode": "M9B 5C3",
		"contact": "Telly Papageorge",
		"phone": "(416) 357-7072",
		"website": "http://jameshardie.com"
	},
	{
		"company": "James Hardie Building Products",
		"link": "/member_directory/36136",
		"street": "205 Spruce Cres",
		"city": "Barrie, ON",
		"postCode": "L4N 4A9",
		"contact": "Dan Slykhuis",
		"phone": "(705) 440-9908",
		"website": "http://jameshardie.com"
	},
	{
		"company": "James Hardie Building Products",
		"link": "/member_directory/34913",
		"street": "1409 Caravel",
		"city": "Ottawa, ON",
		"postCode": "K1E 3X4",
		"contact": "Jonathan Ryan",
		"phone": "(613) 314-9735",
		"website": "http://jameshardie.com"
	},
	{
		"company": "James Hardie Building Products",
		"link": "/member_directory/33405",
		"street": "759 Leslie Valley Dr.",
		"city": "Newmarket, ON",
		"postCode": "L3Y 7J4",
		"contact": "Telly Papageorge",
		"phone": "(416) 357-7072",
		"website": "http://jameshardie.com"
	},
	{
		"company": "James Hardie Building Products",
		"link": "/member_directory/34430",
		"street": "20 Hollingshead",
		"city": "Ingersoll, ON",
		"postCode": "N5C 0B4",
		"contact": "Ross Carley",
		"phone": "(416) 420-2084",
		"website": null
	},
	{
		"company": "James Hardie Building Products",
		"link": "/member_directory/35506",
		"street": "1265 Ontario St. #607",
		"city": "Burlington, ON",
		"postCode": "L7S 1X8",
		"contact": "Ross Corley",
		"phone": "(519) 577-9949",
		"website": "http://jameshardie.com"
	},
	{
		"company": "James Hardie Building Products",
		"link": "/member_directory/35837",
		"street": "20 Hollingshead Rd.",
		"city": "London, ON",
		"postCode": "N5C 0B4",
		"contact": "Ross Corley",
		"phone": "(416) 420-2084",
		"website": null
	},
	{
		"company": "James Keating Construction Ltd.",
		"link": "/member_directory/35087",
		"street": "70 Mathieson St.",
		"city": "Elora, ON",
		"postCode": "N0B 1S0",
		"contact": "Jim Keating",
		"phone": "(519) 846-9704",
		"website": null
	},
	{
		"company": "James Selkirk Custom Homes Ltd.",
		"link": "/member_directory/35608",
		"street": "P.O. Box 2011 Station Main",
		"city": "Kingston, ON",
		"postCode": "K7L 5J8",
		"contact": "James Selkirk",
		"phone": "(613) 545-9396",
		"website": "http://jamesselkirk.com"
	},
	{
		"company": "Jamesview Builders & Electrical",
		"link": "/member_directory/35635",
		"street": "2816 Hwy 15, R.R.#2",
		"city": "Portland, ON",
		"postCode": "K0G 1V0",
		"contact": "Fred &amp; Janet James",
		"phone": "(613) 272-2886",
		"website": null
	},
	{
		"company": "Jameswood Construction Ltd.",
		"link": "/member_directory/35636",
		"street": "249 Purdy Rd.",
		"city": "Lanark, ON",
		"postCode": "K0G 1K0",
		"contact": "Dwight James",
		"phone": "(613) 256-4466",
		"website": null
	},
	{
		"company": "Jane Lockhart Interior Design",
		"link": "/member_directory/33916",
		"street": "3093 Dundas St. W.",
		"city": "Toronto, ON",
		"postCode": "M6P 1Z9",
		"contact": "Jane Lockhart",
		"phone": "(416) 762-2493",
		"website": "http://janelockhart.com"
	},
	{
		"company": "Janice Kochan & Associates Inc",
		"link": "/member_directory/37105",
		"street": "42 Cross Creek Blvd",
		"city": "Guelph, ON",
		"postCode": "N1H 6J2",
		"contact": "Janice Kochan",
		"phone": "519-546-6525",
		"website": "http://janicekochan42@gmail.com"
	},
	{
		"company": "Janmbar Electric Ltd.",
		"link": "/member_directory/36991",
		"street": "36 Frankford Cres",
		"city": "Trenton, ON",
		"postCode": "K8V 4L2",
		"contact": "Mike Smits",
		"phone": "613-292-1406",
		"website": "http://janbarelectric.ca"
	},
	{
		"company": "Jansen Landscaping",
		"link": "/member_directory/35244",
		"street": "557 Schafer Side Rd.",
		"city": "Delhi, ON",
		"postCode": "N4B 2W6",
		"contact": "Michael Jansen",
		"phone": "(519) 410-6453",
		"website": null
	},
	{
		"company": "Jardin Design Group Inc.",
		"link": "/member_directory/33917",
		"street": "64 Jardin Dr. Ste. 3A",
		"city": "Vaughan, ON",
		"postCode": "L4K 3P3",
		"contact": "Walter Botter",
		"phone": "(905) 660-3377",
		"website": "http://jardindesign.ca"
	},
	{
		"company": "Jaron Homes",
		"link": "/member_directory/36332",
		"street": "2495 Confederation Line",
		"city": "Sarnia, ON",
		"postCode": "N7T 7H3",
		"contact": "Jan VanReenen",
		"phone": "(519) 383-8488",
		"website": null
	},
	{
		"company": "Jason Francis Construction",
		"link": "/member_directory/36546",
		"street": "601 Wright Blvd.",
		"city": "Stratford, ON",
		"postCode": "N4Z 0A2",
		"contact": "Jason Francis",
		"phone": "(519) 273-4600",
		"website": null
	},
	{
		"company": "Jay Robinson Custom Homes Inc.",
		"link": "/member_directory/35310",
		"street": "PO Box 339",
		"city": "Campbellville, ON",
		"postCode": "L0P 1B0",
		"contact": "Jay Robinson",
		"phone": "(905) 854-2020",
		"website": "http://jayrobinson.ca"
	},
	{
		"company": "Jaytee Homes",
		"link": "/member_directory/36308",
		"street": "613 Joe St., Unit D",
		"city": "Pembroke, ON",
		"postCode": "K8A 6S6",
		"contact": "John ter Huurne",
		"phone": "(613) 735-3964",
		"website": null
	},
	{
		"company": "Jazbrick",
		"link": "/member_directory/33406",
		"street": "18 Namco Rd.",
		"city": "Toronto, ON",
		"postCode": "M9W 1M5",
		"contact": "Bruno Masucci",
		"phone": "(416) 741-4498",
		"website": "http://jazbrick.com"
	},
	{
		"company": "JB Print Solutions",
		"link": "/member_directory/36207",
		"street": "12 Carrying Place Rd.",
		"city": "Trenton, ON",
		"postCode": "K8V 3E7",
		"contact": "Teresa Bell",
		"phone": "(613) 394-3245",
		"website": null
	},
	{
		"company": "JBS Graphic Communications Inc.",
		"link": "/member_directory/33407",
		"street": "6221 Highway 7 Unit 11",
		"city": "Vaughan, ON",
		"postCode": "L4H 0K8",
		"contact": "Lance Randall",
		"phone": "(905) 264-7755",
		"website": "http://jbsgraphic.com"
	},
	{
		"company": "JCI Architects Inc.",
		"link": "/member_directory/33918",
		"street": "55 Eglinton Ave. E. Ste. 606",
		"city": "Toronto, ON",
		"postCode": "M4P 1G8",
		"contact": "Jaegap Chung",
		"phone": "(416) 901-6528",
		"website": "http://jciarchitects.com"
	},
	{
		"company": "JD Nelson and Sons Ltd.",
		"link": "/member_directory/33637",
		"street": "4 Marks Crt.",
		"city": "Ajax, ON",
		"postCode": "L1T 3N3",
		"contact": "James Nelson",
		"phone": "(647) 223-1245",
		"website": null
	},
	{
		"company": "JDC Custom Homes Inc.",
		"link": "/member_directory/34608",
		"street": "116063 2nd Line SW",
		"city": "Melancthon, ON",
		"postCode": "L9W 2C5",
		"contact": "Paul Janssen",
		"phone": "(519) 925-0663",
		"website": "http://jdccustomhomes.ca"
	},
	{
		"company": "Jeff Duimering Carpentry",
		"link": "/member_directory/36761",
		"street": "7164 SideRd. 15, RR#2",
		"city": "Moorefield, ON",
		"postCode": "N0G 2K0",
		"contact": "Jeff Duimering",
		"phone": "(519) 638-9948",
		"website": "http://jduimering.ca"
	},
	{
		"company": "Jeffery Homes Ltd.",
		"link": "/member_directory/34464",
		"street": "1200 Airport Blvd., Suite 201",
		"city": "Oshawa, ON",
		"postCode": "L1J 8P5",
		"contact": "Scott Jeffery",
		"phone": "(905) 433-4701",
		"website": "http://jefferyhomes.com"
	},
	{
		"company": "Jeffrey Robinson Construction Inc.",
		"link": "/member_directory/35311",
		"street": "239 Malvern Rd.",
		"city": "Burlington, ON",
		"postCode": "L7N 1B6",
		"contact": "Jeff Robinson",
		"phone": "(905) 632-3377",
		"website": "http://jeffreyrobinsonconstruction.com"
	},
	{
		"company": "JELD-WEN United Window Division",
		"link": "/member_directory/34562",
		"street": "90 Stoneridge Rd.",
		"city": "Woodbridge, ON",
		"postCode": "L4H 3G9",
		"contact": "Marcelo Cuenca",
		"phone": "(905) 265-5700",
		"website": "http://jeld-wen.com"
	},
	{
		"company": "JELD-WEN United Window Division",
		"link": "/member_directory/36137",
		"street": "92 Stone Ridge Rd.",
		"city": "Peterborough, ON",
		"postCode": "L4H 3G9",
		"contact": "Frank Atkinson",
		"phone": "(705) 749-4771",
		"website": "http://jeldwen.ca"
	},
	{
		"company": "JELD-WEN United Window Division",
		"link": "/member_directory/34914",
		"street": "1050 Baxter Rd., Unit 2",
		"city": "Ottawa, ON",
		"postCode": "K2C 3P1",
		"contact": "John Cooke",
		"phone": "(613) 274-2809",
		"website": "http://jeld-wen.ca"
	},
	{
		"company": "JELD-WEN United Window Division",
		"link": "/member_directory/33408",
		"street": "90 Stone Ridge Rd.",
		"city": "Woodbridge, ON",
		"postCode": "L4H 3G9",
		"contact": "John Cooke",
		"phone": "(905) 265-5700",
		"website": "http://jeld-wen.ca"
	},
	{
		"company": "JELD-WEN United Window Division",
		"link": "/member_directory/35507",
		"street": "90 Stoneridge Rd.",
		"city": "Vaughan, ON",
		"postCode": "L4H 3G9",
		"contact": "Marcelo Cuenca",
		"phone": "1-800-440-2714",
		"website": "http://jeld-wen.com"
	},
	{
		"company": "JELD-WEN Windows & Doors, United Window Div.",
		"link": "/member_directory/36901",
		"street": "90 Stone Ridge Rd.",
		"city": "Vaughn, ON",
		"postCode": "L4H 3G9",
		"contact": "Jeff Lewis",
		"phone": "(905) 265-5700",
		"website": "http://jeld-wen.com"
	},
	{
		"company": "Jentry Construction Ltd.",
		"link": "/member_directory/34218",
		"street": "129 Rowntree Dairy Rd. Unit 5",
		"city": "Woodbridge, ON",
		"postCode": "L4L 6C9",
		"contact": "Domenic Simone",
		"phone": "(905) 851-6440",
		"website": null
	},
	{
		"company": "Jewitt & Dixon",
		"link": "/member_directory/35194",
		"street": "51 Park Rd.",
		"city": "Simcoe, ON",
		"postCode": "N3Y 4J9",
		"contact": "Rick Dixon",
		"phone": "(519) 426-0842",
		"website": null
	},
	{
		"company": "Jim Williams Construction",
		"link": "/member_directory/36071",
		"street": "1675 Waddell Cres.",
		"city": "Peterborough, ON",
		"postCode": "K9K 2G9",
		"contact": "Jim Williams",
		"phone": "(705) 749-6615",
		"website": null
	},
	{
		"company": "JLC Homes Ltd.",
		"link": "/member_directory/35696",
		"street": "P.O. Box 37 Lambeth Stn.",
		"city": "London, ON",
		"postCode": "N6P 1P9",
		"contact": "Jon Leahy",
		"phone": "(519) 319-5170",
		"website": "http://jlchomes.ca"
	},
	{
		"company": "John & David Baer Inc.",
		"link": "/member_directory/35752",
		"street": "4494 Scotchmere Dr. R.R. #2",
		"city": "Glencoe, ON",
		"postCode": "N0L 1M0",
		"contact": "Jason Marcus",
		"phone": "(519) 287-2488",
		"website": "http://jdbaerinc.com"
	},
	{
		"company": "John Boddy Homes",
		"link": "/member_directory/34465",
		"street": "409 Kingston Rd. W.",
		"city": "Ajax, ON",
		"postCode": "L1S6L7",
		"contact": "Jill Boddy",
		"phone": "(905) 428-1000",
		"website": "http://johnboddyhomes.com"
	},
	{
		"company": "John Boldt Builders Ltd.",
		"link": "/member_directory/35926",
		"street": "1515 Fifth St.,R.R.#3",
		"city": "St. Catharines, ON",
		"postCode": "L2R 6P9",
		"contact": "Dan Duerrstein",
		"phone": "(905) 682-5958",
		"website": "http://johnboldtbuilders.com"
	},
	{
		"company": "John Boot Construction Ltd.",
		"link": "/member_directory/36333",
		"street": "5720 Telfer Rd.",
		"city": "Sarnia, ON",
		"postCode": "N7T 7H2",
		"contact": "John Boot",
		"phone": "(519) 542-2200",
		"website": null
	},
	{
		"company": "John Bruce Robinson Construction Ltd.",
		"link": "/member_directory/35312",
		"street": "PO Box 39",
		"city": "Binbrook, ON",
		"postCode": "L0R 1C0",
		"contact": "John Bruce Robinson",
		"phone": "(905) 692-1741",
		"website": "http://homesbyjohnbrucerobinson.com"
	},
	{
		"company": "John Donkin Architect Inc.",
		"link": "/member_directory/34834",
		"street": "138 Hopewell Ave.",
		"city": "Ottawa, ON",
		"postCode": "K1S 2Z3",
		"contact": "John Donkin`",
		"phone": "(613) 730-6918",
		"website": "http://jdarchitect.ca"
	},
	{
		"company": "John E. Smith Realty Sudbury",
		"link": "/member_directory/36655",
		"street": "353 Lorne St.",
		"city": "Sudbury, ON",
		"postCode": "P3C 4R1",
		"contact": "Dorothy Heaslip",
		"phone": "(705) 674-5261",
		"website": "http://jsmithrealty.com"
	},
	{
		"company": "John Ervin Carpentry",
		"link": "/member_directory/35637",
		"street": "881 McLaren Rd.",
		"city": "Perth, ON",
		"postCode": "K7H 1A1",
		"contact": "John Ervin",
		"phone": "(613) 267-2512",
		"website": null
	},
	{
		"company": "John G. Alousis Law Firm",
		"link": "/member_directory/36424",
		"street": "76 Mulcaster St.",
		"city": "Barrie, ON",
		"postCode": "L4M 3M4",
		"contact": "John Alousis",
		"phone": "(705) 735-0065",
		"website": null
	},
	{
		"company": "John Gerard Homes",
		"link": "/member_directory/34682",
		"street": "P.O. Box 40",
		"city": "Greely, ON",
		"postCode": "K4P 1N4",
		"contact": "Gerry Lavimodiere",
		"phone": "(613) 720-0494",
		"website": "http://johngerardhomes.ca"
	},
	{
		"company": "John Hickey Construction Ltd.",
		"link": "/member_directory/34314",
		"street": "82170 Loyal Line R.R. Unit6",
		"city": "Goderich, ON",
		"postCode": "N7A 3Y3",
		"contact": "John Hickey",
		"phone": "(519) 524-5961",
		"website": null
	},
	{
		"company": "John Leader Masonry",
		"link": "/member_directory/36616",
		"street": "123 Waterloo St. S.",
		"city": "Stratford, ON",
		"postCode": "N5A 4B3",
		"contact": "John Leader",
		"phone": "(519) 305-0365",
		"website": null
	},
	{
		"company": "John Maas Builder Ltd.",
		"link": "/member_directory/35609",
		"street": "341 Chelsea Rd.",
		"city": "Kingston, ON",
		"postCode": "K7M 3Z9",
		"contact": "Bill Maas",
		"phone": "(613) 541-9134",
		"website": "http://johnmaasbuilder.com"
	},
	{
		"company": "John Sweeping Inc.",
		"link": "/member_directory/35006",
		"street": "4070 Belgreen Dr.",
		"city": "Ottawa, ON",
		"postCode": "K1G 3N2",
		"contact": "Paul Munro",
		"phone": "(613) 738-1212",
		"website": null
	},
	{
		"company": "Johnny B. Drywall Ltd.",
		"link": "/member_directory/35007",
		"street": "3333 Mustang St.",
		"city": "Ottawa, ON",
		"postCode": "K4B 1M5",
		"contact": "Jeff Buffone",
		"phone": "(613) 835-4184",
		"website": null
	},
	{
		"company": "Johnson Engineering Consultants Inc.",
		"link": "/member_directory/36559",
		"street": "368 Huron St.",
		"city": "Stratford, ON",
		"postCode": "N5A 5T5",
		"contact": "Brian Johnson",
		"phone": "(519) 271-9923",
		"website": null
	},
	{
		"company": "Johnstone Homes",
		"link": "/member_directory/35697",
		"street": "284 Exeter Rd.",
		"city": "London, ON",
		"postCode": "N6L 1A3",
		"contact": "Matt Johnstone",
		"phone": "(519) 652-9581",
		"website": "http://johnstonehomes.ca"
	},
	{
		"company": "Jonathon's Perron Floor Coverings",
		"link": "/member_directory/35508",
		"street": "230 Anchor Rd.",
		"city": "Hamilton, ON",
		"postCode": "L8W 3R2",
		"contact": "Vincent Giardini",
		"phone": "(905) 575-3131",
		"website": "http://jonathonsfloorcoverings.com"
	},
	{
		"company": "Jones DesLauriers Insurance",
		"link": "/member_directory/33919",
		"street": "2375 Skymark Ave.",
		"city": "Mississauga, ON",
		"postCode": "L4W 4Y6",
		"contact": "Matt Croswell",
		"phone": "(416) 521-6703",
		"website": "http://HomeBuildersInsurance.ca"
	},
	{
		"company": "Joseph N. Campitelli Architect Inc.",
		"link": "/member_directory/33920",
		"street": "10 Bur Oak Ave. Ste. 3",
		"city": "Markham, ON",
		"postCode": "L6C 0A2",
		"contact": "Joseph Campitelli",
		"phone": "(905) 887-8900",
		"website": "http://jnc-architect.com"
	},
	{
		"company": "Joseph Smit Construction",
		"link": "/member_directory/36055",
		"street": "P.O. Box 144",
		"city": "Embro, ON",
		"postCode": "N0J 1J0",
		"contact": "Joseph Smit",
		"phone": "(519) 475-9492",
		"website": null
	},
	{
		"company": "Josh Developments (1996) Ltd.",
		"link": "/member_directory/33638",
		"street": "31 B Industrial St.",
		"city": "Toronto, ON",
		"postCode": "M4G 1Z2",
		"contact": "Terry Kaufman",
		"phone": "(416) 318-4899",
		"website": null
	},
	{
		"company": "Jourdan Group Inc.",
		"link": "/member_directory/33042",
		"street": "9 Woodlawn Ave. E.",
		"city": "Toronto, ON",
		"postCode": "M4T 1B9",
		"contact": "Varda Jourdan",
		"phone": "(416) 920-0111",
		"website": null
	},
	{
		"company": "JoyfulProfit Movement (The)",
		"link": "/member_directory/33921",
		"street": "6045 Creditview Rd. Ste. 148",
		"city": "Mississauga, ON",
		"postCode": "L5V 0B1",
		"contact": "Catherine Mitchell",
		"phone": "(416) 562-3711",
		"website": "http://joyfulprofit.com"
	},
	{
		"company": "JP Reno Inc.",
		"link": "/member_directory/35753",
		"street": "405 Berkshire Dr.",
		"city": "London, ON",
		"postCode": "N6J 3R5",
		"contact": "John Pankiewicz",
		"phone": "(519) 858-4809",
		"website": "http://jpreno.com"
	},
	{
		"company": "JP26 Consultants Inc.",
		"link": "/member_directory/36315",
		"street": "12 International Dr.",
		"city": "Pembroke, ON",
		"postCode": "K8A 6W5",
		"contact": "Ed Schultz",
		"phone": "(613) 735-2507",
		"website": null
	},
	{
		"company": "JPH Design",
		"link": "/member_directory/36560",
		"street": "356 Ontario St., Suite 355",
		"city": "Stratford, ON",
		"postCode": "N5A 7X6",
		"contact": "Jeremy Hunt",
		"phone": "(519) 276-1324",
		"website": null
	},
	{
		"company": "Jumbo Renovations Ltd.",
		"link": "/member_directory/36493",
		"street": "43808 Talbot Line R.R. Unit3",
		"city": "St. Thomas, ON",
		"postCode": "N5P 3S7",
		"contact": "Richard Cox",
		"phone": "(519) 631-9066",
		"website": "http://jumborenovations.com"
	},
	{
		"company": "Junic Homes",
		"link": "/member_directory/34683",
		"street": "8 Blvd. Du Plateau",
		"city": "Gatineau, Quebec",
		"postCode": "J9A 3K7",
		"contact": "Erick Soucy",
		"phone": "(819) 595-0362",
		"website": "http://junic.ca"
	},
	{
		"company": "Just Basements",
		"link": "/member_directory/34754",
		"street": "2853 Carp Rd.",
		"city": "Ottawa, ON",
		"postCode": "K0A 1L0",
		"contact": "Norm Lecuyer",
		"phone": "(613) 836-0306",
		"website": "http://justbasementsottawa.ca"
	},
	{
		"company": "Just Pipe & Fittings Inc.",
		"link": "/member_directory/36516",
		"street": "43870 Talbot Line RR Unit 3",
		"city": "St. Thomas, ON",
		"postCode": "N5P 3S7",
		"contact": "Don Myles",
		"phone": "(519) 633-9380",
		"website": null
	},
	{
		"company": "Justice Construction Ltd.",
		"link": "/member_directory/37198",
		"street": "2160 Old Prescott Rd",
		"city": "Greely, ON",
		"postCode": "K4P 1N5",
		"contact": "Paul Justice",
		"phone": "613-821-2147",
		"website": null
	},
	{
		"company": "JV Building Supply",
		"link": "/member_directory/33409",
		"street": "2 Fogal Rd.",
		"city": "Woodbridge, ON",
		"postCode": "L4L 1A5",
		"contact": "John Gallucci",
		"phone": "(905) 851-3744",
		"website": "http://jvbs.ca"
	},
	{
		"company": "JVK Restoration Masonry",
		"link": "/member_directory/36617",
		"street": "78 E. Gore St.,",
		"city": "Stratford,, ON",
		"postCode": "N5A 3X5",
		"contact": "Jacob VanKooten",
		"phone": "(519) 274-9288",
		"website": null
	},
	{
		"company": "K Enterprises",
		"link": "/member_directory/35281",
		"street": "Box 905",
		"city": "Haliburton, ON",
		"postCode": "K0M 1S0",
		"contact": "Dan Kay",
		"phone": "(705) 457-9077",
		"website": null
	},
	{
		"company": "K-W Glass Systems Inc.",
		"link": "/member_directory/36931",
		"street": "445 Dutton Dr.",
		"city": "Waterloo, ON",
		"postCode": "N2L 4C7",
		"contact": "Rob Hackbart",
		"phone": "(519) 725-9305",
		"website": "http://kwglass.com"
	},
	{
		"company": "K. Winter Sanitation Inc.",
		"link": "/member_directory/33410",
		"street": "2816 6th Line",
		"city": "Innisfil, ON",
		"postCode": "L9S 4S4",
		"contact": "Ken Winter",
		"phone": "(705) 726-0782",
		"website": "http://winsan.on.ca"
	},
	{
		"company": "K.H. Davis Engineering Consultants Ltd.",
		"link": "/member_directory/33922",
		"street": "1468 Danforth Ave.",
		"city": "Toronto, ON",
		"postCode": "M4J 1N4",
		"contact": "Ken Davis",
		"phone": "(416) 489-1228",
		"website": "http://khdavis.com"
	},
	{
		"company": "Kagan Shastri LLP",
		"link": "/member_directory/33923",
		"street": "188 Ave. Rd.",
		"city": "Toronto, ON",
		"postCode": "M5R 2J1",
		"contact": "Ira Kagan",
		"phone": "(416) 368-2100",
		"website": "http://ksllp.ca"
	},
	{
		"company": "Kaitlin Corporation",
		"link": "/member_directory/33043",
		"street": "28 Sandiford Dr. Ste. 201",
		"city": "Stouffville, ON",
		"postCode": "L4A 1L8",
		"contact": "William Daniell",
		"phone": "(905) 642-7050",
		"website": "http://kaitlingroup.com"
	},
	{
		"company": "Kaitlin Corporation",
		"link": "/member_directory/35610",
		"street": "1 Loyalist Blvd.,",
		"city": "Bath, ON",
		"postCode": "K0H 1G0",
		"contact": "Ken Albertan",
		"phone": "(613) 352-5000",
		"website": "http://kaitlincorp.com"
	},
	{
		"company": "Kaitlin Corporation",
		"link": "/member_directory/34466",
		"street": "28 Sandiford Dr., Suite 201",
		"city": "Stouffville, ON",
		"postCode": "L4A 1L8",
		"contact": "William Daniell",
		"phone": "(905) 642-7050",
		"website": "http://kaitlincorp.com"
	},
	{
		"company": "Kaneff Properties Ltd.",
		"link": "/member_directory/33044",
		"street": "8501 Mississauga Rd. Ste. 200",
		"city": "Brampton, ON",
		"postCode": "L6Y 5G8",
		"contact": "Kristina Kaneff",
		"phone": "(905) 454-0221",
		"website": "http://kaneff.com"
	},
	{
		"company": "Kantelberg Design Inc.",
		"link": "/member_directory/33924",
		"street": "672 Dupont St. Unit 405",
		"city": "Toronto, ON",
		"postCode": "M6G 1Z6",
		"contact": "Andrea Kantelberg",
		"phone": "(416) 599-5151",
		"website": "http://andreakantelberg.com"
	},
	{
		"company": "Kantium Development and Construction Inc.",
		"link": "/member_directory/33045",
		"street": "279 Sheppard Ave. W.",
		"city": "Toronto, ON",
		"postCode": "M2N 1N4",
		"contact": "Hassan Haji",
		"phone": "(416) 915-0592",
		"website": "http://kantium.ca"
	},
	{
		"company": "Karhu Fine Cabinetry & Millwork",
		"link": "/member_directory/34915",
		"street": "45 Bates Dr.",
		"city": "Carleton Place, ON",
		"postCode": "K7C 4J8",
		"contact": null,
		"phone": "(613) 257-4512",
		"website": "http://karhuwoodworking.ca"
	},
	{
		"company": "Karim Design & Build",
		"link": "/member_directory/35698",
		"street": "3553 Settlement Trail",
		"city": "London, ON",
		"postCode": "N6P 0A8",
		"contact": "Nader Habib",
		"phone": "(519) 808-6449",
		"website": "http://karimhomes.com"
	},
	{
		"company": "Kariouk Associates",
		"link": "/member_directory/34835",
		"street": "179 George St. Suite 1204",
		"city": "Ottawa, ON",
		"postCode": "K1N 1J8",
		"contact": "Paul Kariouk",
		"phone": "(613) 562-2211",
		"website": "http://kariouk.com"
	},
	{
		"company": "Karisma Build Group-Custom.Design.Builder",
		"link": "/member_directory/35927",
		"street": "P.O. Box 844",
		"city": "Fonthilll, ON",
		"postCode": "L0S 1E0",
		"contact": "Fred Fraraccio",
		"phone": "(905) 714-9440",
		"website": "http://KarismaHomes.com"
	},
	{
		"company": "Karl Reyneveld",
		"link": "/member_directory/36037",
		"street": "R.R. #5",
		"city": "Woodstock, ON",
		"postCode": "N4S 7V9",
		"contact": "Karl Reyneveld",
		"phone": "(519) 467-5552",
		"website": null
	},
	{
		"company": "Kassinger (H) Construction Ltd.",
		"link": "/member_directory/34467",
		"street": "500 Mayfair Ave.",
		"city": "Oshawa, ON",
		"postCode": "L1G 2Y2",
		"contact": "Jim Bathe",
		"phone": "(905) 728-7583",
		"website": "http://kassinger.com"
	},
	{
		"company": "Kates Advertising Ltd.",
		"link": "/member_directory/33925",
		"street": "55 Strathearn Rd.",
		"city": "Toronto, ON",
		"postCode": "M6C 1R5",
		"contact": "Stan Kates",
		"phone": "(416) 888-9090",
		"website": "http://stankates.com"
	},
	{
		"company": "Kawartha Closets N Shelves Inc. ",
		"link": "/member_directory/36159",
		"street": "396 Kings Wharf Rd.",
		"city": "Dunsford, ON",
		"postCode": "K0M 1L0",
		"contact": "Otto Mako",
		"phone": "1-877-745-3489",
		"website": "http://kawarthaclosets.com"
	},
	{
		"company": "Kawartha Eavestroughing & Siding Ltd.",
		"link": "/member_directory/36160",
		"street": "425 Edenderry Line, R.R. #1",
		"city": "Ennismore, ON",
		"postCode": "K0L 1T0",
		"contact": "Joe Crowley",
		"phone": "(705) 292-7953",
		"website": null
	},
	{
		"company": "Kawartha Lakes Construction Co. Ltd.",
		"link": "/member_directory/36072",
		"street": "3359 Lakefield Rd.",
		"city": "Lakefield, ON",
		"postCode": "K0L 2H0",
		"contact": "Scott Wootton",
		"phone": "(705) 652-5241",
		"website": "http://kawarthalakesconstruction.com"
	},
	{
		"company": "Kawartha Media Group - Peterborough This Week",
		"link": "/member_directory/36111",
		"street": "884 Ford St.",
		"city": "Peterborough, ON",
		"postCode": "K9J 5V3",
		"contact": "Mary Babcock",
		"phone": "(705) 749-3383",
		"website": null
	},
	{
		"company": "Kaycan Ltd.",
		"link": "/member_directory/34563",
		"street": "70 Venture Dr.",
		"city": "Scarborough, ON",
		"postCode": "M1B 3L6",
		"contact": "Gordon Morton",
		"phone": "(416) 283-0834",
		"website": "http://kaycan.com"
	},
	{
		"company": "Kaycan Ltd.",
		"link": "/member_directory/35008",
		"street": "1705 Russell Rd.",
		"city": "Ottawa, ON",
		"postCode": "K1G 0N1",
		"contact": "Luc Poisson",
		"phone": "(613) 233-0590",
		"website": "http://kaycan.com"
	},
	{
		"company": "KB Garage Doors Ltd",
		"link": "/member_directory/35995",
		"street": "680 Tradewind Dr.",
		"city": "Ancaster, ON",
		"postCode": "L9G 4V5",
		"contact": "Phillip Rapattoni",
		"phone": "(905) 679-8964",
		"website": null
	},
	{
		"company": "Kee, Perry & DeVrieze, Chartered Professional Accountants",
		"link": "/member_directory/36498",
		"street": "15 Barrie Blvd.",
		"city": "St. Thomas, ON",
		"postCode": "N5P 4B9",
		"contact": "Anne Marie Perry",
		"phone": "(519) 631-6360",
		"website": "http://kpdcpa.ca"
	},
	{
		"company": "Keen Landscaping",
		"link": "/member_directory/35245",
		"street": "1184 Concession 14 Rd.",
		"city": "Simcoe, ON",
		"postCode": "N3Y 4K3",
		"contact": "Neil Herrewynen",
		"phone": "(519) 428-2592",
		"website": null
	},
	{
		"company": "Keesmaat Custom Homes",
		"link": "/member_directory/35178",
		"street": "2149 River Rd.",
		"city": "Cayuga, ON",
		"postCode": "N0A 1E0",
		"contact": "Ike Keesmaat",
		"phone": "(905) 536-5304",
		"website": null
	},
	{
		"company": "Kelly Lake Building Supplies",
		"link": "/member_directory/36682",
		"street": "22 Brady St.",
		"city": "Sudbury, ON",
		"postCode": "P3E 6E1",
		"contact": "Joe Barberio",
		"phone": "(705) 674-5283",
		"website": "http://kellylakebuildingsupplies.ca"
	},
	{
		"company": "Kelly Santini LLP",
		"link": "/member_directory/34827",
		"street": "2401-160 Elgin St",
		"city": "Ottawa, ON",
		"postCode": "K2P 2P7",
		"contact": "Eric Appotive",
		"phone": "(613) 238-8400",
		"website": "http://hamiltonappotive.com"
	},
	{
		"company": "Kelos Homes",
		"link": "/member_directory/36715",
		"street": "1515 E. Arthur St.",
		"city": "Thunder Bay, ON",
		"postCode": "P7E 1H6",
		"contact": "Chris Kelos",
		"phone": "(807) 624-6330",
		"website": null
	},
	{
		"company": "Kember Hardwood Floors",
		"link": "/member_directory/34639",
		"street": "3160 Derry Rd. E.",
		"city": "Mississauga, ON",
		"postCode": "L4T 1A9",
		"contact": "Joel Kember",
		"phone": "(989) 598-0471",
		"website": null
	},
	{
		"company": "Kempenfelt Renovations",
		"link": "/member_directory/36401",
		"street": "1002 Mapleview Dr. E.",
		"city": "Barrie, ON",
		"postCode": "L9J 0C4",
		"contact": "Adam Baguley",
		"phone": "(705) 770-2271",
		"website": null
	},
	{
		"company": "Ken Burns/Solar Team",
		"link": "/member_directory/35195",
		"street": "130 Bethel Church Rd., R.R. #2",
		"city": "Brantford, ON",
		"postCode": "N3T 5L8",
		"contact": "Ken Burns",
		"phone": "(519) 770-5300",
		"website": null
	},
	{
		"company": "Ken Burrows & Son",
		"link": "/member_directory/35064",
		"street": "058651 Side Rd. #5",
		"city": "Shallow Lake, ON",
		"postCode": "N0H 2K0",
		"contact": "Dan Burrows",
		"phone": "(519) 935-2859",
		"website": "http://kenburrowsandson.com"
	},
	{
		"company": "Kenalex Construction Co. Ltd.",
		"link": "/member_directory/36020",
		"street": "1017 Jet Ave. PO Box 945",
		"city": "North Bay, ON",
		"postCode": "P1B 8K1",
		"contact": "Ken Jackson",
		"phone": "(705) 476-1544",
		"website": null
	},
	{
		"company": "Kenedy Stairs Inc.",
		"link": "/member_directory/35509",
		"street": "336 Green Rd.",
		"city": "Stoney Creek, ON",
		"postCode": "L8E 2B2",
		"contact": "Susan Maxwell",
		"phone": "(905) 662-4949",
		"website": "http://kenedystairs.com"
	},
	{
		"company": "Kenmar Basement Systems",
		"link": "/member_directory/36709",
		"street": "1049 Hwy 17 E.",
		"city": "Wahnapitae, ON",
		"postCode": "P0M 3C0",
		"contact": "Marina Westlake",
		"phone": "(705) 694 0888",
		"website": "http://kenmarbasementsystems.ca"
	},
	{
		"company": "Kenmore Homes ",
		"link": "/member_directory/35928",
		"street": "236 Glenridge Ave.",
		"city": "St. Catharines, ON",
		"postCode": "L2T 3J8",
		"contact": "Jennifer Kaufman",
		"phone": "(905) 684-2317",
		"website": "http://kenmorehomes.ca"
	},
	{
		"company": "Kenmore Homes ",
		"link": "/member_directory/35699",
		"street": "100 Bessemer Rd., Suite 5",
		"city": "London, ON",
		"postCode": "N6E 1R2",
		"contact": "Lou Squazzin",
		"phone": "(519) 681-3983",
		"website": "http://kenmorehomes.ca"
	},
	{
		"company": "Kenmore Homes ",
		"link": "/member_directory/36762",
		"street": "79 Rankin St., Unit 2",
		"city": "Waterloo, ON",
		"postCode": "N2V 1W2",
		"contact": "Jon Kaufman",
		"phone": "(519) 747-2834",
		"website": "http://kenmorehomes.ca"
	},
	{
		"company": "Kenneth Homes",
		"link": "/member_directory/35960",
		"street": "3 Laurie St.",
		"city": "St. Catharines, ON",
		"postCode": "L2S 2V9",
		"contact": "Ken Ledwez",
		"phone": "(905) 321-3177",
		"website": "http://kennethhomes.ca"
	},
	{
		"company": "Kent Truss Ltd.",
		"link": "/member_directory/36311",
		"street": "2253 A Petawawa Blvd.",
		"city": "Pembroke, ON",
		"postCode": "K8A 7G7",
		"contact": "Jeff White",
		"phone": "(613) 687-1608",
		"website": null
	},
	{
		"company": "Kerbel Group Inc.",
		"link": "/member_directory/33046",
		"street": "26 Lesmill Rd. Unit 3",
		"city": "Toronto, ON",
		"postCode": "M3B 2T5",
		"contact": "Joanne Barnett",
		"phone": "(416) 733-2202",
		"website": null
	},
	{
		"company": "Kettlebeck Developments",
		"link": "/member_directory/37120",
		"street": "14038 Bayview Ave",
		"city": "Aurora, ON",
		"postCode": "L4G 0C1",
		"contact": "Saad Siddiqui",
		"phone": "877 606 2926",
		"website": null
	},
	{
		"company": "Keuning Construction Ltd.",
		"link": "/member_directory/34468",
		"street": "2890 Concession Rd. 5",
		"city": "Pickering, ON",
		"postCode": "L1V 2P8",
		"contact": "Peter Keuning",
		"phone": "(905) 263-4474",
		"website": "http://keuning.ca"
	},
	{
		"company": "Key 2 Communications",
		"link": "/member_directory/37127",
		"street": "331 Trowers Road Unit 5",
		"city": "Woodbridge, ON",
		"postCode": "L4L 6A2",
		"contact": "Aimee Nguyen",
		"phone": "905 850 7060",
		"website": null
	},
	{
		"company": "Key Homes",
		"link": "/member_directory/36334",
		"street": "546 Christina St., N.",
		"city": "Sarnia, ON",
		"postCode": "N7T 5W6",
		"contact": "Doug Bain",
		"phone": "(519) 381-7560",
		"website": "http://youronlineagents.com/keyhomes/"
	},
	{
		"company": "Keyesbury Distributors Ltd.",
		"link": "/member_directory/34916",
		"street": "99 Bruce Cres.",
		"city": "Carleton Place, ON",
		"postCode": "K7C 3T3",
		"contact": "Ian Morrison",
		"phone": "(613) 257-8100",
		"website": "http://keyesbury.com"
	},
	{
		"company": "Keystone Design Group",
		"link": "/member_directory/35196",
		"street": "363 Ireland Rd.",
		"city": "Simcoe, ON",
		"postCode": "N3Y 4K4",
		"contact": "Sam Bunting",
		"phone": "(519) 426 9186",
		"website": null
	},
	{
		"company": "Keystone Interiors Inc.",
		"link": "/member_directory/33639",
		"street": "4040 Steeles Ave. W. Ste. 40",
		"city": "Woodbridge, ON",
		"postCode": "L4L 4Y5",
		"contact": "Emilio Cosentino",
		"phone": "(905) 850-0474",
		"website": "http://keystoneinteriors.ca"
	},
	{
		"company": "Keystone Ridge Developments Ltd.",
		"link": "/member_directory/33640",
		"street": "155 Dalhousie St. Ste. 956",
		"city": "Toronto, ON",
		"postCode": "M5B 2P7",
		"contact": "Samuel Lapidus",
		"phone": "(416) 901-9426",
		"website": "http://keystoneridge.ca"
	},
	{
		"company": "Khachi Design Group Ltd.",
		"link": "/member_directory/33641",
		"street": "481 N. Service Rd. W. Ste. A28",
		"city": "Oakville, ON",
		"postCode": "L6M 2V6",
		"contact": "Ramsin Khachi",
		"phone": "(905) 469-8118",
		"website": "http://khachi.com"
	},
	{
		"company": "Kidd Brothers Construction Ltd.",
		"link": "/member_directory/36095",
		"street": "530 Lindsay Rd.",
		"city": "Peterborough, ON",
		"postCode": "K9J 6X3",
		"contact": "Harold Kidd",
		"phone": "(705) 742-3480",
		"website": "http://kiddbrosconstruction.com"
	},
	{
		"company": "Kilbarry Hill Construction Ltd.",
		"link": "/member_directory/33047",
		"street": "1485 Whitehorse Rd.",
		"city": "Toronto, ON",
		"postCode": "M3J 2Z2",
		"contact": "Shawn Mecklinger",
		"phone": "(416) 484-0701",
		"website": "http://kilbarryhill.com"
	},
	{
		"company": "Kilgour & Associates",
		"link": "/member_directory/34836",
		"street": "2285C St. Laurent Blvd. Unit 16",
		"city": "Ottawa, ON",
		"postCode": "K1G 4Z6",
		"contact": "Bruce Kilgour",
		"phone": "(613) 260-5555",
		"website": "http://kilgourassociates.com"
	},
	{
		"company": "Kilmer Brownfield Management Ltd.",
		"link": "/member_directory/33048",
		"street": "40 King St. W. Ste. 2700",
		"city": "Toronto, ON",
		"postCode": "M5H 3Y2",
		"contact": "David Harper",
		"phone": "(416) 635-6100",
		"website": "http://kilmergroup.com"
	},
	{
		"company": "Kim Graham & Associates Inc.",
		"link": "/member_directory/33926",
		"street": "56 The Esplanade Ste. 407",
		"city": "Toronto, ON",
		"postCode": "M5E 1A6",
		"contact": "Kim Graham",
		"phone": "(416) 537-0954",
		"website": "http://kimgraham.ca"
	},
	{
		"company": "King Masonry Yard Ltd.",
		"link": "/member_directory/33411",
		"street": "14025 Humber Station Rd.",
		"city": "Caledon, ON",
		"postCode": "L7E  0Z9",
		"contact": "Issac Raposo",
		"phone": "(905) 951-9273",
		"website": "http://kingmasonryyard.com"
	},
	{
		"company": "King Station Inc.",
		"link": "/member_directory/33049",
		"street": "399 Four Valley Dr. Unit 20",
		"city": "Concord, ON",
		"postCode": "L4K 5Y7",
		"contact": "Walter Pontiero",
		"phone": "(905) 532-9595",
		"website": "http://kingstation.ca"
	},
	{
		"company": "Kingdon Timber Mart",
		"link": "/member_directory/36138",
		"street": "34 DeynCrt. St.",
		"city": "Lakefield, ON",
		"postCode": "K0L 2H0",
		"contact": "Don Dyck",
		"phone": "(705) 749-1144",
		"website": "http://kingdontruss.com"
	},
	{
		"company": "Kingsway Carpets & Blinds Inc.",
		"link": "/member_directory/34219",
		"street": "100 The E. Mall Unit 5",
		"city": "Toronto, ON",
		"postCode": "M8Z 5X2",
		"contact": "George Partsalidis",
		"phone": "(416) 253-0880",
		"website": "http://kingswaycarpetsandblinds.com"
	},
	{
		"company": "Kingsway Home Improvements Inc.",
		"link": "/member_directory/33642",
		"street": "255 The E. Mall Ste. 1730",
		"city": "Toronto, ON",
		"postCode": "M9B 0A9",
		"contact": "Tony Pavicic",
		"phone": "(647) 505-6869",
		"website": "http://kingswayhomeimprovements.com"
	},
	{
		"company": "Kingsway Home Renovations",
		"link": "/member_directory/33643",
		"street": "22 Cliveden Ave.",
		"city": "Etobicoke, ON",
		"postCode": "M8Z 3M8",
		"contact": "Daryl Monaghan",
		"phone": "(416) 702-0762",
		"website": "http://kingswayhomerenovations.com"
	},
	{
		"company": "Kingwood Homes Ltd.",
		"link": "/member_directory/34335",
		"street": "295 The W. Mall, Suite 118",
		"city": "TORONTO, ON",
		"postCode": "M9C 4Z4",
		"contact": "Adam Di Tommaso",
		"phone": "(416) 363-3137",
		"website": "http://kingwoodhomes.ca"
	},
	{
		"company": "Kinnear\\Wayne-Dalton Garage Doors ODCC Corp.",
		"link": "/member_directory/36972",
		"street": "13425 Desro Dr.",
		"city": "Tecumseh, ON",
		"postCode": "N8N 2L9",
		"contact": "Mathew Gagnon",
		"phone": "(519) 735-7790",
		"website": "http://wayne-dalton.com"
	},
	{
		"company": "Kirk Builders (1996) Ltd.",
		"link": "/member_directory/34755",
		"street": "40 Sherry Lane",
		"city": "Nepean, ON",
		"postCode": "K2G 3L7",
		"contact": "Paul Kirk",
		"phone": "(613) 226-6252",
		"website": null
	},
	{
		"company": "Kirkor Architects & Planners",
		"link": "/member_directory/33927",
		"street": "20 Martin Ross Ave.",
		"city": "Toronto, ON",
		"postCode": "M3J 2K8",
		"contact": "Steven Kirshenblatt",
		"phone": "(416) 665-6060",
		"website": "http://kirkorarchitects.com"
	},
	{
		"company": "Kitchen Craft Cabinetry",
		"link": "/member_directory/35009",
		"street": "2287 Gladwin Cres.",
		"city": "Ottawa, ON",
		"postCode": "K1B 4K9",
		"contact": "Saverio Marrello",
		"phone": "(613) 738-2423",
		"website": "http://kitchencraft.com"
	},
	{
		"company": "Kitchen Creations",
		"link": "/member_directory/36208",
		"street": "748 Old Highway 2",
		"city": "Trenton, ON",
		"postCode": "K8V 5P5",
		"contact": "Carol Hadwen",
		"phone": "(613) 394-6400",
		"website": null
	},
	{
		"company": "Kitchener Home Hardware & Furniture",
		"link": "/member_directory/36902",
		"street": "1014 Victoria St. N.",
		"city": "Kitchener, ON",
		"postCode": "N2B 3C4",
		"contact": "Liz Coyles",
		"phone": "(519) 579-7300",
		"website": "http://home.furniture.ca"
	},
	{
		"company": "Kitchener Steel Service Centre",
		"link": "/member_directory/36903",
		"street": "600 Trillium Dr.",
		"city": "Kitchener, ON",
		"postCode": "N2R 1E6",
		"contact": "Gail Metzger",
		"phone": "(519) 748-2410",
		"website": "http://kitchenersteel.com"
	},
	{
		"company": "Kitchener Steel Service Centre",
		"link": "/member_directory/35144",
		"street": "600 Trillium Dr.",
		"city": "Kitchener, ON",
		"postCode": "N2R 1E6",
		"contact": "Ted Shier",
		"phone": "1-800-265-6540",
		"website": null
	},
	{
		"company": "Kitchener Utilities",
		"link": "/member_directory/36904",
		"street": "131 Goodrich Dr.",
		"city": "Kitchener, ON",
		"postCode": "N2C 2E8",
		"contact": "Michele Kamphuis",
		"phone": "(519) 741-2529",
		"website": "http://kitchenerutilities.ca"
	},
	{
		"company": "Kiya Developments Ltd.",
		"link": "/member_directory/34469",
		"street": "41 Petaluma Crt.",
		"city": "Ashburn, ON",
		"postCode": "L0B 1A0",
		"contact": "Lucky Dutt",
		"phone": "(905) 620-0257",
		"website": "http://kiyadevelopments.com"
	},
	{
		"company": "Klemencic Homes Inc.",
		"link": "/member_directory/36180",
		"street": "P.O. Box 506",
		"city": "Trenton, ON",
		"postCode": "K8V 5R6",
		"contact": "Mark Klemencic",
		"phone": "(613) 392-7839",
		"website": "http://klemencic.com"
	},
	{
		"company": "KLM Planning Partners Inc.",
		"link": "/member_directory/33928",
		"street": "64 Jardin Dr. Unit 1B",
		"city": "Concord, ON",
		"postCode": "L4K 3P3",
		"contact": "Keith MacKinnon",
		"phone": "(905) 669-4055",
		"website": "http://klmplanning.com"
	},
	{
		"company": "Kloet Construction Ltd.",
		"link": "/member_directory/35179",
		"street": "102 Brown St.",
		"city": "Port Dover, ON",
		"postCode": "N0A 1N7",
		"contact": "Peter Kloet",
		"phone": "(519) 587 4046",
		"website": null
	},
	{
		"company": "Klomp's Landscaping Inc.",
		"link": "/member_directory/36618",
		"street": "R.R. #7",
		"city": "St. Marys, ON",
		"postCode": "N4X 1C9",
		"contact": "Susan Klomp",
		"phone": "(519) 284-0254",
		"website": null
	},
	{
		"company": "Knell's Door and Hardware",
		"link": "/member_directory/36905",
		"street": "2090 Shirley Dr.",
		"city": "Kitchener, ON",
		"postCode": "N2B 0A3",
		"contact": "Bob Tomchick",
		"phone": "(519) 743-4345",
		"website": "http://knells.ca"
	},
	{
		"company": "Kobenhavn Inc.",
		"link": "/member_directory/33050",
		"street": "151 Bloor St. W. Ste. 810",
		"city": "Toronto, ON",
		"postCode": "M5S 1S4",
		"contact": "Tong Hahn",
		"phone": "(416) 923-1714",
		"website": "http://kobenhavn.ca"
	},
	{
		"company": "Kohler Canada",
		"link": "/member_directory/35897",
		"street": "106-8800 Dufferin St.",
		"city": "Vaughan, ON",
		"postCode": "L4K 0C5",
		"contact": "Brett Lawerence",
		"phone": "(905) 762-6598",
		"website": "http://kohler.ca"
	},
	{
		"company": "Kohler Canada Co.",
		"link": "/member_directory/35359",
		"street": "8800 Dufferin St. Suite 106",
		"city": "Vaughan, ON",
		"postCode": "L4K 0C5",
		"contact": "Brett Lawrence",
		"phone": "(519) 697-4428",
		"website": "http://ca.kohler.com"
	},
	{
		"company": "Kohler Canada Co.",
		"link": "/member_directory/33412",
		"street": "8800 Dufferin St. Unit 106",
		"city": "Vaughan, ON",
		"postCode": "L4K 0C5",
		"contact": "Jordan Smith",
		"phone": "(905) 762-6598",
		"website": "http://kohler.com"
	},
	{
		"company": "Kola Home Solutions",
		"link": "/member_directory/34756",
		"street": "1439 Youville Dr. Ste. 17",
		"city": "Orleans, ON",
		"postCode": "K1C 4M8",
		"contact": "Elizabeth Kola",
		"phone": "(613) 370-1991",
		"website": "http://kolahomesolutions.com"
	},
	{
		"company": "Komon Homes Inc.",
		"link": "/member_directory/33644",
		"street": "3156 Princess Blvd.",
		"city": "Burlington, ON",
		"postCode": "L7N 1G4",
		"contact": "Tomas Komon",
		"phone": "(647) 402-5740",
		"website": "http://komonhomes.com"
	},
	{
		"company": "Konsept Homes",
		"link": "/member_directory/35929",
		"street": "131 Dieppe Rd., Unit 2",
		"city": "St. Catharines, ON",
		"postCode": "L2M 2P8",
		"contact": "Shawn Ryan",
		"phone": "(905) 682-8934",
		"website": null
	},
	{
		"company": "Kott Lumber",
		"link": "/member_directory/34564",
		"street": "14 Anderson Blvd.,",
		"city": "Stouffville, ON",
		"postCode": "L4A 7X4",
		"contact": "Ryan Kruyne",
		"phone": "(905) 642-4400",
		"website": "http://kottlumber.ca"
	},
	{
		"company": "Kott Lumber ",
		"link": "/member_directory/35652",
		"street": "P.O. Box 11401, Stn. H 3228 Moodie Drive",
		"city": "Nepean, ON",
		"postCode": "K2H 7V1",
		"contact": "Scott Garrod",
		"phone": "(613) 838-2775",
		"website": "http://kottlumber.com"
	},
	{
		"company": "Kott Lumber",
		"link": "/member_directory/34917",
		"street": "3228 Moodie Dr. P.O. Box 11401",
		"city": "Ottawa, ON",
		"postCode": "K2H 7V1",
		"contact": "Dany Wester",
		"phone": "(613) 838-2775",
		"website": "http://kottlumber.com"
	},
	{
		"company": "Kott Lumber",
		"link": "/member_directory/33413",
		"street": "14 Anderson Blvd.",
		"city": "Stouffville, ON",
		"postCode": "L4A 7X4",
		"contact": "Ryan Kruyne",
		"phone": "(905) 642-4400",
		"website": "http://kottlumber.com"
	},
	{
		"company": "KPMG LLP",
		"link": "/member_directory/35416",
		"street": "21 King St. W. Suite 700",
		"city": "Hamilton, ON",
		"postCode": "L8P 4W7",
		"contact": "Patrick Madden",
		"phone": "(905) 523-2283",
		"website": "http://kpmg.ca"
	},
	{
		"company": "KPMG LLP",
		"link": "/member_directory/33929",
		"street": "333 Bay St. Ste. 4600",
		"city": "Toronto, ON",
		"postCode": "M5H 2S5",
		"contact": "Geoff Gilbert",
		"phone": "(416) 777-8070",
		"website": "http://kpmg.ca"
	},
	{
		"company": "Kraco Carpentry Service Ltd.",
		"link": "/member_directory/34470",
		"street": "P.O. Box 14",
		"city": "Bowmanville, ON",
		"postCode": "L1C 3K8",
		"contact": "Rudy Kraayvanger",
		"phone": "(905) 623-1101",
		"website": "http://kraco.ca"
	},
	{
		"company": "Krcmar Surveyors Ltd.",
		"link": "/member_directory/33930",
		"street": "1137 Centre St. Ste. 101",
		"city": "Thornhill, ON",
		"postCode": "L4J 3M6",
		"contact": "Sasa Krcmar",
		"phone": "(905) 738-0053",
		"website": "http://krcmar.ca"
	},
	{
		"company": "Krista Slack & Aylett",
		"link": "/member_directory/37018",
		"street": "20 Leslie St Suite 125",
		"city": "Toronto, ON",
		"postCode": "M4M 3L4",
		"contact": "Carlton Aylett",
		"phone": "416-752-9232",
		"website": null
	},
	{
		"company": "Kryton Canada Corp.",
		"link": "/member_directory/33414",
		"street": "1645 E. Kent Ave.",
		"city": "Vancouver, British Columbia",
		"postCode": "V5P 2S8",
		"contact": "Danielle Preston",
		"phone": "(604) 324-8280",
		"website": "http://kryton.com"
	},
	{
		"company": "L.A. Inc.",
		"link": "/member_directory/33931",
		"street": "130 Spadina Ave. Ste. 202",
		"city": "Toronto, ON",
		"postCode": "M5V 2L4",
		"contact": "David Klugsberg",
		"phone": "(416) 585-2237",
		"website": "http://la-ads.com"
	},
	{
		"company": "L.H. Lind Holdings Inc.",
		"link": "/member_directory/33051",
		"street": "15105 Yonge St. Ste. 100",
		"city": "Aurora, ON",
		"postCode": "L4G 1M3",
		"contact": "Lenard Lind",
		"phone": "(905) 841-0000",
		"website": "http://lhlindrealty.com"
	},
	{
		"company": "L3 Builders",
		"link": "/member_directory/34684",
		"street": "2153 Prince of Wales Dr.",
		"city": "Ottawa, ON",
		"postCode": "K2E 7A4",
		"contact": "Pete Lyons",
		"phone": "(613) 699-8101",
		"website": "http://l2builders.ca"
	},
	{
		"company": "La Cite, College of Applied Arts & Technology",
		"link": "/member_directory/34837",
		"street": "801 Aviation Parkway Room F3270",
		"city": "Ottawa, ON",
		"postCode": "K1K 4R3",
		"contact": "Steve Goodwin",
		"phone": "(613) 742-2483",
		"website": "http://collegelacite.ca"
	},
	{
		"company": "La Cuisine Kitchen Cabinets Inc.",
		"link": "/member_directory/36683",
		"street": "282 Lasalle Blvd.",
		"city": "Sudbury, ON",
		"postCode": "P3A 1W6",
		"contact": "Natalie Guenette",
		"phone": "(705) 560-4231",
		"website": "http://lacuisinesudbury.com"
	},
	{
		"company": "Labreche Patterson & Associates Inc.",
		"link": "/member_directory/36851",
		"street": "330 Trillium Dr., Unit F",
		"city": "Kitchener, ON",
		"postCode": "N2E 3J2",
		"contact": "Scott Patterson",
		"phone": "(519) 896-5955",
		"website": "http://lpplan.com"
	},
	{
		"company": "Laddson Engineering",
		"link": "/member_directory/35379",
		"street": "400 Queen St. S.",
		"city": "Hamilton, ON",
		"postCode": "L8P 3T9",
		"contact": "Jeff Ladouceur",
		"phone": "(905) 522-2669",
		"website": "http://laddson.com"
	},
	{
		"company": "Lafarge Canada Inc.",
		"link": "/member_directory/34376",
		"street": "53 Henry St.",
		"city": "Brantford, ON",
		"postCode": "N3R 2A1",
		"contact": "Don Wright",
		"phone": "(519) 753-3471",
		"website": null
	},
	{
		"company": "LaFarge Canada Inc.",
		"link": "/member_directory/35145",
		"street": "7051 Wellington Rd. 124, Box 188",
		"city": "Guelph, ON",
		"postCode": "N1H 6J9",
		"contact": "John Iacocca",
		"phone": "(519) 824-3201",
		"website": null
	},
	{
		"company": "Lafarge Canada Inc.",
		"link": "/member_directory/36446",
		"street": "275 Saunders Rd.",
		"city": "Barrie, ON",
		"postCode": "L4N 9A2",
		"contact": "Brian Moosang/Dave Warren",
		"phone": "(705) 734-0071",
		"website": null
	},
	{
		"company": "Lafarge Canada Inc.",
		"link": "/member_directory/34918",
		"street": "1651 Bearbrook Rd.",
		"city": "Ottawa, ON",
		"postCode": "K1G 3K2",
		"contact": "Joel Potvin",
		"phone": "(613) 830-0143",
		"website": "http://lafargenorthamerica.com"
	},
	{
		"company": "Lafarge Canada Inc.",
		"link": "/member_directory/34419",
		"street": "170 Byng Ave.",
		"city": "Chatham, ON",
		"postCode": "N7M 5E2",
		"contact": "Dan VanMoorsel",
		"phone": "(519) 360-1611",
		"website": null
	},
	{
		"company": "Lafarge Canada Inc.",
		"link": "/member_directory/35220",
		"street": "525 Victoria Ave. N.  P.O. Box 65",
		"city": "Hamilton, ON",
		"postCode": "L8L 7V1",
		"contact": "Kevin Roote",
		"phone": "(905) 522-7735",
		"website": null
	},
	{
		"company": "Lafarge Canada Inc.",
		"link": "/member_directory/35996",
		"street": "5268 Montrose Rd.",
		"city": "Niagara Falls, ON",
		"postCode": "L2H 1K5",
		"contact": "Tim Nurton",
		"phone": "(905) 356-0203",
		"website": null
	},
	{
		"company": "Lafarge Canada Inc.",
		"link": "/member_directory/35838",
		"street": "1200 Trafalgar ST",
		"city": "London, ON",
		"postCode": "N5Z 1H5",
		"contact": "Kevin Graham",
		"phone": "(519) 488 0670",
		"website": "http://lafarge.com"
	},
	{
		"company": "Lafarge Concrete",
		"link": "/member_directory/35531",
		"street": "525 Victoria Ave. N.",
		"city": "Hamilton, ON",
		"postCode": "L8L 7V1",
		"contact": "Shawn Tylee",
		"phone": "(905) 522-7735",
		"website": "http://lafargenorthamerica.com"
	},
	{
		"company": "Lagois  Design - Build - Renovate",
		"link": "/member_directory/34757",
		"street": "5921 Prince of Wales Dr.",
		"city": "Ottawa, ON",
		"postCode": "K0A 2T0",
		"contact": "Herb Lagois",
		"phone": "(613) 489-2345",
		"website": "http://lagois.com"
	},
	{
		"company": "Lake Partnership Inc. (The)",
		"link": "/member_directory/34685",
		"street": "126 York St. Ste. 501",
		"city": "Ottawa, ON",
		"postCode": "K1N 5T5",
		"contact": "Darryl Squires",
		"phone": "(613) 842-5623",
		"website": "http://tlpi.ca"
	},
	{
		"company": "Lake Scugog Lumber Inc.",
		"link": "/member_directory/37208",
		"street": "11 Vandeward Drive",
		"city": "Port Perry, ON",
		"postCode": "L9L 1G3",
		"contact": "Ian Griffen",
		"phone": "905 985 7391",
		"website": null
	},
	{
		"company": "Lake Scugog Lumber Inc.",
		"link": "/member_directory/35510",
		"street": "11 Vanedward Dr.",
		"city": "Port Perry, ON",
		"postCode": "L9L 1G3",
		"contact": "Sam McCreight",
		"phone": "(905) 985-7391",
		"website": null
	},
	{
		"company": "Lake Scugog Lumber Inc.",
		"link": "/member_directory/35511",
		"street": "11 Vanedward Dr.",
		"city": "Port Perry, ON",
		"postCode": "L9L 1G3",
		"contact": "Sam McCreight",
		"phone": "(905) 985-7391",
		"website": "http://lakescugoglumber.com"
	},
	{
		"company": "Lakeland Builders Inc.",
		"link": "/member_directory/33645",
		"street": "166 Bowes Rd.",
		"city": "Concord, ON",
		"postCode": "L4K 1J6",
		"contact": "Anthony Murgel",
		"phone": "(905) 761-6660",
		"website": "http://lakelandbuilders.com"
	},
	{
		"company": "Lakeshore Designs",
		"link": "/member_directory/36112",
		"street": "427 George St. N.",
		"city": "Peterborough, ON",
		"postCode": "K9H 3R4",
		"contact": "Angela Jones",
		"phone": "(705) 748-3875",
		"website": "http://lakeshorehd.ca"
	},
	{
		"company": "Lakeview Homes",
		"link": "/member_directory/33052",
		"street": "200 Bridgeland Ave.",
		"city": "Toronto, ON",
		"postCode": "M6A 1Z4",
		"contact": "Anthony Montemarano",
		"phone": "(416) 785-8172",
		"website": "http://lakeviewhomesinc.com"
	},
	{
		"company": "Lanark Design/Build Group (The)",
		"link": "/member_directory/35638",
		"street": "494 Sugarbush Way, R.R. #3",
		"city": "Lanark, ON",
		"postCode": "K0G 1K0",
		"contact": "Mark Tritton",
		"phone": "(613) 850-3707",
		"website": null
	},
	{
		"company": "Lancaster Custom Cabinets & Closets Inc.",
		"link": "/member_directory/37062",
		"street": "225 McNaughton Rd E Unit 4",
		"city": "Maple, ON",
		"postCode": "L6A 4P5",
		"contact": "Dino Colozza",
		"phone": "905 738 1038",
		"website": null
	},
	{
		"company": "Lancaster Homes Inc.",
		"link": "/member_directory/33053",
		"street": "9251 Yonge St. Ste. 306",
		"city": "Richmond Hill, ON",
		"postCode": "L4C 9T3",
		"contact": "Natalia Da Silva",
		"phone": "(905) 731-6099",
		"website": "http://lancasterhomes.ca"
	},
	{
		"company": "Lancier Marketing Inc.",
		"link": "/member_directory/33932",
		"street": "60 Ambleside Ave.",
		"city": "Toronto, ON",
		"postCode": "M8Z 2H7",
		"contact": "Paul Tusek",
		"phone": "(416) 253-7990",
		"website": "http://lancierinc.com"
	},
	{
		"company": "Land Art Design Landscape Architects Inc.",
		"link": "/member_directory/33933",
		"street": "52 Mimico Ave. Studio B",
		"city": "Toronto, ON",
		"postCode": "M8V 1R1",
		"contact": "Jacqueline VanderVelde",
		"phone": "(416) 840-0039",
		"website": "http://ladesign.ca"
	},
	{
		"company": "Landfair Consultants Inc.",
		"link": "/member_directory/33934",
		"street": "1245 Landfair Cres.",
		"city": "Oakville, ON",
		"postCode": "L6H 2N5",
		"contact": "Maurice Stevens",
		"phone": "(416) 346-8668",
		"website": null
	},
	{
		"company": "Landlord Property & Rental Management Inc.",
		"link": "/member_directory/33935",
		"street": "261 Davenport Rd. Ste. 200",
		"city": "Toronto, ON",
		"postCode": "M5R 1K3",
		"contact": "Gene Lewis",
		"phone": "(416) 462-3800",
		"website": "http://landlord.net"
	},
	{
		"company": "Landmart Homes",
		"link": "/member_directory/33054",
		"street": "911 Golf Links Rd. Ste. 307",
		"city": "Ancaster, ON",
		"postCode": "L9K 1H9",
		"contact": "Aaron Roque",
		"phone": "(905) 304-6459",
		"website": "http://landmarthomes.com"
	},
	{
		"company": "Landmart Homes",
		"link": "/member_directory/35313",
		"street": "911 Golf Links Rd. Suite 307",
		"city": "Ancaster, ON",
		"postCode": "L9K 1H9",
		"contact": "Patricia Silva",
		"phone": "(905) 304-6459",
		"website": "http://landmarthomes.com"
	},
	{
		"company": "Landpower Real Estate Ltd.",
		"link": "/member_directory/33936",
		"street": "3621 Highway 7 Ste. 403",
		"city": "Markham, ON",
		"postCode": "L3R 0G6",
		"contact": "Stephen Li",
		"phone": "(905) 305-9669",
		"website": "http://landpower.ca"
	},
	{
		"company": "Landtek Ltd.",
		"link": "/member_directory/35512",
		"street": "205 Nebo Rd. Unit 3",
		"city": "Hamilton, ON",
		"postCode": "L8W 2E1",
		"contact": "Ralph Di Cienzo",
		"phone": "(905) 383-3733",
		"website": "http://landteklimited.com"
	},
	{
		"company": "Lang Contracting",
		"link": "/member_directory/36532",
		"street": "54 Crawford St.",
		"city": "Stratford, ON",
		"postCode": "N5A 5Y4",
		"contact": "Gerry Lang",
		"phone": "(519) 273-0499",
		"website": null
	},
	{
		"company": "Langendoen Custom Building Inc.",
		"link": "/member_directory/34298",
		"street": "164 Raglan St.",
		"city": "Clinton, ON",
		"postCode": "N0M 1L0",
		"contact": "Matt Langendoen",
		"phone": "(519) 482-1319",
		"website": null
	},
	{
		"company": "Langendoen Homes Ltd.",
		"link": "/member_directory/35930",
		"street": "P.O. Box 8",
		"city": "Jordan, ON",
		"postCode": "L0R 1S0",
		"contact": "Andre Langendoen",
		"phone": "(905) 687-0501",
		"website": "http://langendoenhomes.ca"
	},
	{
		"company": "Langford Lumber & Builders' Supplies Ltd. Home Building Centre",
		"link": "/member_directory/35839",
		"street": "6255 William St.",
		"city": "Lucan, ON",
		"postCode": "N0M 2J0",
		"contact": "Ron Kennes",
		"phone": "(519) 227-4416",
		"website": "http://homehardware.ca"
	},
	{
		"company": "Larco Corporation",
		"link": "/member_directory/34686",
		"street": "200-104 Centrepointe Dr.",
		"city": "Ottawa, ON",
		"postCode": "K2G 6B1",
		"contact": "Lynne Egan",
		"phone": "(613) 225-0040",
		"website": "http://larcohomes.com"
	},
	{
		"company": "Larendale Homes Inc.",
		"link": "/member_directory/33055",
		"street": "5255 Yonge St. Ste. 1050",
		"city": "Toronto, ON",
		"postCode": "M2N 6P4",
		"contact": "David Laren",
		"phone": "(416) 222-6716",
		"website": "http://larendale.com"
	},
	{
		"company": "LARKIN + Land Use Planners Inc.",
		"link": "/member_directory/33937",
		"street": "849 Gorham St.",
		"city": "Newmarket, ON",
		"postCode": "L3Y 1L7",
		"contact": "Michael Larkin",
		"phone": "(905) 895-0554",
		"website": "http://larkinassociates.com"
	},
	{
		"company": "Larry Otten Contracting Inc.",
		"link": "/member_directory/36533",
		"street": "103 Fairfield Dr.",
		"city": "Stratford, ON",
		"postCode": "N5A 0A7",
		"contact": "Larry Otten",
		"phone": "(519) 272-1340",
		"website": null
	},
	{
		"company": "Laser Electric Ottawa Ltd.",
		"link": "/member_directory/35663",
		"street": "996 Ennis Rd., RR#1",
		"city": "Balderson, ON",
		"postCode": "K0G 1A0",
		"contact": "Rob Ferrier / Gord Ferrier",
		"phone": "(613) 267-7781",
		"website": null
	},
	{
		"company": "Lash Developments Corp.",
		"link": "/member_directory/33056",
		"street": "10 Kodiak Cres. Ste. 200",
		"city": "Toronto, ON",
		"postCode": "M3J 3G5",
		"contact": "Howard Rudolph",
		"phone": "(416) 630-9393",
		"website": "http://lashgroup.ca"
	},
	{
		"company": "Laurel Oak Publishing",
		"link": "/member_directory/33938",
		"street": "1062 Cooke Blvd.",
		"city": "Burlington, ON",
		"postCode": "L7T 4A8",
		"contact": "Sheryl Humphreys",
		"phone": "(905) 333-9432",
		"website": "http://laureloak.ca"
	},
	{
		"company": "Laurel View Homes",
		"link": "/member_directory/36763",
		"street": "4001 Chesswood Dr.",
		"city": "North York, ON",
		"postCode": "M3J 2R8",
		"contact": "David Mandel",
		"phone": "(416) 635-6663",
		"website": "http://laurelviewhomes.com"
	},
	{
		"company": "Laurentian Bank - Real Estate Finance",
		"link": "/member_directory/36794",
		"street": "100 - 10 Duke St. W.",
		"city": "Kitchener, ON",
		"postCode": "N2H 3W4",
		"contact": "Rob Harvey",
		"phone": "(519) 579-4440",
		"website": "http://laurentianbank.ca"
	},
	{
		"company": "Laurentian Bank of Canada",
		"link": "/member_directory/33267",
		"street": "130 Adelaide St. W. Ste. 300",
		"city": "Toronto, ON",
		"postCode": "M5H 3P5",
		"contact": "Tony DaSilva",
		"phone": "(416) 362-7211",
		"website": "http://laurentianbank.ca"
	},
	{
		"company": "Laurentide Cabinet Corporation",
		"link": "/member_directory/35574",
		"street": "111 Brockley Dr.",
		"city": "Hamilton, ON",
		"postCode": "L8E 3C4",
		"contact": "Kindy Sihra",
		"phone": "(905) 573-2311",
		"website": "http://laurentide.com"
	},
	{
		"company": "Laurier Homes Ltd.",
		"link": "/member_directory/33057",
		"street": "150 Connie Cres. Unit 4",
		"city": "Concord, ON",
		"postCode": "L4K 1L9",
		"contact": "Steven Silverberg",
		"phone": "(905) 738-2009",
		"website": "http://laurierhomes.com"
	},
	{
		"company": "Laurysen Kitchens Ltd.",
		"link": "/member_directory/35010",
		"street": "2415 Carp Rd. P.O. Box 1235",
		"city": "Stittsville, ON",
		"postCode": "K2S 1B3",
		"contact": "Giuseppe Castrucci",
		"phone": "(613) 836-5353",
		"website": "http://laurysenkitchens.com"
	},
	{
		"company": "Lauzon Distinctive Hardwood Flooring Inc",
		"link": "/member_directory/34919",
		"street": "2101 Cote des Cascades",
		"city": "Papineauville, Quebec",
		"postCode": "J0V 1R0",
		"contact": "Yves Myrand",
		"phone": "(514) 509-5000",
		"website": "http://lauzonflooring.com"
	},
	{
		"company": "Lavigne Construction",
		"link": "/member_directory/36644",
		"street": "822 Afton Ave.",
		"city": "Sudbury, ON",
		"postCode": "P3A 3R9",
		"contact": "Ian Lavigne",
		"phone": "(705) 561-7757",
		"website": "http://lavigneconstruction.ca"
	},
	{
		"company": "Lavis Contracting Co. Ltd.",
		"link": "/member_directory/34315",
		"street": "37462A Huron Rd.",
		"city": "Clinton, ON",
		"postCode": "N0M 1L0",
		"contact": "Mark Steffler",
		"phone": "(519) 482-3694",
		"website": null
	},
	{
		"company": "Lawrence Construction Co. Ltd.",
		"link": "/member_directory/33058",
		"street": "1135 Leslie St.",
		"city": "Don Mills, ON",
		"postCode": "M3C 2K7",
		"contact": "Bert Grant",
		"phone": "(416) 444-6633",
		"website": "http://crestview.ca"
	},
	{
		"company": "LEA Consulting Ltd.",
		"link": "/member_directory/33939",
		"street": "625 Cochrane Dr. Ste. 900",
		"city": "Markham, ON",
		"postCode": "L3R 9R9",
		"contact": "Terry Wallace",
		"phone": "(905) 470-0015",
		"website": "http://lea.ca"
	},
	{
		"company": "Leahy Excavations Inc.",
		"link": "/member_directory/36073",
		"street": "2187 Keene Rd.",
		"city": "Otonabee, ON",
		"postCode": "K9J 6X7",
		"contact": "Paul Leahy",
		"phone": "(705) 742-4765",
		"website": "http://leahyexcavationsinc.ca"
	},
	{
		"company": "Lebovic Enterprises",
		"link": "/member_directory/33059",
		"street": "P.O. Box 1240",
		"city": "Stouffville, ON",
		"postCode": "L4A 8A2",
		"contact": "Joseph Lebovic",
		"phone": "(905) 640-7361",
		"website": "http://lebovichomes.com"
	},
	{
		"company": "Lee Development Corporation",
		"link": "/member_directory/33060",
		"street": "7 Lee Centre Dr.",
		"city": "Scarborough, ON",
		"postCode": "M1H 3J8",
		"contact": "Patrick Quigley",
		"phone": "(416) 289-1338",
		"website": null
	},
	{
		"company": "Leeds Cabinets Ltd.",
		"link": "/member_directory/34409",
		"street": "7 McGregor Place, P.O. Box 444",
		"city": "Chatham, ON",
		"postCode": "N7M 5K5",
		"contact": "Fred Deryck",
		"phone": "(519) 352-1788",
		"website": null
	},
	{
		"company": "LEEZA Distribution Inc. (TO Division)",
		"link": "/member_directory/33415",
		"street": "39 Haist Ave. Unit 2",
		"city": "Vaughan, ON",
		"postCode": "L4L 5Z5",
		"contact": "Paul Wesley",
		"phone": "(905) 856-7678",
		"website": "http://leezasurfaces.com"
	},
	{
		"company": "Legacy Fine Homes",
		"link": "/member_directory/35611",
		"street": "Unit 6 670 Fortune Crescent",
		"city": "Kingston, ON",
		"postCode": "K7P 2T3",
		"contact": "Ruslan Yakoviychuk",
		"phone": "(613) 634-9994",
		"website": "http://legacyfinehomes.ca"
	},
	{
		"company": "Legacy Homes",
		"link": "/member_directory/34687",
		"street": "217 Ancaster Ave.",
		"city": "Ottawa, ON",
		"postCode": "K2B 5B2",
		"contact": "Joe Tratch",
		"phone": "(613) 726-0606",
		"website": "http://legacyhomesottawa.com"
	},
	{
		"company": "Legend Creek Homes",
		"link": "/member_directory/33061",
		"street": "482 S. Service Rd. E. Unit 105",
		"city": "Oakville, ON",
		"postCode": "L6J 2X6",
		"contact": "Todd Cullen",
		"phone": "(905) 849-1234",
		"website": "http://legendcreekhomes.com"
	},
	{
		"company": "Leighton Lands Ltd.",
		"link": "/member_directory/35612",
		"street": "817 Blackburn Mews",
		"city": "Kingston, ON",
		"postCode": "K7P 2N6",
		"contact": "Eric Davies",
		"phone": "(613) 542-7522",
		"website": "http://leightonlands.com"
	},
	{
		"company": "Lemay Homes",
		"link": "/member_directory/34688",
		"street": "8-5330 Canotek Rd.",
		"city": "Ottawa, ON",
		"postCode": "K1J 9C2",
		"contact": "Jean Lemay",
		"phone": "(613) 746-6430",
		"website": "http://maisonslemayhomes.ca"
	},
	{
		"company": "Lemine Investment Group",
		"link": "/member_directory/33062",
		"street": "5000 Yonge St. Ste. 1806",
		"city": "North York, ON",
		"postCode": "M2N 7E9",
		"contact": "Jenny Thyagarajah",
		"phone": "(416) 224-8898",
		"website": "http://leminegroup.com"
	},
	{
		"company": "Len Kuipers Homes",
		"link": "/member_directory/36181",
		"street": "P.O. Box 235",
		"city": "Brighton, ON",
		"postCode": "K0K 1H0",
		"contact": "Len Kuipers",
		"phone": "(613) 475-5999",
		"website": null
	},
	{
		"company": "Lennox Industries (Canada) Ltd.",
		"link": "/member_directory/34565",
		"street": "10 Woodslea Rd.",
		"city": "Brampton, ON",
		"postCode": "L6T 5P2",
		"contact": "Bob Smith",
		"phone": "(416) 725-0106",
		"website": "http://davelennox.com"
	},
	{
		"company": "Lennox Industries (Canada) Ltd.",
		"link": "/member_directory/36139",
		"street": "3425 Regional Rd. 57",
		"city": "Bowmanville, ON",
		"postCode": "L1C 3K2",
		"contact": "Paul Davidson/ Diederick Bastmeyer",
		"phone": "613 849 6609",
		"website": "http://lennox.com"
	},
	{
		"company": "Lennox Industries (Canada) Ltd.",
		"link": "/member_directory/34920",
		"street": "1175 Parisien St.",
		"city": "Gloucester, ON",
		"postCode": "K1B 4W4",
		"contact": "Bob Smith",
		"phone": "416 725 0106",
		"website": "http://lennox.com"
	},
	{
		"company": "Lennox Industries (Canada) Ltd.",
		"link": "/member_directory/33416",
		"street": "10 Woodslea Rd.",
		"city": "Brampton, ON",
		"postCode": "L6T 5P2",
		"contact": "Bob Smith",
		"phone": "(905) 799-2100",
		"website": "http://davelennox.com"
	},
	{
		"company": "Lennox Industries (Canada) Ltd.",
		"link": "/member_directory/36257",
		"street": "1177 Parisien St.",
		"city": "Glouchester, ON",
		"postCode": "K1B 4W4",
		"contact": "Paul Davidson",
		"phone": "(613) 745-1527",
		"website": null
	},
	{
		"company": "Lennox Industries (Canada) Ltd.",
		"link": "/member_directory/35513",
		"street": "10 Woodslea Rd.",
		"city": "Brampton, ON",
		"postCode": "L6T 5P2",
		"contact": "Bob Smith",
		"phone": "(416) 725-0106",
		"website": "http://davelennox.com"
	},
	{
		"company": "Leo Al's Contracting Inc.",
		"link": "/member_directory/36370",
		"street": "224 Kincardine Hwy. P.O. Box 670",
		"city": "Walkerton, ON",
		"postCode": "N0G 2V0",
		"contact": "Jim Al",
		"phone": "(519) 881-2014",
		"website": null
	},
	{
		"company": "Leon James Home Renovations & Repair",
		"link": "/member_directory/36290",
		"street": "232 College St. W.",
		"city": "Belleville, ON",
		"postCode": "K8P 2H3",
		"contact": "Leon James",
		"phone": "(613) 967-1915",
		"website": null
	},
	{
		"company": "Leonardi Construction Ltd.",
		"link": "/member_directory/33646",
		"street": "1113 Hawthorne Crt.",
		"city": "Mississauga, ON",
		"postCode": "L5C 4H6",
		"contact": "David Leonardi",
		"phone": "(905) 277-9085",
		"website": "http://leonardiconstruction.com"
	},
	{
		"company": "Lepine Corporation",
		"link": "/member_directory/34689",
		"street": "320 March Rd., Suite 201",
		"city": "Kanata, ON",
		"postCode": "K2K 2E3",
		"contact": "Francis Lepine",
		"phone": "(613) 591-9090",
		"website": "http://lepinecorp.com"
	},
	{
		"company": "Leprevo Homes",
		"link": "/member_directory/33647",
		"street": "6 BeauCrt. Rd.",
		"city": "Etobicoke, ON",
		"postCode": "M8Y 3G2",
		"contact": "David Leprevost",
		"phone": "(647) 893-3283",
		"website": "http://leprevo.ca"
	},
	{
		"company": "Leslieville Home Improvements Div. of Nagim Construction",
		"link": "/member_directory/33648",
		"street": "77 Reidmount Ave.",
		"city": "Toronto, ON",
		"postCode": "M1S 1B6",
		"contact": "Adel Nagm",
		"phone": "(416) 465-9410",
		"website": null
	},
	{
		"company": "Lesperance Renovations",
		"link": "/member_directory/36963",
		"street": "5128 Malden Rd.",
		"city": "LaSalle, ON",
		"postCode": "N9E 3T9",
		"contact": "Steve Lesperance",
		"phone": "(519) 551-3172",
		"website": null
	},
	{
		"company": "Let It Rain Ltd.",
		"link": "/member_directory/34220",
		"street": "408 Gibraltar Dr.",
		"city": "Mississauga, ON",
		"postCode": "L5T 2P5",
		"contact": "Bruno Levesque",
		"phone": "(905) 795-0212",
		"website": "http://letitrain.ca"
	},
	{
		"company": "Levy's Reno & Design",
		"link": "/member_directory/36494",
		"street": "266 Ross St.",
		"city": "St. Thomas, ON",
		"postCode": "N5P 3V6",
		"contact": "Levy",
		"phone": "(519) 637-8166",
		"website": null
	},
	{
		"company": "Lewitt Construction Inc.",
		"link": "/member_directory/33649",
		"street": "114 Abbeywood Trail",
		"city": "Toronto, ON",
		"postCode": "M3B 3B5",
		"contact": "Edward O&apos;Flanagan",
		"phone": "(416) 383-1221",
		"website": "http://lewittconstruction.com"
	},
	{
		"company": "LH Telles Contractors Inc.",
		"link": "/member_directory/34221",
		"street": "1619 Woodbine Heights Blvd.",
		"city": "Toronto, ON",
		"postCode": "M4B 3A3",
		"contact": "Luiz Telles",
		"phone": "(647) 205-5887",
		"website": "http://tellescontractors.com"
	},
	{
		"company": "Liberty Development Corporation",
		"link": "/member_directory/33063",
		"street": "1 Steelcase Rd. W. Unit 8",
		"city": "Markham, ON",
		"postCode": "L3R 0T3",
		"contact": "Fred Darvish",
		"phone": "(905) 731-8687",
		"website": "http://libertydevelopment.ca"
	},
	{
		"company": "Libro Credit Union",
		"link": "/member_directory/36488",
		"street": "1073 Talbot St.",
		"city": "St. Thomas, ON",
		"postCode": "N5P 1G4",
		"contact": "Jessie Brown",
		"phone": "(519) 631-6195",
		"website": null
	},
	{
		"company": "Libro Credit Union",
		"link": "/member_directory/35732",
		"street": "1867 Dundas St. E.",
		"city": "London, ON",
		"postCode": "N5W 3G1",
		"contact": "Sam Bayley",
		"phone": "(519) 451-2200",
		"website": "http://libro.ca"
	},
	{
		"company": "Libro Credit Union",
		"link": "/member_directory/36543",
		"street": "391 Huron St.",
		"city": "Stratford, ON",
		"postCode": "N5A 5T6",
		"contact": "Cathy Thompson",
		"phone": "(519) 271-4883",
		"website": "http://libro.ca"
	},
	{
		"company": "Libro Credit Union ",
		"link": "/member_directory/34302",
		"street": "48 Ontario St., Box 310",
		"city": "Clinton, ON",
		"postCode": "N0M 1L0",
		"contact": "Sandy Dearling",
		"phone": "(519) 482-3409",
		"website": null
	},
	{
		"company": "Lifestyle Homes Inc.",
		"link": "/member_directory/36634",
		"street": "1191 O&apos;Neil Dr.",
		"city": "Garson, ON",
		"postCode": "P3L 1S5",
		"contact": "Joanne Caouette",
		"phone": "(705) 693-9407",
		"website": "http://lifestylehomes.ca"
	},
	{
		"company": "Lifestyles By Barons Inc.",
		"link": "/member_directory/33650",
		"street": "60 N. Ridge Cres.",
		"city": "Halton Hills, ON",
		"postCode": "L7G 6E6",
		"contact": "Rick Inacio",
		"phone": "(905) 872-5777",
		"website": "http://lbbdesigns.ca"
	},
	{
		"company": "Lifetime Developments / BLVD Developments",
		"link": "/member_directory/33064",
		"street": "49 Jackes Ave. Ste. 200",
		"city": "Toronto, ON",
		"postCode": "M4T 1E2",
		"contact": "Brian Brown",
		"phone": "(416) 987-3344",
		"website": "http://lifetimedevelopments.com"
	},
	{
		"company": "LightCACHE",
		"link": "/member_directory/37076",
		"street": "132 Stalmaster Road",
		"city": "Markham, ON",
		"postCode": "L6E 0A2",
		"contact": "Cynthina Tusa",
		"phone": "416-881-1206",
		"website": null
	},
	{
		"company": "Lighthouse Lettershop & Printing Solutions Inc.",
		"link": "/member_directory/33417",
		"street": "53 Armstrong Ave. Unit 4",
		"city": "Georgetown, ON",
		"postCode": "L7G 4S1",
		"contact": "Gary Crittenden",
		"phone": "(289) 314-9699",
		"website": "http://lighthouselettershop.com"
	},
	{
		"company": "Lincoln Projects Inc.",
		"link": "/member_directory/33065",
		"street": "29 Allenby St.",
		"city": "Woodbridge, ON",
		"postCode": "L4H 3P4",
		"contact": "Robert Lisi",
		"phone": "(647) 930-1705",
		"website": "http://lincolnprojects.co"
	},
	{
		"company": "Linda Chapman Architect",
		"link": "/member_directory/34838",
		"street": "233 Argyle St.",
		"city": "Ottawa, ON",
		"postCode": "K2P 1B8",
		"contact": "Linda Chapman",
		"phone": "(613) 231-4690",
		"website": "http://smartarchitecture.com"
	},
	{
		"company": "Lindsay Home Building Centre",
		"link": "/member_directory/36140",
		"street": "220 Lindsay St. S.",
		"city": "Lindsay, ON",
		"postCode": "K9V 2N3",
		"contact": "Frank Geerlinks",
		"phone": "(705) 324-3516",
		"website": null
	},
	{
		"company": "Lindvest Properties Ltd.",
		"link": "/member_directory/33066",
		"street": "3625 Dufferin St. Ste. 200",
		"city": "Toronto, ON",
		"postCode": "M3K 1Z2",
		"contact": "Peter DeBiasio",
		"phone": "(416) 635-7575",
		"website": "http://lindvest.com"
	},
	{
		"company": "Linebox Studio Inc",
		"link": "/member_directory/34839",
		"street": "61A York St.",
		"city": "Ottawa, ON",
		"postCode": "K1N 5T2",
		"contact": "Melissa Reeves",
		"phone": "(613) 240-3662",
		"website": "http://linebox.ca"
	},
	{
		"company": "Lineworks Design Group",
		"link": "/member_directory/35778",
		"street": "29 Harvest Crt",
		"city": "St. Thomas, ON",
		"postCode": "N5R 0B8",
		"contact": "Robert Walpole",
		"phone": "(519) 631-4351",
		"website": "http://lineworksdesigngroup.com"
	},
	{
		"company": "Link-Line Construction",
		"link": "/member_directory/35575",
		"street": "1625 Shawson Dr.",
		"city": "Mississauga, ON",
		"postCode": "L4W 1T7",
		"contact": "Glen Hansen",
		"phone": "(905) 696-6929",
		"website": "http://linkline.ca"
	},
	{
		"company": "Linwood Custom Homes Ltd.",
		"link": "/member_directory/36074",
		"street": "2090 Nathaway Dr.",
		"city": "Young&apos;s Point, ON",
		"postCode": "K0L 3G0",
		"contact": "Craig McFarlane",
		"phone": "(705) 652-7000",
		"website": null
	},
	{
		"company": "Lipton LLP",
		"link": "/member_directory/33940",
		"street": "245 Fairview Mall Dr. Ste. 600",
		"city": "Willowdale, ON",
		"postCode": "M2J 4T1",
		"contact": "Fred Arshoff",
		"phone": "(416) 496-2900",
		"website": "http://liptonca.com"
	},
	{
		"company": "Lisa Aharon C/O Upperside Real Estate",
		"link": "/member_directory/33941",
		"street": "3F - 64 Jardin Dr.",
		"city": "Vaughan, ON",
		"postCode": "L4K 3P3",
		"contact": "Lisa Aharon",
		"phone": "(905) 597-9333",
		"website": null
	},
	{
		"company": "Livante Developments",
		"link": "/member_directory/33067",
		"street": "1 Steelcase Rd. W. Ste. 4",
		"city": "Markham, ON",
		"postCode": "L3R 0T3",
		"contact": "Morris Durante",
		"phone": "(905) 475-8888",
		"website": null
	},
	{
		"company": "Live Patrol Inc",
		"link": "/member_directory/37128",
		"street": "7500 Highway 27 Unit 11",
		"city": "Vaughan, ON",
		"postCode": "L4H 0J2",
		"contact": "Daniel Carloni",
		"phone": "416-477-3350",
		"website": null
	},
	{
		"company": "Living Lighting",
		"link": "/member_directory/36906",
		"street": "500 Fairway Rd. S.",
		"city": "Kitchener, ON",
		"postCode": "N2C 1X3",
		"contact": "Fraser Moull",
		"phone": "(519) 748-0123",
		"website": "http://livinglightingkitchener.com"
	},
	{
		"company": "Living Well Home Medical Equipment",
		"link": "/member_directory/36141",
		"street": "329 McDonnel St.",
		"city": "Peterborough, ON",
		"postCode": "K9H 2W9",
		"contact": "Allison Seiderer",
		"phone": "(705) 740-2650",
		"website": null
	},
	{
		"company": "LJ Post Construction Ltd.",
		"link": "/member_directory/33651",
		"street": "19 Dunsfold Dr.",
		"city": "Scarborough, ON",
		"postCode": "M1B 1T5",
		"contact": "Leo Post",
		"phone": "(416) 298-0517",
		"website": "http://ljpconst.com"
	},
	{
		"company": "Lloyd's Heating & Cooling Ltd",
		"link": "/member_directory/36291",
		"street": "2188 County Rd. #1",
		"city": "Bloomfield, ON",
		"postCode": "K0K 1G0",
		"contact": "Lyle Lloyd",
		"phone": "(613) 393-1437",
		"website": null
	},
	{
		"company": "Local SEO Search Inc.",
		"link": "/member_directory/37138",
		"street": "2400 Midland Ave Unit 112-119",
		"city": "Toronto, ON",
		"postCode": "M1S 1P8",
		"contact": "John Voung",
		"phone": "416 888 8756",
		"website": null
	},
	{
		"company": "Lockwood Brothers Construction Inc.",
		"link": "/member_directory/34690",
		"street": "2010 Totem Ranch Rd. E.",
		"city": "Oxford Station, ON",
		"postCode": "K0G 1T0",
		"contact": "Corey Lockwood",
		"phone": "(613) 258-4225",
		"website": "http://lbchomes.com"
	},
	{
		"company": "Logs End Flooring",
		"link": "/member_directory/35011",
		"street": "1520 Triole St.",
		"city": "Ottawa, ON",
		"postCode": "K1B 3S9",
		"contact": "Rob Black",
		"phone": "(613) 738-7851",
		"website": "http://logsend.com"
	},
	{
		"company": "Lokert General Plumbing",
		"link": "/member_directory/33652",
		"street": "3411 Fairview St.",
		"city": "Burlington, ON",
		"postCode": "L7N 2R4",
		"contact": "Alina Butromeieva",
		"phone": "(905) 634-6567",
		"website": null
	},
	{
		"company": "London Eco-Roof Manufacturing Inc.",
		"link": "/member_directory/35737",
		"street": "335 Neptune Cres.",
		"city": "London, ON",
		"postCode": "N6M 1A9",
		"contact": "Joe Malec",
		"phone": "(519) 451-7663",
		"website": "http://londonecoroof.com"
	},
	{
		"company": "London Free Press (The)",
		"link": "/member_directory/35840",
		"street": "P.O. Box 2280",
		"city": "London, ON",
		"postCode": "N6A 4G1",
		"contact": "Cathy Newnham",
		"phone": "(519) 667-4654",
		"website": "http://lfpress.com"
	},
	{
		"company": "London Glass & Mirror Company Ltd.",
		"link": "/member_directory/35841",
		"street": "679 York St.",
		"city": "London, ON",
		"postCode": "N5W 2S6",
		"contact": "Michelle Vacheresse",
		"phone": "(519) 432-8323",
		"website": null
	},
	{
		"company": "London Hydro Inc.",
		"link": "/member_directory/35779",
		"street": "111 Horton St.",
		"city": "London, ON",
		"postCode": "N6A 4H6",
		"contact": "Lisa Charteris",
		"phone": "(519) 661-5800",
		"website": "http://londonhydro.com"
	},
	{
		"company": "London Trim & Door Co. Ltd.",
		"link": "/member_directory/35842",
		"street": "1875 Wharncliffe Rd.. S.",
		"city": "London, ON",
		"postCode": "N6L 1K2",
		"contact": "Darryl Stead",
		"phone": "(519) 652-2280",
		"website": "http://londontrim.com"
	},
	{
		"company": "Longo Development Corporation",
		"link": "/member_directory/33068",
		"street": "2751 Bloor St. W. First Flr.",
		"city": "Toronto, ON",
		"postCode": "M8X 1A6",
		"contact": "Dino Longo",
		"phone": "(416) 249-8181",
		"website": "http://longocorp.com"
	},
	{
		"company": "Longwood Building Corporation",
		"link": "/member_directory/34691",
		"street": "5-1010 Polytek St.",
		"city": "Gloucester, ON",
		"postCode": "K1J 9H8",
		"contact": "Darice Greene",
		"phone": "(613) 746-1300",
		"website": "http://longwoodbuilders.com"
	},
	{
		"company": "Loopstra Nixon LLP",
		"link": "/member_directory/33942",
		"street": "135 Queen&apos;s Plate Dr. Ste. 600",
		"city": "Toronto, ON",
		"postCode": "M9W 6V7",
		"contact": "Quinto Annibale",
		"phone": "(416) 746-4710",
		"website": "http://loopstranixon.com"
	},
	{
		"company": "Loosen Homes (1988) Ltd.",
		"link": "/member_directory/37051",
		"street": "430 McNeilly Rd Suite 203",
		"city": "Stoney Creek, ON",
		"postCode": "L8E 3E3",
		"contact": "William Liske",
		"phone": "905 561 1700",
		"website": "http://losanihomes.com"
	},
	{
		"company": "Lormel Homes Ltd.",
		"link": "/member_directory/33069",
		"street": "331 Cityview Blvd. Ste. 300",
		"city": "Vaughan, ON",
		"postCode": "L4H 3M3",
		"contact": "Elvio De Meneghi",
		"phone": "(905) 832-2023",
		"website": "http://lormelhomes.com"
	},
	{
		"company": "Lorne's Electric",
		"link": "/member_directory/35012",
		"street": "77 Madawaska St.",
		"city": "Arnprior, ON",
		"postCode": "K7S 1S1",
		"contact": "Eric Glahs",
		"phone": "(613) 623-4569",
		"website": "http://lorneselectric.ca"
	},
	{
		"company": "Lorne's Slinger Service Ltd.",
		"link": "/member_directory/36161",
		"street": "538 Maniece Ave.",
		"city": "Peterborough, ON",
		"postCode": "K9L 0C2",
		"contact": "Lorne Turk",
		"phone": "(705) 742-8272",
		"website": null
	},
	{
		"company": "Losani Homes",
		"link": "/member_directory/35931",
		"street": "430 McNeilly Rd",
		"city": "Stoney Creek, ON",
		"postCode": "L8E 5E3",
		"contact": "Fred Losani",
		"phone": "(905) 561-1700",
		"website": null
	},
	{
		"company": "Losani Homes",
		"link": "/member_directory/36764",
		"street": "430 McNeilly Rd.",
		"city": "Stoney Creek, ON",
		"postCode": "L8E 5E3",
		"contact": "Davide Didonato",
		"phone": "(905) 561-1700",
		"website": "http://losanihomes.com"
	},
	{
		"company": "Losani Homes ",
		"link": "/member_directory/35314",
		"street": "430 McNeilly Rd.",
		"city": "Stoney Creek, ON",
		"postCode": "L8E 5E3",
		"contact": "Fred Losani",
		"phone": "(905) 561-1700",
		"website": "http://losanihomes.com"
	},
	{
		"company": "Lou's Home Improvement",
		"link": "/member_directory/33653",
		"street": "13 Crestland Ave.",
		"city": "Toronto, ON",
		"postCode": "M4C 3K9",
		"contact": "Lou Panacci",
		"phone": "(416) 931-2664",
		"website": "http://loushomeimprovements.com"
	},
	{
		"company": "Louisiana Pacific Building Products",
		"link": "/member_directory/37102",
		"street": "326 Ballinvale Circle",
		"city": "Manotick, ON",
		"postCode": "K4M 0C4",
		"contact": "Shawn Patterson",
		"phone": "613-914-7832",
		"website": null
	},
	{
		"company": "Lowe's Home Improvement",
		"link": "/member_directory/36907",
		"street": "575 Conestoga Blvd.",
		"city": "Cambridge, ON",
		"postCode": "N1R 7P5",
		"contact": "Chris Hawkins",
		"phone": "(519) 620-5800",
		"website": "http://lowes.ca"
	},
	{
		"company": "Lowe's Home Improvement",
		"link": "/member_directory/35514",
		"street": "1945 Barton St. E.",
		"city": "Hamilton, ON",
		"postCode": "L8H 2Y7",
		"contact": "Susan Dunkey",
		"phone": "(905) 312-5670",
		"website": null
	},
	{
		"company": "Lowe's Home Improvement",
		"link": "/member_directory/35515",
		"street": "1945 Barton St. E.",
		"city": "Hamilton, ON",
		"postCode": "L8H 2Y7",
		"contact": "Susan Dunkey",
		"phone": "(905) 312-5670",
		"website": "http://lowes.ca"
	},
	{
		"company": "Lowes Commerical Services",
		"link": "/member_directory/33418",
		"street": "5160 Yonge St. Ste. 200",
		"city": "North York, ON",
		"postCode": "M2N 6L9",
		"contact": "Ephram Spiegelman",
		"phone": "(416) 730-7300",
		"website": "http://lowes.com"
	},
	{
		"company": "Lowes Home Improvement",
		"link": "/member_directory/36258",
		"street": "219 Millenium Parkway",
		"city": "Belleville, ON",
		"postCode": "K8N 4Z5",
		"contact": "Martin Parr",
		"phone": "(613) 771-2945",
		"website": null
	},
	{
		"company": "Loyalist College",
		"link": "/member_directory/36209",
		"street": "376 Wallbridge Loyalist Rd.",
		"city": "Belleville, ON",
		"postCode": "K8N 5B9",
		"contact": "Tom Falcao",
		"phone": "(613) 969-1913",
		"website": null
	},
	{
		"company": "LP Building Products",
		"link": "/member_directory/33419",
		"street": "5979 Baldwin St. P.O. Box 30061",
		"city": "Whitby, ON",
		"postCode": "L1M 0B5",
		"contact": "Steve Bind",
		"phone": "(519) 780-2842",
		"website": "http://lpcorp.com"
	},
	{
		"company": "LSC Sanitation Services",
		"link": "/member_directory/34921",
		"street": "345 N.Y. Central Ave. P.O. Box 534",
		"city": "Embrun, ON",
		"postCode": "K0A 1W0",
		"contact": "Ziya Erkan",
		"phone": "(613) 232-8892",
		"website": "http://lscsanitation.ca"
	},
	{
		"company": "LSJ Homes Ltd.",
		"link": "/member_directory/33070",
		"street": "95 Barber Greene Rd. Ste. 305",
		"city": "Don Mills, ON",
		"postCode": "M3C 2A2",
		"contact": "Jordan Sarick",
		"phone": "(416) 445-9920",
		"website": null
	},
	{
		"company": "LTR Industries",
		"link": "/member_directory/35013",
		"street": "2610 Rideau Rd.",
		"city": "Ottawa, ON",
		"postCode": "K1X 1A1",
		"contact": "Brian Vlaming",
		"phone": "(613) 822-3376",
		"website": "http://ltrindustries.com"
	},
	{
		"company": "Luc Crawford Design Inc",
		"link": "/member_directory/34840",
		"street": "101 - 22 Antares Dr.",
		"city": "Ottawa, ON",
		"postCode": "K2E 7Z6",
		"contact": "Luc Crawford",
		"phone": "(613) 882-2578",
		"website": "http://luccrawford.com"
	},
	{
		"company": "Lucchetta Homes",
		"link": "/member_directory/35932",
		"street": "402 Rice Rd.",
		"city": "Welland, ON",
		"postCode": "L3C 2V8",
		"contact": "Rob Lucchetta",
		"phone": "(905) 732-2658",
		"website": "http://lucchettahomes.com"
	},
	{
		"company": "Lucyk Renovations Ltd.",
		"link": "/member_directory/34506",
		"street": "P.O. Box 111",
		"city": "Port Perry, ON",
		"postCode": "L9L 1A2",
		"contact": "John Lucyk",
		"phone": "(905) 434-0517",
		"website": "http://lucykrenovations.ca"
	},
	{
		"company": "Luvian Homes",
		"link": "/member_directory/33071",
		"street": "1001 St. John&apos;s SideRd.",
		"city": "Aurora, ON",
		"postCode": "L4G 7Y3",
		"contact": "Lee Carnovale",
		"phone": "(905) 727-9090",
		"website": "http://luvianhomes.com"
	},
	{
		"company": "Luxart Homes Inc.",
		"link": "/member_directory/34692",
		"street": "P.O. Box 131",
		"city": "Carleton Place, ON",
		"postCode": "K7C 3P3",
		"contact": "Amanda Wagorn",
		"phone": "(613) 253-7571",
		"website": "http://luxarthomes.com"
	},
	{
		"company": "Luxury Renovations",
		"link": "/member_directory/34758",
		"street": "4200-10 Riverside Dr.",
		"city": "Ottawa, ON",
		"postCode": "K1V 1C4",
		"contact": "Michael J. Martin",
		"phone": "(613) 738-2110",
		"website": "http://mjmluxuryrenovations.ca"
	},
	{
		"company": "LVM",
		"link": "/member_directory/34336",
		"street": "440 Hardy Rd., Suite 3",
		"city": "Brantford, ON",
		"postCode": "N3T 5L8",
		"contact": "Thom Staples",
		"phone": "(519) 720-0978",
		"website": null
	},
	{
		"company": "LVM, a division of EnGlobe Corp",
		"link": "/member_directory/36561",
		"street": "25 Market Place",
		"city": "Stratford, ON",
		"postCode": "N5A 1A4",
		"contact": "David Lee",
		"phone": "(519) 273-0101",
		"website": null
	},
	{
		"company": "M & T Printing Group",
		"link": "/member_directory/35843",
		"street": "1074 Dearness Dr.",
		"city": "London, ON",
		"postCode": "N6E 1N9",
		"contact": "Matt Boos",
		"phone": "(519) 685-4144",
		"website": "http://mtprint.com"
	},
	{
		"company": "M & U Masonry Company Ltd.",
		"link": "/member_directory/35014",
		"street": "1019 Maitland Ave.",
		"city": "Ottawa, ON",
		"postCode": "K2C 2B7",
		"contact": "Mario Micucci",
		"phone": "(613) 224-0100",
		"website": null
	},
	{
		"company": "M Squared Contracting Inc.",
		"link": "/member_directory/33654",
		"street": "47 Scarlett Rd.",
		"city": "Toronto, ON",
		"postCode": "M6N 4J8",
		"contact": "Mike Lawrance",
		"phone": "(416) 231-5585",
		"website": "http://m2contracting.com"
	},
	{
		"company": "M. Champagne Siding Ltd.",
		"link": "/member_directory/36645",
		"street": "160 Douglas St. W",
		"city": "Sudbury, ON",
		"postCode": "P3E 1G1",
		"contact": "Michel Champagne",
		"phone": "(705) 674-5747",
		"website": null
	},
	{
		"company": "M. F. Property Management Ltd.",
		"link": "/member_directory/35121",
		"street": "373 Woolwich St.",
		"city": "Guelph, ON",
		"postCode": "N1H 3W4",
		"contact": "Maria Finoro",
		"phone": "(519) 824-4208",
		"website": null
	},
	{
		"company": "M.G.L. Drafting & Consulting",
		"link": "/member_directory/36656",
		"street": "1206 Hawthorne Dr.",
		"city": "Sudbury, ON",
		"postCode": "P3A 1K6",
		"contact": "Marc G. Levasseur",
		"phone": "(705) 690-3499",
		"website": null
	},
	{
		"company": "M.J. Davenport & Associates Ltd.",
		"link": "/member_directory/36113",
		"street": "169 Lansdowne St. E.",
		"city": "Peterborough, ON",
		"postCode": "K9J 7P7",
		"contact": "Murray Davenport",
		"phone": "(705) 745-6676",
		"website": null
	},
	{
		"company": "M.J. Imperial Design Inc.",
		"link": "/member_directory/33072",
		"street": "300 Front St. W. Ste. 1408",
		"city": "Toronto, ON",
		"postCode": "M5V 0E1",
		"contact": "Masih Javanbakht",
		"phone": "(647) 994-9492",
		"website": "http://mjimperialdesign.com"
	},
	{
		"company": "M3C Demolition Ltd.",
		"link": "/member_directory/34222",
		"street": "390 Keele St.",
		"city": "Toronto, ON",
		"postCode": "M6P 2K9",
		"contact": "Matthew Cromwell",
		"phone": "(416) 561-4894",
		"website": "http://m3cdemolition.com"
	},
	{
		"company": "M6 Marketing",
		"link": "/member_directory/37077",
		"street": "89 The Queensway",
		"city": "Barrie, ON",
		"postCode": "L4M 0B2",
		"contact": "Sarah Allworth",
		"phone": "647-831-8386",
		"website": null
	},
	{
		"company": "MAAX Canada Inc.",
		"link": "/member_directory/35738",
		"street": "38 Sandsprings Cres.",
		"city": "Kitchener, ON",
		"postCode": "N2E 2C7",
		"contact": "George Nicolas",
		"phone": "(519) 576-7167",
		"website": "http://maax.com"
	},
	{
		"company": "MAAX Canada Inc.",
		"link": "/member_directory/36806",
		"street": "38 Sandsprings Cres.",
		"city": "Kitchener, ON",
		"postCode": "N2E 2C7",
		"contact": "George Nicolas",
		"phone": "(519) 576-7167",
		"website": "http://maax.com"
	},
	{
		"company": "MAAX Inc.",
		"link": "/member_directory/35360",
		"street": "38 Sandsprings Cres.",
		"city": "Kitchener, ON",
		"postCode": "N2E 2C7",
		"contact": "George Nicolas",
		"phone": "(519) 576-1367",
		"website": "http://maax.com"
	},
	{
		"company": "MaBo Westside Construction Ltd",
		"link": "/member_directory/35933",
		"street": "137 Chantler Rd., R.R. #5",
		"city": "Welland, ON",
		"postCode": "L3B 5N8",
		"contact": "Jeff Obdeyn",
		"phone": "(905) 732-3003",
		"website": "http://mabowestsideconstruction.ca"
	},
	{
		"company": "Macartney Construction Co. Ltd.",
		"link": "/member_directory/34759",
		"street": "P.O. BOX 1109",
		"city": "Richmond, ON",
		"postCode": "K0A 2Z0",
		"contact": "Richard Macartney",
		"phone": "(613) 223-3577",
		"website": "http://finehome.ca"
	},
	{
		"company": "Macaulay Shiomi Howson Ltd.",
		"link": "/member_directory/33943",
		"street": "600 Annette St.",
		"city": "Toronto, ON",
		"postCode": "M6S 2C4",
		"contact": "Lorelei Jones",
		"phone": "(416) 487-4101",
		"website": "http://mshplan.ca"
	},
	{
		"company": "MacDonald Surveying",
		"link": "/member_directory/36425",
		"street": "8 Steele Rd.",
		"city": "Shanty Bay, ON",
		"postCode": "L0L 2L0",
		"contact": "Chris MacDonald",
		"phone": "(705) 730-6893",
		"website": null
	},
	{
		"company": "MacDonald Tamblyn Lord Surveying Ltd.",
		"link": "/member_directory/36853",
		"street": "50 Flemming Dr., Unit 2",
		"city": "Cambridge, ON",
		"postCode": "N1T 2B1",
		"contact": "Bryan Tamblyn",
		"phone": "(519) 621-9600",
		"website": "http://jdbarnes.com"
	},
	{
		"company": "MacEwan Petroleum Inc",
		"link": "/member_directory/36992",
		"street": "8 MacSteven Drive",
		"city": "Picton, ON",
		"postCode": "K0K 2T0",
		"contact": "Che Powell",
		"phone": "613-438-1807",
		"website": "http://macewen.ca"
	},
	{
		"company": "MacFadyen Design & Build Inc.",
		"link": "/member_directory/35754",
		"street": "149 Oxford St. E.",
		"city": "London, ON",
		"postCode": "N6A 1T4",
		"contact": "Robin Hurdle",
		"phone": "(519) 663-9489",
		"website": "http://macfadyendesign.on.ca"
	},
	{
		"company": "Mackesy, Smye LLP",
		"link": "/member_directory/35417",
		"street": "117 Hughson St. S.",
		"city": "Hamilton, ON",
		"postCode": "L8N 1G7",
		"contact": "W.. Patric Mackesy",
		"phone": "(905) 525-2341",
		"website": "http://mackesysmye.com"
	},
	{
		"company": "Mackey Design + Build",
		"link": "/member_directory/37012",
		"street": "7347 Side Road 12 RR#1",
		"city": "Moorefield, ON",
		"postCode": "N0G 2K0",
		"contact": "Shaun Mackey",
		"phone": "519-638-5242",
		"website": "http://mackeydesignbuild.ca"
	},
	{
		"company": "Macky's Home Improvements Inc.",
		"link": "/member_directory/36716",
		"street": "P.O. Box 23010 County Fair",
		"city": "Thunder Bay, ON",
		"postCode": "P7B 6P1",
		"contact": "Macky Sutherland",
		"phone": "(807) 767-4471",
		"website": null
	},
	{
		"company": "MacNaughton Hermsen Britton Clarkson Planning Ltd.",
		"link": "/member_directory/36854",
		"street": "540 Bingemans Centre Dr.  Ste. 200",
		"city": "Kitchener, ON",
		"postCode": "N2B 3X9",
		"contact": "Paul Britton",
		"phone": "(519) 576-3650",
		"website": "http://mhbcplan.com"
	},
	{
		"company": "MacNeill Edmundson Professional Corporation",
		"link": "/member_directory/35780",
		"street": "82 Wellington St.",
		"city": "London, ON",
		"postCode": "N6B 2K3",
		"contact": "Jeremy Giles",
		"phone": "(519) 660-6060",
		"website": "http://meb.on.ca"
	},
	{
		"company": "MacPherson Builders Ltd.",
		"link": "/member_directory/35088",
		"street": "40 W. Wilmot St. Unit #6",
		"city": "Richmond Hill, ON",
		"postCode": "L4B 1H8",
		"contact": "Lynn Pasquale",
		"phone": "(905) 882-8000",
		"website": null
	},
	{
		"company": "MacPherson Builders Ltd.",
		"link": "/member_directory/33073",
		"street": "40 W. Wilmot St. Unit 6",
		"city": "Richmond Hill, ON",
		"postCode": "L4B 1H8",
		"contact": "Lynn Pasquale",
		"phone": "(905) 882-8000",
		"website": "http://macphersonbuilders.com"
	},
	{
		"company": "Macroplan Ltd.",
		"link": "/member_directory/33944",
		"street": "5145 Steeles Ave. W. Unit D-805",
		"city": "Toronto, ON",
		"postCode": "M9L 1R5",
		"contact": "Max Sherman",
		"phone": "(416) 661-6100",
		"website": null
	},
	{
		"company": "MadHouse Advertising Inc.",
		"link": "/member_directory/33945",
		"street": "563 Dundas St. E. Ste. 201",
		"city": "Toronto, ON",
		"postCode": "M5A 2B7",
		"contact": "Tami Kenwell",
		"phone": "(416) 591-7770",
		"website": "http://madhouseinc.ca"
	},
	{
		"company": "Madison Homes",
		"link": "/member_directory/33074",
		"street": "369 Rimrock Rd.",
		"city": "Toronto, ON",
		"postCode": "M3J 3G2",
		"contact": "Nelly Zagdanski",
		"phone": "(416) 661-4000",
		"website": "http://madisonhomes.ca"
	},
	{
		"company": "Mady Development Corporation",
		"link": "/member_directory/33075",
		"street": "8791 Woodbine Ave. Ste. 100",
		"city": "Markham, ON",
		"postCode": "L3R 0P4",
		"contact": "Charles Mady",
		"phone": "(905) 944-0907",
		"website": "http://madycorp.com"
	},
	{
		"company": "Magenta Mortgage Corporation",
		"link": "/member_directory/34730",
		"street": "232 Herzberg Rd.",
		"city": "Ottawa, ON",
		"postCode": "K2K 2A1",
		"contact": "Denise Buckley",
		"phone": "(613) 230-5014",
		"website": "http://magentainvestment.ca"
	},
	{
		"company": "Magnum Opus Group",
		"link": "/member_directory/33076",
		"street": "175 Sparks Ave.",
		"city": "Toronto, ON",
		"postCode": "M2H 2S5",
		"contact": "Lena Rogol",
		"phone": "(416) 645-1836",
		"website": "http://mog.ca"
	},
	{
		"company": "Maher Homes Ltd.",
		"link": "/member_directory/36335",
		"street": "708 Stonecrest Ave.",
		"city": "Sarnia, ON",
		"postCode": "N7V 2K5",
		"contact": "Steve Maher",
		"phone": "(519) 344-8884",
		"website": "http://maherhomessarnia.com/"
	},
	{
		"company": "Maibec",
		"link": "/member_directory/36142",
		"street": "250 1990 5e Rue",
		"city": "Saint-Romuald, ON",
		"postCode": "G6W5N6",
		"contact": "Adam Deacon",
		"phone": "(705) 331-9637",
		"website": "http://wwwmaibec.com"
	},
	{
		"company": "Maid Easy Cleaning Services Inc.",
		"link": "/member_directory/35781",
		"street": "5-89 Wharncliffe Rd. N.",
		"city": "London, ON",
		"postCode": "N6H 2A7",
		"contact": "Linda Salisbury",
		"phone": "(519) 659-6776",
		"website": "http://maideasycleaning.ca"
	},
	{
		"company": "Main Sail Living",
		"link": "/member_directory/37095",
		"street": "119 Jade Cres",
		"city": "Woodbridge, ON",
		"postCode": "LL 6M1",
		"contact": "Yaz Hobooti",
		"phone": "416-250-1603",
		"website": null
	},
	{
		"company": "Mainstreet Credit Union",
		"link": "/member_directory/34407",
		"street": "40 Keil Dr. S.",
		"city": "Chatham, ON",
		"postCode": "N7M 3G8",
		"contact": "Shawn Bustin",
		"phone": "(519) 436-4590",
		"website": null
	},
	{
		"company": "Mainway Hunter Creighton Insurance",
		"link": "/member_directory/33946",
		"street": "154 Main St. E.",
		"city": "Hamilton, ON",
		"postCode": "L8N 1G9",
		"contact": "Michael Kelly",
		"phone": "1-800-263-5173",
		"website": "http://employerbenefits.ca"
	},
	{
		"company": "Mainway Hunter Creighton Insurance Brokers Ltd.",
		"link": "/member_directory/34841",
		"street": "202 - 154 Main St.",
		"city": "Hamilton, ON",
		"postCode": "L8N 1G9",
		"contact": "Adriana Chiappetta",
		"phone": "1-800-263-5173",
		"website": "http://mainwayinsurance.com"
	},
	{
		"company": "Mainway Hunter Creighton Insurance Brokers Ltd.",
		"link": "/member_directory/36426",
		"street": "154 Main St. E.",
		"city": "Hamilton, ON",
		"postCode": "L8N 1G9",
		"contact": "Melody Murray",
		"phone": "1-800-263-5173",
		"website": null
	},
	{
		"company": "Mainway Hunter Creighton Insurance Inc.",
		"link": "/member_directory/35418",
		"street": "154 Main St. E. Suite 202",
		"city": "Hamilton, ON",
		"postCode": "L8N 1G9",
		"contact": "Karyn Oshmera",
		"phone": "(905) 667-4720",
		"website": "http://mhcinsurance.ca"
	},
	{
		"company": "Mainway Hunter Crighton Employee Benefits Inc.",
		"link": "/member_directory/36855",
		"street": "154 Main St. E., Suite 202",
		"city": "Hamilton, ON",
		"postCode": "L8N 1G9",
		"contact": "Michael Kelly",
		"phone": "1-800-263-5173",
		"website": null
	},
	{
		"company": "Maitland-Perth Construction",
		"link": "/member_directory/36292",
		"street": "162 Wilson Rd.",
		"city": "Stirling, ON",
		"postCode": "K0K 3E0",
		"contact": "Tim Horst",
		"phone": "1-888-395-9483",
		"website": null
	},
	{
		"company": "Majestic Marble Import Ltd.",
		"link": "/member_directory/33420",
		"street": "399 Applewood Cres.",
		"city": "Vaughan, ON",
		"postCode": "L4K 4J3",
		"contact": "Mariangela Muia",
		"phone": "(416) 665-4040",
		"website": "http://majesticmarble.ca"
	},
	{
		"company": "Malibu Investments",
		"link": "/member_directory/33077",
		"street": "130 Spadina Ave. Ste. 707",
		"city": "Toronto, ON",
		"postCode": "M5V 2L4",
		"contact": "Rony Hirsch",
		"phone": "(416) 703-9071",
		"website": "http://malibutoronto.com"
	},
	{
		"company": "Malloch Construction",
		"link": "/member_directory/35639",
		"street": "R.R. #6",
		"city": "Perth, ON",
		"postCode": "K7H 3C8",
		"contact": "Don Malloch",
		"phone": "(613) 264-8150",
		"website": null
	},
	{
		"company": "Malone Given Parsons",
		"link": "/member_directory/33947",
		"street": "140 Renfrew Dr. Ste. 201",
		"city": "Markham, ON",
		"postCode": "L3R 6B3",
		"contact": "Don Given",
		"phone": "(905) 513-0170",
		"website": "http://mgp.ca"
	},
	{
		"company": "Manalco Contracting Ltd.",
		"link": "/member_directory/34566",
		"street": "205 Mackenzie Ave. Unit 1",
		"city": "Ajax, ON",
		"postCode": "L1S 2G1",
		"contact": "Jeff Fyfe",
		"phone": "(905) 831-6000",
		"website": "http://manville.ca"
	},
	{
		"company": "Manalco Contracting Ltd.",
		"link": "/member_directory/34507",
		"street": "955A Alliance Rd.",
		"city": "Pickering, ON",
		"postCode": "L1W 3M8",
		"contact": null,
		"phone": "(905) 831-6000",
		"website": null
	},
	{
		"company": "Mandarin Creek Development Ltd.",
		"link": "/member_directory/36486",
		"street": "c/o MacPherson Builders Limited Ste. Unit6",
		"city": "Richomod Hill, ON",
		"postCode": "L4B 1H8",
		"contact": "Russell Higgins",
		"phone": "(905) 882-8000",
		"website": null
	},
	{
		"company": "Mane Construction Group Inc.",
		"link": "/member_directory/33655",
		"street": "20 Preston Place",
		"city": "Toronto, ON",
		"postCode": "M4N 2S9",
		"contact": "Lefteris Karagiannis",
		"phone": "(416) 821-2622",
		"website": "http://maneconstruction.ca"
	},
	{
		"company": "Manorville Homes Ltd.",
		"link": "/member_directory/34471",
		"street": "205 Mackenzie Ave. Unit 1",
		"city": "Ajax, ON",
		"postCode": "L1S 2G1",
		"contact": "Matthew Jamieson",
		"phone": "(905) 428-6291",
		"website": "http://manorvillehomes.ca"
	},
	{
		"company": "Manotick Windows & Doors",
		"link": "/member_directory/34922",
		"street": "5549 Ann St.",
		"city": "Manotick, ON",
		"postCode": "K4M 1A6",
		"contact": "Robert Milne",
		"phone": "(613) 692-0623",
		"website": "http://manotickwindows.com"
	},
	{
		"company": "Mansteel Ltd.",
		"link": "/member_directory/33421",
		"street": "105 Industrial Rd. Unit 200",
		"city": "Richmond Hill, ON",
		"postCode": "L4C 2Y4",
		"contact": "Michael Mansour",
		"phone": "(905) 780-1488",
		"website": "http://mansteel.com"
	},
	{
		"company": "Maple Crest Homes",
		"link": "/member_directory/35180",
		"street": "13 Caithness St. W., Box 2094",
		"city": "Caledonia, ON",
		"postCode": "N3W 1B7",
		"contact": "Peter Serrani",
		"phone": "(519) 583-1205",
		"website": null
	},
	{
		"company": "Maple Leaf Design & Construction Inc.",
		"link": "/member_directory/34693",
		"street": "P.O. Box 94",
		"city": "Dunrobin, ON",
		"postCode": "K0A 1T0",
		"contact": "Fred Carmosino",
		"phone": "(613) 832-4757",
		"website": "http://mapleleafcustomhomes.ca"
	},
	{
		"company": "Maple Leaf Masonry Supply Ltd.",
		"link": "/member_directory/36684",
		"street": "2135 Long Lake Rd.",
		"city": "Sudbury, ON",
		"postCode": "P3E 5H2",
		"contact": "Brian DeMattia",
		"phone": "(705) 522-5282",
		"website": "http://mapleleafmasonrysupply.ca"
	},
	{
		"company": "MapleBridge Construction Ltd.",
		"link": "/member_directory/33656",
		"street": "186 Valleyway Cres.",
		"city": "Maple, ON",
		"postCode": "L6A 1K7",
		"contact": "Joe Larizza",
		"phone": "(416) 540-7558",
		"website": "http://maplebridgeconstruction.com"
	},
	{
		"company": "Mapleton Homes",
		"link": "/member_directory/35700",
		"street": "1374 Kains Woods Terrace",
		"city": "London, ON",
		"postCode": "N6K 4Z7",
		"contact": "Albert Scarpelli",
		"phone": "(519) 471-2596",
		"website": "http://mapletonhomes.ca"
	},
	{
		"company": "Maplewood Carpentry Inc.",
		"link": "/member_directory/34223",
		"street": "610 Bowes Rd. Unit 13",
		"city": "Concord, ON",
		"postCode": "L4K 4A4",
		"contact": "Mauro Rizzardo",
		"phone": "(905) 738-0883",
		"website": null
	},
	{
		"company": "Marble Trend Ltd.",
		"link": "/member_directory/33422",
		"street": "310 Oakdale Rd.",
		"city": "Toronto, ON",
		"postCode": "M3N 1W5",
		"contact": "Ernie Luchetta",
		"phone": "(416) 783-9911",
		"website": "http://marbletrend.com"
	},
	{
		"company": "Marc Deroo Fine Homes",
		"link": "/member_directory/36038",
		"street": "563 Lakeview Dr.",
		"city": "Woodstock, ON",
		"postCode": "N4T 0C7",
		"contact": "Marc Deroo",
		"phone": "(519) 537-6169",
		"website": "http://marcderoofinehomes.com"
	},
	{
		"company": "Marcasa Homes",
		"link": "/member_directory/35315",
		"street": "661 Hwy #8 Unit 11044",
		"city": "Stoney Creek, ON",
		"postCode": "L8E 5J7",
		"contact": "Marco Marchionda",
		"phone": "(905) 515-4748",
		"website": "http://marcasahomes.com"
	},
	{
		"company": "Marcel Brazeau Ltd.",
		"link": "/member_directory/35015",
		"street": "130 Entreprise St.",
		"city": "Vars, ON",
		"postCode": "K0A 3H0",
		"contact": "Marcel Brazeau",
		"phone": "(613) 443-1940",
		"website": null
	},
	{
		"company": "Marchand Electric",
		"link": "/member_directory/34923",
		"street": "1283 Algoma Rd.",
		"city": "Ottawa, ON",
		"postCode": "K1B 3W7",
		"contact": "Jacques Marchand",
		"phone": "(613) 749-2279",
		"website": "http://marchandelectric.com"
	},
	{
		"company": "Marciano Doors & Trim Co. Ltd.",
		"link": "/member_directory/33423",
		"street": "2600 Bristol Circle Unit A2-A3",
		"city": "Oakville, ON",
		"postCode": "L6H 6Z7",
		"contact": "Peter Marciano",
		"phone": "(905) 829-5224",
		"website": null
	},
	{
		"company": "Marel Contractors",
		"link": "/member_directory/34224",
		"street": "50 Confederation Parkway",
		"city": "Concord, ON",
		"postCode": "L4K 4T8",
		"contact": "Eliot Muzzo",
		"phone": "(905) 326-4000",
		"website": null
	},
	{
		"company": "Mark Acton Construction Ltd.",
		"link": "/member_directory/35181",
		"street": "63 Woodhouse St.",
		"city": "Simcoe, ON",
		"postCode": "N3Y 1G1",
		"contact": "Mark Acton",
		"phone": "(519) 429-3001",
		"website": null
	},
	{
		"company": "Mark Gatt Electrical",
		"link": "/member_directory/34647",
		"street": "665 Riddell Rd.",
		"city": "Orangeville, ON",
		"postCode": "L9W 4Z5",
		"contact": "Mark Gatt",
		"phone": "(519) 942-9325",
		"website": null
	},
	{
		"company": "Mark V. Wilson Builder/Contractor",
		"link": "/member_directory/36075",
		"street": "245 Kent St. W.",
		"city": "Lindsay, ON",
		"postCode": "K9V 2Z3",
		"contact": "Mark Wilson",
		"phone": "(705) 324-7281",
		"website": null
	},
	{
		"company": "Mark's Work Wearhouse",
		"link": "/member_directory/36143",
		"street": "1135 Lansdowne St. W.",
		"city": "Peterborough, ON",
		"postCode": "K9J 7M2",
		"contact": "Jed Wylie",
		"phone": "(705) 748-9570",
		"website": null
	},
	{
		"company": "Markay Developments",
		"link": "/member_directory/33078",
		"street": "1176 Burnhamthorpe Rd. W.",
		"city": "Oakville, ON",
		"postCode": "L6M 4L1",
		"contact": "Robert Cohen",
		"phone": "(905) 257-1220",
		"website": "http://markayhomes.com"
	},
	{
		"company": "Marken Homes and Construction",
		"link": "/member_directory/35934",
		"street": "PO Box 154",
		"city": "Niagara Falls, ON",
		"postCode": "L2H 3H7",
		"contact": "David R. Kendall",
		"phone": "(905) 374-7533",
		"website": null
	},
	{
		"company": "Marketvision Real Estate Corporation",
		"link": "/member_directory/33948",
		"street": "10 Price St. Ste. 201",
		"city": "Toronto, ON",
		"postCode": "M4W 1Z4",
		"contact": "Jennifer Bowman",
		"phone": "(416) 366-6100",
		"website": "http://marketvisionrealty.com"
	},
	{
		"company": "Markham Centre Realty Inc., Brokerage",
		"link": "/member_directory/33949",
		"street": "3621 Highway 7 E. Unit 117",
		"city": "Markham, ON",
		"postCode": "L3R 0G6",
		"contact": "Susan Wong",
		"phone": "(905) 513-6633",
		"website": null
	},
	{
		"company": "Marks Supply Inc.",
		"link": "/member_directory/35516",
		"street": "3424 Landmark Rd.",
		"city": "Burlington, ON",
		"postCode": "L7M 1S8",
		"contact": "Kyle Hendsbee",
		"phone": "(905) 335-3848",
		"website": "http://markssupply.net"
	},
	{
		"company": "Marlo Homes Inc.",
		"link": "/member_directory/37191",
		"street": "205 Gladstone Ave",
		"city": "London, ON",
		"postCode": "N5Z 3S1",
		"contact": "Paula DaSilva",
		"phone": "519-690-1166",
		"website": null
	},
	{
		"company": "Marmara Ltd.",
		"link": "/member_directory/34225",
		"street": "26 Bellbury Cres.",
		"city": "North York, ON",
		"postCode": "M2J 2J8",
		"contact": "Mehtap Kahraman",
		"phone": "(647) 864-1062",
		"website": "http://marmaracontracting.com"
	},
	{
		"company": "Maroline Distributing Inc.",
		"link": "/member_directory/33424",
		"street": "280 King St. E. Ste. 101",
		"city": "Toronto, ON",
		"postCode": "M5A 1K7",
		"contact": "Gerry DiLeo",
		"phone": "(905) 671-4747",
		"website": "http://maroline.com"
	},
	{
		"company": "Marpasco Homes ",
		"link": "/member_directory/36950",
		"street": "2503 Buttery St.",
		"city": "Windsor, ON",
		"postCode": "N9E 4L9",
		"contact": "Mary Morabito",
		"phone": "(519) 972-6746",
		"website": null
	},
	{
		"company": "Marquis Developments",
		"link": "/member_directory/35701",
		"street": "P.O. Box 130 21578 Richmond St.",
		"city": "Arva, ON",
		"postCode": "N0M 1C0",
		"contact": "Shaun Swift",
		"phone": "(519) 606-3300",
		"website": "http://marquisdevelopments.com"
	},
	{
		"company": "Marshall Homes Corporation",
		"link": "/member_directory/33079",
		"street": "1295 Wharf St. Unit 9",
		"city": "Pickering, ON",
		"postCode": "L1W 1A2",
		"contact": "Craig Marshall",
		"phone": "(905) 420-1500",
		"website": "http://marshallhomes.ca"
	},
	{
		"company": "Marshall Macklin Monaghan Ltd.",
		"link": "/member_directory/34472",
		"street": "701 Rossland Rd. E. Suite #201",
		"city": "Whitby, ON",
		"postCode": "L1N 8Y9",
		"contact": "Craig Rose",
		"phone": "(905) 668-3022",
		"website": "http://mmm.ca"
	},
	{
		"company": "Martindale Window & Door Inc.",
		"link": "/member_directory/34410",
		"street": "2895 Kew Dr.",
		"city": "Windsor, ON",
		"postCode": "N8T 3B7",
		"contact": "John Mahon",
		"phone": "(519) 999-2982",
		"website": null
	},
	{
		"company": "Martindale Window & Door Inc.",
		"link": "/member_directory/36973",
		"street": "2895 Kew Dr.",
		"city": "Windsor, ON",
		"postCode": "N8T 3B7",
		"contact": "Ron Garant",
		"phone": "(519) 944-8111",
		"website": null
	},
	{
		"company": "Martindale Windows & Doors",
		"link": "/member_directory/36358",
		"street": "2895 Kew Dr.",
		"city": "Windsor, ON",
		"postCode": "N8T 3B7",
		"contact": "Nino Papa",
		"phone": "(519) 944-8111",
		"website": "http://martindalewindow.com"
	},
	{
		"company": "Martino Contracting and HVAC",
		"link": "/member_directory/36293",
		"street": "400 W. Front St.",
		"city": "Stirling, ON",
		"postCode": "K0K 3E0",
		"contact": "Donovan Williams",
		"phone": "(613) 395-1800",
		"website": null
	},
	{
		"company": "Martino Contractors Ltd.",
		"link": "/member_directory/34597",
		"street": "150 Connie Cres. Unit 16",
		"city": "Concord, ON",
		"postCode": "L4K 1L9",
		"contact": "Jeff Martino",
		"phone": "(905) 760-9894",
		"website": "http://martinohvac.com"
	},
	{
		"company": "Martino Contractors Ltd.",
		"link": "/member_directory/34226",
		"street": "150 Connie Cres. Unit 16",
		"city": "Concord, ON",
		"postCode": "L4K 1L9",
		"contact": "Mike Martino",
		"phone": "(905) 760-9894",
		"website": "http://martinohvac.com"
	},
	{
		"company": "Martino Contractors Ottawa Ltd.",
		"link": "/member_directory/35016",
		"street": "1475 Star Top Rd. Units 7-9",
		"city": "Ottawa, ON",
		"postCode": "K1B 3W5",
		"contact": "Neil Surch",
		"phone": "(613) 733-4822",
		"website": "http://martinohvac.com"
	},
	{
		"company": "Marvilla Developments",
		"link": "/member_directory/34357",
		"street": "379B Queen St.",
		"city": "Kitchener, ON",
		"postCode": "N2G 1W6",
		"contact": "Caridad Malebranche",
		"phone": "(519) 208-7937",
		"website": null
	},
	{
		"company": "Marvin S. N. Geist",
		"link": "/member_directory/33950",
		"street": "3300 Highway 7 Ste. 802",
		"city": "Vaughan, ON",
		"postCode": "L4K 4M3",
		"contact": "Marvin Geist",
		"phone": "(905) 660-6875",
		"website": null
	},
	{
		"company": "Marycroft Tile Ltd.",
		"link": "/member_directory/34227",
		"street": "190 Marycroft Ave. Ste. 15",
		"city": "Woodbridge, ON",
		"postCode": "L4L 5Y1",
		"contact": "Elizabeth Figueiredo",
		"phone": "(905) 265-9551",
		"website": null
	},
	{
		"company": "MaryDel Homes",
		"link": "/member_directory/33080",
		"street": "170 Industrial Parkway N.",
		"city": "Aurora, ON",
		"postCode": "L4G 4C3",
		"contact": "Vito Montesano",
		"phone": "(905) 503-8500",
		"website": "http://marydelhomes.com"
	},
	{
		"company": "Marz Homes Holdings Inc.",
		"link": "/member_directory/35316",
		"street": "115 #8 Highway Suite 204",
		"city": "Stoney Creek, ON",
		"postCode": "L8G 1C1",
		"contact": "Anthony Chiarella",
		"phone": "(905) 662-3039",
		"website": "http://marzhomes.com"
	},
	{
		"company": "Masco Canada Ltd.",
		"link": "/member_directory/36517",
		"street": "763 Eagletrace Dr.",
		"city": "London, ON",
		"postCode": "N6G 0E9",
		"contact": "Wayne Kiser",
		"phone": "(519) 657-2694",
		"website": "http://deltafaucet.com"
	},
	{
		"company": "Masco Canada Ltd. - Plumbing Group",
		"link": "/member_directory/35517",
		"street": "30-400 Matheson Blvd. E.",
		"city": "Mississauga, ON",
		"postCode": "L4Z 1N8",
		"contact": "Kim Martin",
		"phone": "1-866-262-2208",
		"website": null
	},
	{
		"company": "MASCO Canada Ltd. Plumbing Group",
		"link": "/member_directory/34377",
		"street": "395 Matheson Blvd. E.",
		"city": "Mississauga, ON",
		"postCode": "L4Z 2H2",
		"contact": "Doug Kennedy",
		"phone": "(519) 754-4363",
		"website": null
	},
	{
		"company": "Mason Homes",
		"link": "/member_directory/33081",
		"street": "30 Pennsylvania Ave. Unit 6",
		"city": "Concord, ON",
		"postCode": "L4K 4A5",
		"contact": "Gord Mason",
		"phone": "(905) 761-2050",
		"website": "http://masonhomes.ca"
	},
	{
		"company": "Mason Homes",
		"link": "/member_directory/36076",
		"street": "30 Pennsylvania Ave., Unit 6",
		"city": "Concord, ON",
		"postCode": "L4K 4A5",
		"contact": "Gord Mason",
		"phone": "(905) 761-2050",
		"website": null
	},
	{
		"company": "Mason Windows Ltd.",
		"link": "/member_directory/34567",
		"street": "913 Brock Rd. S.",
		"city": "Pickering, ON",
		"postCode": "L1W 2X9",
		"contact": "Terry Kane",
		"phone": "(905) 839-1171",
		"website": null
	},
	{
		"company": "Mason Windows Ltd.",
		"link": "/member_directory/34924",
		"street": "2097 Woods St.",
		"city": "Rockland, ON",
		"postCode": "K4K 1H7",
		"contact": "Henri Roy",
		"phone": "(613) 446-1008",
		"website": "http://masonwindows.ca"
	},
	{
		"company": "Mason Windows Ltd.",
		"link": "/member_directory/33425",
		"street": "913 Brock Rd. S.",
		"city": "Pickering, ON",
		"postCode": "L1W 2X9",
		"contact": "Terry Kane",
		"phone": "(905) 839-1171",
		"website": "http://masonwindows.com"
	},
	{
		"company": "Mason's Masonry Supply Ltd.",
		"link": "/member_directory/33426",
		"street": "85 W. Beaver Creek Rd.",
		"city": "Richmond Hill, ON",
		"postCode": "L4B 1K4",
		"contact": "Malcolm Mason",
		"phone": "(905) 889-8757",
		"website": "http://masonsmasonry.com"
	},
	{
		"company": "Masonite International",
		"link": "/member_directory/37078",
		"street": "5827-274th St",
		"city": "Langley , BC",
		"postCode": "V4W 3J1",
		"contact": "Luke Thompson",
		"phone": "1 80 616 7111",
		"website": null
	},
	{
		"company": "Masonry Worx",
		"link": "/member_directory/33951",
		"street": "150 Jardin Dr. Unit 10",
		"city": "Concord, ON",
		"postCode": "L4K 3P9",
		"contact": "Brittany LeClerc",
		"phone": "(905) 760-9679",
		"website": "http://masonryworx.ca"
	},
	{
		"company": "Master Edge Homes",
		"link": "/member_directory/33657",
		"street": "15 Allstate Parkway Ste. 600",
		"city": "Markham, ON",
		"postCode": "L3R 5B4",
		"contact": "Dwayne Butler",
		"phone": "(905) 201-1054",
		"website": "http://masteredgehomes.com"
	},
	{
		"company": "Master Plan Management/Edgewood Valley",
		"link": "/member_directory/34625",
		"street": "1140 Burnamthorpe Rd. West Ste. 300",
		"city": "Mississauga, ON",
		"postCode": "L5H 2C3",
		"contact": "Ron Starr",
		"phone": "(905) 272-3780",
		"website": "http://deanlee.ca"
	},
	{
		"company": "Master Seal Windows Ltd.",
		"link": "/member_directory/34378",
		"street": "1125 Colborne St. E.",
		"city": "Brantford, ON",
		"postCode": "N3T 5M1",
		"contact": "Steve Groff",
		"phone": "(519) 752-2181",
		"website": null
	},
	{
		"company": "Mastercraft Homes Windsor Inc.",
		"link": "/member_directory/36951",
		"street": "3199 Dougall Ave.",
		"city": "Windsor, ON",
		"postCode": "N9E 1S5",
		"contact": "Bill Salzer",
		"phone": "(519) 966-8100",
		"website": "http://mastercrafthomesonline.com"
	},
	{
		"company": "Masters Insurance Ltd.",
		"link": "/member_directory/33952",
		"street": "7501 Keele St. Ste. 400",
		"city": "Concord, ON",
		"postCode": "L4K 1Y2",
		"contact": "Michael Ciccolini",
		"phone": "(905) 738-4164",
		"website": "http://mastersinsurance.com"
	},
	{
		"company": "Masters Insurance Ottawa Ltd.",
		"link": "/member_directory/34842",
		"street": "196 Bronson Ave., Suite 102",
		"city": "Ottawa, ON",
		"postCode": "K1R 6H4",
		"contact": "Frank Ciccolini",
		"phone": "(613) 232-8605",
		"website": "http://mastersinsurance.com"
	},
	{
		"company": "Matas Group",
		"link": "/member_directory/33953",
		"street": "88 Nelson St.",
		"city": "Oakville, ON",
		"postCode": "L6L 3H8",
		"contact": "John Matas",
		"phone": "(905) 465-4442",
		"website": "http://matasgroup.ca"
	},
	{
		"company": "Mather Fine Homes a division of Beechwood Investments Development Inc.",
		"link": "/member_directory/33082",
		"street": "P.O. Box 1294 Station K",
		"city": "Toronto, ON",
		"postCode": "M4P 3J4",
		"contact": "Alan Mather",
		"phone": "(416) 482-9001",
		"website": "http://matherfinehomes.com"
	},
	{
		"company": "Mattamy Homes",
		"link": "/member_directory/35317",
		"street": "2360 Bristol Circle Suite #200",
		"city": "Oakville, ON",
		"postCode": "L6H 6M5",
		"contact": "Jessica Clinesmith",
		"phone": "(905) 829-7692",
		"website": null
	},
	{
		"company": "Mattamy Homes Limited",
		"link": "/member_directory/33100",
		"street": "66 Wellington Street West TD Bank Tower, Suite 5500",
		"city": "Toronto, ON",
		"postCode": "M4K 1G8",
		"contact": "David George",
		"phone": "416-637-0823",
		"website": "http://mattamyhomes.com"
	},
	{
		"company": "Mattamy Homes Limited",
		"link": "/member_directory/34697",
		"street": "300 - 135 Michael Cowpland Dr.",
		"city": "Kanata, ON",
		"postCode": "K2M 2E9",
		"contact": "Kevin O&apos;Shea",
		"phone": "(613) 692-8672",
		"website": "http://monarchgroup.net"
	},
	{
		"company": "Mattamy Homes Limited",
		"link": "/member_directory/36767",
		"street": "2550 Victoria Park Ave, Suite 200",
		"city": "Toronto, ON",
		"postCode": "M2J 5A9",
		"contact": "Peter Maleganovski",
		"phone": "(416) 491-7446",
		"website": "http://monarchgroup.net"
	},
	{
		"company": "Mattamy Homes Limited",
		"link": "/member_directory/34477",
		"street": "7880 Keele St",
		"city": "Vaughan, ON",
		"postCode": "L4K 4G7",
		"contact": "Jessie Hakong",
		"phone": null,
		"website": "http://jessie.hakong@mattamycorp.com"
	},
	{
		"company": "Mattamy Homes Ltd.",
		"link": "/member_directory/33083",
		"street": "2360 Bristol Circle",
		"city": "Oakville, ON",
		"postCode": "L6H 6M5",
		"contact": "Peter Gilgan",
		"phone": "(905) 829-2424",
		"website": "http://mattamyhomes.com"
	},
	{
		"company": "Mattamy Homes Ltd.",
		"link": "/member_directory/36765",
		"street": "2360 Bristol Circle",
		"city": "Oakville, ON",
		"postCode": "L6H 6M9",
		"contact": "Brad Trussler",
		"phone": "(905) 829-7674",
		"website": "http://mattamyhomes.com"
	},
	{
		"company": "Mattamy Homes Ltd. - Ottawa Division",
		"link": "/member_directory/34694",
		"street": "50 Hines Rd. Suite 100",
		"city": "Kanata, ON",
		"postCode": "K2K 2M5",
		"contact": "Mark Parsons",
		"phone": "(613) 831-4115",
		"website": "http://mattamyhomes.com"
	}
]